{
"type": "FeatureCollection",
"name": "chamba_district",
"crs": { "type": "name", "properties": { "name": "urn:ogc:def:crs:OGC:1.3:CRS84" } },
"features": [
{ "type": "Feature", "properties": { "shapeName": "Chamba", "shapeISO": "", "shapeID": "76128533B58537895532859", "shapeGroup": "IND", "shapeType": "ADM2" }, "geometry": { "type": "Polygon", "coordinates": [ [ [ 75.92775, 32.4083 ], [ 75.93063, 32.4054 ], [ 75.93226, 32.40376 ], [ 75.93232, 32.4037 ], [ 75.93279, 32.40323 ], [ 75.93324, 32.40278 ], [ 75.93349, 32.40252 ], [ 75.93357, 32.40244 ], [ 75.93378, 32.40223 ], [ 75.935, 32.401 ], [ 75.9358, 32.4002 ], [ 75.93673, 32.39849 ], [ 75.93678, 32.39841 ], [ 75.9371, 32.39784 ], [ 75.93732, 32.39744 ], [ 75.93789, 32.39739 ], [ 75.94317, 32.39518 ], [ 75.9495, 32.39274 ], [ 75.95465, 32.39075 ], [ 75.96001, 32.38985 ], [ 75.96838, 32.39147 ], [ 75.97547, 32.3905 ], [ 75.98019, 32.38466 ], [ 75.98082, 32.38417 ], [ 75.98327, 32.38225 ], [ 75.98458, 32.38121 ], [ 75.98535, 32.3806 ], [ 75.99224, 32.37521 ], [ 75.99494, 32.37146 ], [ 75.99985, 32.36467 ], [ 76.00036, 32.36397 ], [ 76.00074, 32.36344 ], [ 76.00087, 32.36326 ], [ 76.00137, 32.36236 ], [ 76.00156, 32.36201 ], [ 76.00234, 32.36058 ], [ 76.00238, 32.36052 ], [ 76.0024, 32.36047 ], [ 76.00277, 32.35981 ], [ 76.00383, 32.35787 ], [ 76.00426, 32.35708 ], [ 76.00609, 32.35375 ], [ 76.00738, 32.35231 ], [ 76.00769, 32.35196 ], [ 76.01145, 32.34775 ], [ 76.01213, 32.34699 ], [ 76.01531, 32.34343 ], [ 76.01835, 32.34003 ], [ 76.02059, 32.33752 ], [ 76.02079, 32.33687 ], [ 76.02119, 32.33555 ], [ 76.0223, 32.33191 ], [ 76.0228, 32.33028 ], [ 76.02111, 32.32762 ], [ 76.02046, 32.32659 ], [ 76.01944, 32.32499 ], [ 76.01895, 32.32422 ], [ 76.01759, 32.3205 ], [ 76.01658, 32.31776 ], [ 76.01835, 32.31835 ], [ 76.02446, 32.32043 ], [ 76.02447, 32.31792 ], [ 76.02399, 32.31673 ], [ 76.02252, 32.31309 ], [ 76.02197, 32.3117 ], [ 76.0207, 32.30359 ], [ 76.02061, 32.30301 ], [ 76.0206, 32.30296 ], [ 76.01935, 32.30108 ], [ 76.01763, 32.29849 ], [ 76.01766, 32.29737 ], [ 76.01777, 32.29286 ], [ 76.01778, 32.29256 ], [ 76.01783, 32.29046 ], [ 76.01926, 32.28863 ], [ 76.0195, 32.28833 ], [ 76.02028, 32.28734 ], [ 76.02109, 32.28633 ], [ 76.02307, 32.28381 ], [ 76.02327, 32.28357 ], [ 76.02345, 32.28334 ], [ 76.02349, 32.28329 ], [ 76.02376, 32.28294 ], [ 76.02381, 32.28288 ], [ 76.02444, 32.28208 ], [ 76.02467, 32.28179 ], [ 76.02507, 32.28128 ], [ 76.02575, 32.28043 ], [ 76.02591, 32.28022 ], [ 76.02636, 32.27965 ], [ 76.02718, 32.2786 ], [ 76.02746, 32.27826 ], [ 76.02859, 32.27657 ], [ 76.02881, 32.27579 ], [ 76.02902, 32.2754 ], [ 76.02911, 32.27524 ], [ 76.02939, 32.27472 ], [ 76.02978, 32.27401 ], [ 76.03002, 32.27357 ], [ 76.03025, 32.27315 ], [ 76.03035, 32.27297 ], [ 76.03125, 32.27134 ], [ 76.03193, 32.27009 ], [ 76.03588, 32.26953 ], [ 76.03678, 32.2694 ], [ 76.03805, 32.26922 ], [ 76.03874, 32.26913 ], [ 76.0423, 32.26862 ], [ 76.04327, 32.26786 ], [ 76.04473, 32.26672 ], [ 76.04514, 32.2664 ], [ 76.04545, 32.26615 ], [ 76.04635, 32.26544 ], [ 76.047, 32.26494 ], [ 76.04703, 32.2649 ], [ 76.04733, 32.26468 ], [ 76.04773, 32.26437 ], [ 76.04824, 32.26397 ], [ 76.05057, 32.2644 ], [ 76.05285, 32.26482 ], [ 76.05367, 32.26498 ], [ 76.05577, 32.26537 ], [ 76.05724, 32.26552 ], [ 76.05774, 32.26561 ], [ 76.05869, 32.26556 ], [ 76.05957, 32.2658 ], [ 76.06024, 32.26599 ], [ 76.06158, 32.26638 ], [ 76.06224, 32.26657 ], [ 76.06481, 32.26704 ], [ 76.07181, 32.26834 ], [ 76.0725, 32.26847 ], [ 76.07304, 32.26857 ], [ 76.07324, 32.26864 ], [ 76.07337, 32.26869 ], [ 76.07355, 32.26876 ], [ 76.07926, 32.27084 ], [ 76.08005, 32.27083 ], [ 76.08081, 32.27082 ], [ 76.08111, 32.27081 ], [ 76.08741, 32.27072 ], [ 76.09364, 32.26842 ], [ 76.09424, 32.2682 ], [ 76.09461, 32.26806 ], [ 76.09705, 32.26603 ], [ 76.09713, 32.26595 ], [ 76.09872, 32.26463 ], [ 76.09957, 32.26392 ], [ 76.09995, 32.2636 ], [ 76.1004, 32.26322 ], [ 76.10064, 32.26311 ], [ 76.10073, 32.26306 ], [ 76.10086, 32.26301 ], [ 76.10092, 32.26298 ], [ 76.10287, 32.26206 ], [ 76.10306, 32.26197 ], [ 76.10549, 32.26083 ], [ 76.10669, 32.26027 ], [ 76.10727, 32.26 ], [ 76.10747, 32.2599 ], [ 76.10837, 32.25948 ], [ 76.10996, 32.25874 ], [ 76.11101, 32.25824 ], [ 76.11108, 32.25823 ], [ 76.11209, 32.25804 ], [ 76.11634, 32.25723 ], [ 76.12063, 32.25642 ], [ 76.1209, 32.25608 ], [ 76.12127, 32.25562 ], [ 76.12208, 32.25462 ], [ 76.12253, 32.25405 ], [ 76.12278, 32.25374 ], [ 76.12382, 32.25245 ], [ 76.12402, 32.2522 ], [ 76.12497, 32.25102 ], [ 76.12495, 32.25074 ], [ 76.12489, 32.24963 ], [ 76.12479, 32.24792 ], [ 76.12476, 32.24749 ], [ 76.12474, 32.24711 ], [ 76.12473, 32.24701 ], [ 76.1247, 32.24647 ], [ 76.12458, 32.2444 ], [ 76.12451, 32.24319 ], [ 76.12441, 32.24155 ], [ 76.12498, 32.23906 ], [ 76.12513, 32.2384 ], [ 76.12527, 32.2378 ], [ 76.12531, 32.23762 ], [ 76.1254, 32.23722 ], [ 76.12546, 32.23694 ], [ 76.12551, 32.23671 ], [ 76.12555, 32.23657 ], [ 76.12596, 32.23475 ], [ 76.12442, 32.23065 ], [ 76.1242, 32.23006 ], [ 76.12344, 32.22801 ], [ 76.12454, 32.22802 ], [ 76.1249, 32.22803 ], [ 76.12726, 32.22806 ], [ 76.12753, 32.22806 ], [ 76.12956, 32.2281 ], [ 76.13111, 32.22813 ], [ 76.13128, 32.22813 ], [ 76.13268, 32.22815 ], [ 76.13308, 32.22816 ], [ 76.13344, 32.22806 ], [ 76.13382, 32.22796 ], [ 76.1358, 32.22742 ], [ 76.13644, 32.22725 ], [ 76.1365, 32.22723 ], [ 76.13656, 32.22722 ], [ 76.1368, 32.22715 ], [ 76.13829, 32.22675 ], [ 76.139, 32.22655 ], [ 76.14036, 32.22618 ], [ 76.14296, 32.22548 ], [ 76.14419, 32.22515 ], [ 76.14457, 32.22505 ], [ 76.14528, 32.22523 ], [ 76.1492, 32.2262 ], [ 76.14973, 32.22633 ], [ 76.15061, 32.22655 ], [ 76.15146, 32.22677 ], [ 76.15156, 32.22679 ], [ 76.1522, 32.22703 ], [ 76.15231, 32.22707 ], [ 76.1526, 32.22718 ], [ 76.15278, 32.22725 ], [ 76.1557, 32.22835 ], [ 76.16029, 32.23009 ], [ 76.16418, 32.23288 ], [ 76.16556, 32.23387 ], [ 76.16837, 32.23588 ], [ 76.16873, 32.23614 ], [ 76.16909, 32.23639 ], [ 76.16912, 32.23641 ], [ 76.16944, 32.23664 ], [ 76.16946, 32.23661 ], [ 76.16977, 32.23613 ], [ 76.17, 32.23578 ], [ 76.17048, 32.23503 ], [ 76.17164, 32.23324 ], [ 76.17253, 32.23186 ], [ 76.1727, 32.23149 ], [ 76.1728, 32.23118 ], [ 76.17294, 32.2311 ], [ 76.17307, 32.23103 ], [ 76.17357, 32.23026 ], [ 76.17524, 32.22973 ], [ 76.17672, 32.22915 ], [ 76.17761, 32.2286 ], [ 76.17874, 32.22796 ], [ 76.17984, 32.22726 ], [ 76.18074, 32.22677 ], [ 76.18134, 32.22657 ], [ 76.18176, 32.2266 ], [ 76.18224, 32.22683 ], [ 76.18255, 32.22699 ], [ 76.18374, 32.22935 ], [ 76.18442, 32.23072 ], [ 76.18456, 32.23099 ], [ 76.18505, 32.23199 ], [ 76.18472, 32.23316 ], [ 76.18455, 32.23377 ], [ 76.18397, 32.23579 ], [ 76.18328, 32.2382 ], [ 76.18312, 32.23875 ], [ 76.18282, 32.23982 ], [ 76.18258, 32.24065 ], [ 76.1824, 32.24128 ], [ 76.18229, 32.24167 ], [ 76.18165, 32.24391 ], [ 76.18161, 32.24408 ], [ 76.18139, 32.24484 ], [ 76.18133, 32.24503 ], [ 76.18199, 32.24668 ], [ 76.18289, 32.24893 ], [ 76.18422, 32.25232 ], [ 76.18501, 32.25431 ], [ 76.18567, 32.25598 ], [ 76.18623, 32.2586 ], [ 76.18693, 32.26185 ], [ 76.18696, 32.26198 ], [ 76.18719, 32.26308 ], [ 76.18787, 32.26623 ], [ 76.18764, 32.2691 ], [ 76.1876, 32.26964 ], [ 76.18752, 32.27062 ], [ 76.18738, 32.27229 ], [ 76.18482, 32.27437 ], [ 76.18445, 32.27467 ], [ 76.1823, 32.27642 ], [ 76.1804, 32.27721 ], [ 76.17433, 32.27974 ], [ 76.17407, 32.27984 ], [ 76.17374, 32.28006 ], [ 76.17197, 32.28123 ], [ 76.17189, 32.28127 ], [ 76.17001, 32.28251 ], [ 76.16959, 32.28279 ], [ 76.16882, 32.28329 ], [ 76.16872, 32.2838 ], [ 76.16851, 32.28484 ], [ 76.16818, 32.28655 ], [ 76.16812, 32.28683 ], [ 76.16806, 32.28714 ], [ 76.1678, 32.28845 ], [ 76.16668, 32.29095 ], [ 76.16552, 32.29353 ], [ 76.16457, 32.29564 ], [ 76.1636, 32.29779 ], [ 76.16358, 32.29958 ], [ 76.16357, 32.30081 ], [ 76.16357, 32.30121 ], [ 76.16356, 32.30191 ], [ 76.16355, 32.30235 ], [ 76.16355, 32.30249 ], [ 76.16354, 32.30343 ], [ 76.16353, 32.30404 ], [ 76.16352, 32.3048 ], [ 76.16348, 32.30842 ], [ 76.16344, 32.31249 ], [ 76.16308, 32.31332 ], [ 76.16228, 32.31518 ], [ 76.16126, 32.31755 ], [ 76.16653, 32.32231 ], [ 76.16659, 32.3224 ], [ 76.16697, 32.32293 ], [ 76.16745, 32.32362 ], [ 76.1675, 32.32369 ], [ 76.16756, 32.32378 ], [ 76.16916, 32.32606 ], [ 76.16987, 32.32944 ], [ 76.17045, 32.3322 ], [ 76.17362, 32.33709 ], [ 76.17417, 32.33928 ], [ 76.17432, 32.33988 ], [ 76.17367, 32.34109 ], [ 76.17351, 32.34138 ], [ 76.17277, 32.34279 ], [ 76.17259, 32.34313 ], [ 76.17239, 32.34351 ], [ 76.17154, 32.34511 ], [ 76.17145, 32.34528 ], [ 76.17141, 32.34535 ], [ 76.17092, 32.34829 ], [ 76.17074, 32.34931 ], [ 76.17062, 32.35005 ], [ 76.17053, 32.3506 ], [ 76.16995, 32.3511 ], [ 76.16872, 32.35215 ], [ 76.16834, 32.35248 ], [ 76.16768, 32.35305 ], [ 76.16728, 32.35339 ], [ 76.16737, 32.35342 ], [ 76.16951, 32.35405 ], [ 76.17162, 32.35467 ], [ 76.17498, 32.35566 ], [ 76.17811, 32.35659 ], [ 76.19097, 32.36465 ], [ 76.19328, 32.36572 ], [ 76.19493, 32.36649 ], [ 76.1996, 32.36866 ], [ 76.20659, 32.37359 ], [ 76.21221, 32.3785 ], [ 76.21794, 32.38733 ], [ 76.22017, 32.39182 ], [ 76.22099, 32.39345 ], [ 76.22195, 32.39397 ], [ 76.22223, 32.39413 ], [ 76.22406, 32.39512 ], [ 76.22679, 32.39483 ], [ 76.22859, 32.39464 ], [ 76.2313, 32.39436 ], [ 76.24353, 32.39307 ], [ 76.24664, 32.39329 ], [ 76.24785, 32.39338 ], [ 76.25068, 32.39358 ], [ 76.25324, 32.39376 ], [ 76.25553, 32.39392 ], [ 76.25647, 32.39366 ], [ 76.259, 32.39296 ], [ 76.26029, 32.39261 ], [ 76.26062, 32.39064 ], [ 76.26256, 32.37928 ], [ 76.26699, 32.37382 ], [ 76.26741, 32.37331 ], [ 76.26875, 32.37365 ], [ 76.27103, 32.37422 ], [ 76.27237, 32.37456 ], [ 76.27422, 32.37503 ], [ 76.27627, 32.37391 ], [ 76.27672, 32.37358 ], [ 76.28287, 32.36898 ], [ 76.28483, 32.36752 ], [ 76.28709, 32.36313 ], [ 76.28822, 32.35617 ], [ 76.29143, 32.34912 ], [ 76.2957, 32.33974 ], [ 76.3027, 32.3373 ], [ 76.30875, 32.33939 ], [ 76.30996, 32.33981 ], [ 76.31817, 32.33687 ], [ 76.32261, 32.33605 ], [ 76.32623, 32.33539 ], [ 76.33162, 32.33214 ], [ 76.33943, 32.32582 ], [ 76.34911, 32.32543 ], [ 76.35301, 32.32585 ], [ 76.35662, 32.32625 ], [ 76.36176, 32.3203 ], [ 76.36468, 32.31692 ], [ 76.3669, 32.3134 ], [ 76.36694, 32.31333 ], [ 76.36698, 32.31328 ], [ 76.36701, 32.31322 ], [ 76.36792, 32.31178 ], [ 76.37206, 32.30522 ], [ 76.37236, 32.30473 ], [ 76.37411, 32.30196 ], [ 76.37835, 32.29817 ], [ 76.37987, 32.29681 ], [ 76.38874, 32.29225 ], [ 76.3948, 32.28914 ], [ 76.39842, 32.28728 ], [ 76.40793, 32.28239 ], [ 76.42046, 32.27953 ], [ 76.42227, 32.27378 ], [ 76.423, 32.27144 ], [ 76.42312, 32.27106 ], [ 76.42353, 32.26977 ], [ 76.42366, 32.26934 ], [ 76.42377, 32.26899 ], [ 76.42499, 32.2651 ], [ 76.42531, 32.26409 ], [ 76.43058, 32.26325 ], [ 76.43366, 32.26276 ], [ 76.44126, 32.2653 ], [ 76.44835, 32.26246 ], [ 76.45042, 32.26164 ], [ 76.45769, 32.25593 ], [ 76.45919, 32.25475 ], [ 76.46407, 32.24891 ], [ 76.46455, 32.24834 ], [ 76.47087, 32.24742 ], [ 76.47726, 32.24764 ], [ 76.48291, 32.25153 ], [ 76.48982, 32.24534 ], [ 76.49532, 32.24295 ], [ 76.50521, 32.23292 ], [ 76.51427, 32.23247 ], [ 76.52526, 32.23731 ], [ 76.52677, 32.23287 ], [ 76.54924, 32.22812 ], [ 76.55256, 32.22831 ], [ 76.55739, 32.22857 ], [ 76.56526, 32.22477 ], [ 76.57315, 32.22528 ], [ 76.59087, 32.2207 ], [ 76.60034, 32.21441 ], [ 76.60858, 32.20651 ], [ 76.61278, 32.20085 ], [ 76.61437, 32.1987 ], [ 76.62579, 32.1921 ], [ 76.62793, 32.19153 ], [ 76.63194, 32.19045 ], [ 76.63915, 32.18851 ], [ 76.64653, 32.18653 ], [ 76.64811, 32.1861 ], [ 76.64985, 32.18563 ], [ 76.64992, 32.18561 ], [ 76.6503, 32.18551 ], [ 76.65124, 32.18526 ], [ 76.65273, 32.18486 ], [ 76.65348, 32.18466 ], [ 76.65499, 32.18425 ], [ 76.65529, 32.18417 ], [ 76.65639, 32.18388 ], [ 76.65809, 32.18342 ], [ 76.6584, 32.18334 ], [ 76.66018, 32.18286 ], [ 76.6667, 32.17987 ], [ 76.66715, 32.17979 ], [ 76.66789, 32.17967 ], [ 76.67175, 32.17901 ], [ 76.67273, 32.17884 ], [ 76.67414, 32.1786 ], [ 76.67455, 32.17863 ], [ 76.67462, 32.17864 ], [ 76.67469, 32.17865 ], [ 76.6832, 32.17929 ], [ 76.68851, 32.1853 ], [ 76.69031, 32.1867 ], [ 76.69398, 32.18957 ], [ 76.69427, 32.18995 ], [ 76.69657, 32.19301 ], [ 76.69795, 32.19486 ], [ 76.69913, 32.19645 ], [ 76.70832, 32.19802 ], [ 76.71009, 32.19832 ], [ 76.71441, 32.19815 ], [ 76.71539, 32.19776 ], [ 76.71574, 32.19761 ], [ 76.72171, 32.19521 ], [ 76.72303, 32.19441 ], [ 76.72454, 32.1935 ], [ 76.72855, 32.19108 ], [ 76.72905, 32.19077 ], [ 76.73787, 32.18731 ], [ 76.74049, 32.18829 ], [ 76.75095, 32.19862 ], [ 76.75259, 32.20023 ], [ 76.75446, 32.20208 ], [ 76.7554, 32.20301 ], [ 76.76159, 32.20673 ], [ 76.76177, 32.20696 ], [ 76.76191, 32.20714 ], [ 76.7627, 32.20812 ], [ 76.76325, 32.20879 ], [ 76.76362, 32.20926 ], [ 76.76715, 32.21365 ], [ 76.77205, 32.22081 ], [ 76.7739, 32.22679 ], [ 76.77296, 32.23568 ], [ 76.77295, 32.23577 ], [ 76.77229, 32.24211 ], [ 76.77466, 32.24426 ], [ 76.77605, 32.24553 ], [ 76.77896, 32.24817 ], [ 76.77806, 32.2484 ], [ 76.7718, 32.24996 ], [ 76.77125, 32.25165 ], [ 76.7706, 32.25363 ], [ 76.77147, 32.25473 ], [ 76.77291, 32.25655 ], [ 76.77654, 32.26111 ], [ 76.77683, 32.2616 ], [ 76.77848, 32.26433 ], [ 76.78046, 32.26763 ], [ 76.7751, 32.27579 ], [ 76.77148, 32.2813 ], [ 76.7754, 32.28807 ], [ 76.77692, 32.29071 ], [ 76.7759, 32.29929 ], [ 76.77587, 32.29957 ], [ 76.77579, 32.30019 ], [ 76.77317, 32.30734 ], [ 76.77287, 32.30815 ], [ 76.7812, 32.31224 ], [ 76.78174, 32.31266 ], [ 76.78425, 32.31457 ], [ 76.78468, 32.3149 ], [ 76.78644, 32.31624 ], [ 76.78589, 32.31708 ], [ 76.77978, 32.32636 ], [ 76.77908, 32.32848 ], [ 76.77833, 32.33076 ], [ 76.7782, 32.33115 ], [ 76.77777, 32.33244 ], [ 76.77559, 32.33574 ], [ 76.77455, 32.33733 ], [ 76.77359, 32.33877 ], [ 76.7639, 32.34487 ], [ 76.76112, 32.34798 ], [ 76.75803, 32.35143 ], [ 76.75739, 32.35273 ], [ 76.75663, 32.35426 ], [ 76.75481, 32.35791 ], [ 76.75683, 32.35862 ], [ 76.75981, 32.35967 ], [ 76.76172, 32.35959 ], [ 76.7618, 32.35958 ], [ 76.76463, 32.35947 ], [ 76.7673, 32.35936 ], [ 76.77398, 32.35909 ], [ 76.77444, 32.35933 ], [ 76.77895, 32.36167 ], [ 76.77897, 32.3617 ], [ 76.78213, 32.36658 ], [ 76.78359, 32.36884 ], [ 76.78621, 32.37163 ], [ 76.78651, 32.37194 ], [ 76.78669, 32.37214 ], [ 76.78867, 32.37424 ], [ 76.78645, 32.38158 ], [ 76.78554, 32.38935 ], [ 76.78551, 32.38963 ], [ 76.78762, 32.40585 ], [ 76.78946, 32.40652 ], [ 76.80374, 32.41176 ], [ 76.81208, 32.41821 ], [ 76.81473, 32.42718 ], [ 76.82173, 32.43373 ], [ 76.8241, 32.43594 ], [ 76.82489, 32.43668 ], [ 76.82667, 32.43734 ], [ 76.83332, 32.43978 ], [ 76.83342, 32.43982 ], [ 76.83451, 32.44022 ], [ 76.8363, 32.44088 ], [ 76.83791, 32.44176 ], [ 76.83795, 32.44178 ], [ 76.84825, 32.44742 ], [ 76.85645, 32.45429 ], [ 76.85815, 32.4557 ], [ 76.86607, 32.46073 ], [ 76.86483, 32.4614 ], [ 76.85988, 32.46409 ], [ 76.8565, 32.46915 ], [ 76.85453, 32.47589 ], [ 76.85633, 32.47945 ], [ 76.85792, 32.48261 ], [ 76.8608, 32.48582 ], [ 76.86375, 32.48911 ], [ 76.86592, 32.49583 ], [ 76.87007, 32.50251 ], [ 76.87046, 32.50314 ], [ 76.87089, 32.50383 ], [ 76.87105, 32.50398 ], [ 76.87111, 32.50404 ], [ 76.87495, 32.50774 ], [ 76.87667, 32.50939 ], [ 76.87959, 32.51501 ], [ 76.88008, 32.51596 ], [ 76.88045, 32.51666 ], [ 76.88395, 32.51953 ], [ 76.87493, 32.52133 ], [ 76.87241, 32.5268 ], [ 76.8741, 32.53112 ], [ 76.86659, 32.53298 ], [ 76.85753, 32.53179 ], [ 76.84943, 32.52854 ], [ 76.83995, 32.52597 ], [ 76.83097, 32.5305 ], [ 76.83002, 32.53368 ], [ 76.8287, 32.53809 ], [ 76.82245, 32.5373 ], [ 76.81561, 32.53463 ], [ 76.80975, 32.53331 ], [ 76.80277, 32.53376 ], [ 76.79973, 32.53515 ], [ 76.79627, 32.53673 ], [ 76.79308, 32.54371 ], [ 76.78227, 32.55209 ], [ 76.77312, 32.55044 ], [ 76.76842, 32.54693 ], [ 76.76613, 32.54948 ], [ 76.75852, 32.55797 ], [ 76.7544, 32.55733 ], [ 76.74734, 32.55777 ], [ 76.74546, 32.55846 ], [ 76.74041, 32.56029 ], [ 76.73231, 32.55467 ], [ 76.72553, 32.55171 ], [ 76.71566, 32.53775 ], [ 76.70794, 32.54311 ], [ 76.70527, 32.5443 ], [ 76.70158, 32.54595 ], [ 76.70533, 32.55113 ], [ 76.70735, 32.55391 ], [ 76.70751, 32.55437 ], [ 76.70981, 32.56095 ], [ 76.71075, 32.5691 ], [ 76.70628, 32.57284 ], [ 76.69313, 32.5706 ], [ 76.69025, 32.57011 ], [ 76.6811, 32.5696 ], [ 76.67612, 32.57059 ], [ 76.66965, 32.57188 ], [ 76.66619, 32.57332 ], [ 76.65522, 32.57786 ], [ 76.65119, 32.57954 ], [ 76.65023, 32.57994 ], [ 76.63975, 32.57555 ], [ 76.63433, 32.57448 ], [ 76.63066, 32.57376 ], [ 76.62602, 32.57808 ], [ 76.62596, 32.57909 ], [ 76.62579, 32.58205 ], [ 76.6257, 32.5836 ], [ 76.62557, 32.58576 ], [ 76.62945, 32.59715 ], [ 76.62966, 32.59776 ], [ 76.63226, 32.60261 ], [ 76.61676, 32.60418 ], [ 76.61574, 32.60441 ], [ 76.61192, 32.6053 ], [ 76.60962, 32.60583 ], [ 76.6072, 32.6081 ], [ 76.60523, 32.60996 ], [ 76.60476, 32.61284 ], [ 76.60407, 32.61703 ], [ 76.60417, 32.61984 ], [ 76.60434, 32.62526 ], [ 76.60257, 32.62659 ], [ 76.59748, 32.6304 ], [ 76.59708, 32.63191 ], [ 76.5944, 32.64204 ], [ 76.58665, 32.64509 ], [ 76.5767, 32.64901 ], [ 76.57647, 32.6491 ], [ 76.5729, 32.65032 ], [ 76.55531, 32.6563 ], [ 76.55086, 32.65782 ], [ 76.53941, 32.65543 ], [ 76.53106, 32.65735 ], [ 76.5245, 32.66381 ], [ 76.52286, 32.66543 ], [ 76.51747, 32.66649 ], [ 76.50481, 32.66458 ], [ 76.49293, 32.66163 ], [ 76.48762, 32.65985 ], [ 76.47896, 32.65695 ], [ 76.46803, 32.6533 ], [ 76.46501, 32.65228 ], [ 76.45547, 32.65399 ], [ 76.45245, 32.65453 ], [ 76.44908, 32.65626 ], [ 76.44348, 32.65914 ], [ 76.44541, 32.6677 ], [ 76.44627, 32.67151 ], [ 76.44682, 32.67393 ], [ 76.44537, 32.6743 ], [ 76.4403, 32.67561 ], [ 76.43661, 32.67781 ], [ 76.43532, 32.67897 ], [ 76.43128, 32.68261 ], [ 76.42909, 32.68541 ], [ 76.42842, 32.68628 ], [ 76.42721, 32.68782 ], [ 76.42979, 32.69118 ], [ 76.43169, 32.69848 ], [ 76.43005, 32.70574 ], [ 76.42631, 32.71196 ], [ 76.41866, 32.7191 ], [ 76.40437, 32.72715 ], [ 76.40437, 32.73728 ], [ 76.40365, 32.73872 ], [ 76.40245, 32.74108 ], [ 76.38768, 32.77032 ], [ 76.38666, 32.77233 ], [ 76.38568, 32.77427 ], [ 76.38784, 32.78392 ], [ 76.38604, 32.79192 ], [ 76.37631, 32.79642 ], [ 76.37602, 32.80955 ], [ 76.37698, 32.81433 ], [ 76.37695, 32.8143 ], [ 76.37688, 32.81425 ], [ 76.37682, 32.8142 ], [ 76.37675, 32.81414 ], [ 76.37668, 32.81409 ], [ 76.37662, 32.81404 ], [ 76.37654, 32.81399 ], [ 76.37647, 32.81394 ], [ 76.37643, 32.81392 ], [ 76.37636, 32.81387 ], [ 76.37632, 32.81385 ], [ 76.37625, 32.81381 ], [ 76.3762, 32.81378 ], [ 76.37613, 32.81374 ], [ 76.37608, 32.81371 ], [ 76.37604, 32.81369 ], [ 76.376, 32.81367 ], [ 76.37596, 32.81365 ], [ 76.37591, 32.81363 ], [ 76.37587, 32.81361 ], [ 76.37583, 32.81359 ], [ 76.37579, 32.81357 ], [ 76.37574, 32.81355 ], [ 76.3757, 32.81354 ], [ 76.37566, 32.81352 ], [ 76.37561, 32.8135 ], [ 76.37557, 32.81348 ], [ 76.37553, 32.81347 ], [ 76.37548, 32.81345 ], [ 76.37544, 32.81344 ], [ 76.37539, 32.81342 ], [ 76.37535, 32.8134 ], [ 76.37531, 32.81339 ], [ 76.37526, 32.81338 ], [ 76.37522, 32.81336 ], [ 76.37517, 32.81335 ], [ 76.37513, 32.81334 ], [ 76.37508, 32.81332 ], [ 76.37504, 32.81331 ], [ 76.37499, 32.8133 ], [ 76.37495, 32.81329 ], [ 76.3749, 32.81328 ], [ 76.37482, 32.81326 ], [ 76.37477, 32.81325 ], [ 76.37469, 32.81324 ], [ 76.37463, 32.81323 ], [ 76.37456, 32.81321 ], [ 76.3745, 32.81321 ], [ 76.37441, 32.8132 ], [ 76.37437, 32.81319 ], [ 76.37428, 32.81318 ], [ 76.37419, 32.81318 ], [ 76.37411, 32.81317 ], [ 76.37402, 32.81317 ], [ 76.37394, 32.81317 ], [ 76.37385, 32.81318 ], [ 76.37378, 32.81318 ], [ 76.3737, 32.81318 ], [ 76.37362, 32.81319 ], [ 76.37354, 32.8132 ], [ 76.37347, 32.81322 ], [ 76.37339, 32.81323 ], [ 76.37332, 32.81324 ], [ 76.37325, 32.81326 ], [ 76.37318, 32.81328 ], [ 76.37311, 32.8133 ], [ 76.37304, 32.81333 ], [ 76.37298, 32.81336 ], [ 76.37292, 32.81338 ], [ 76.37286, 32.81341 ], [ 76.3728, 32.81344 ], [ 76.37274, 32.81347 ], [ 76.37269, 32.81351 ], [ 76.37264, 32.81355 ], [ 76.37259, 32.81358 ], [ 76.37255, 32.81362 ], [ 76.37251, 32.81366 ], [ 76.37247, 32.8137 ], [ 76.37243, 32.81375 ], [ 76.3724, 32.81379 ], [ 76.37237, 32.81383 ], [ 76.37234, 32.81388 ], [ 76.37232, 32.81393 ], [ 76.37229, 32.81398 ], [ 76.37228, 32.81403 ], [ 76.37226, 32.81408 ], [ 76.37225, 32.81414 ], [ 76.37224, 32.81419 ], [ 76.37223, 32.81428 ], [ 76.37223, 32.81434 ], [ 76.37223, 32.81439 ], [ 76.37224, 32.81445 ], [ 76.37225, 32.8145 ], [ 76.37226, 32.81456 ], [ 76.37228, 32.81462 ], [ 76.37229, 32.81468 ], [ 76.37232, 32.81474 ], [ 76.37234, 32.81479 ], [ 76.37237, 32.81485 ], [ 76.3724, 32.81491 ], [ 76.37244, 32.81497 ], [ 76.37247, 32.81502 ], [ 76.37251, 32.81508 ], [ 76.37256, 32.81514 ], [ 76.3726, 32.8152 ], [ 76.37265, 32.81525 ], [ 76.3727, 32.81531 ], [ 76.37276, 32.81536 ], [ 76.37282, 32.81542 ], [ 76.37287, 32.81547 ], [ 76.37294, 32.81552 ], [ 76.373, 32.81558 ], [ 76.37307, 32.81563 ], [ 76.37313, 32.81567 ], [ 76.37317, 32.8157 ], [ 76.37324, 32.81574 ], [ 76.37328, 32.81577 ], [ 76.37335, 32.81581 ], [ 76.37339, 32.81584 ], [ 76.37343, 32.81586 ], [ 76.37347, 32.81588 ], [ 76.37351, 32.81591 ], [ 76.37355, 32.81593 ], [ 76.3736, 32.81595 ], [ 76.37364, 32.81597 ], [ 76.37368, 32.81599 ], [ 76.37372, 32.81601 ], [ 76.37377, 32.81603 ], [ 76.37381, 32.81605 ], [ 76.37385, 32.81607 ], [ 76.3739, 32.81609 ], [ 76.37394, 32.81611 ], [ 76.37399, 32.81613 ], [ 76.37403, 32.81614 ], [ 76.37408, 32.81616 ], [ 76.37413, 32.81618 ], [ 76.37417, 32.81619 ], [ 76.37422, 32.81621 ], [ 76.37426, 32.81622 ], [ 76.37431, 32.81624 ], [ 76.37436, 32.81625 ], [ 76.37441, 32.81627 ], [ 76.37446, 32.81628 ], [ 76.3745, 32.81629 ], [ 76.37455, 32.81631 ], [ 76.3746, 32.81632 ], [ 76.37465, 32.81633 ], [ 76.3747, 32.81634 ], [ 76.37475, 32.81635 ], [ 76.37479, 32.81636 ], [ 76.37484, 32.81638 ], [ 76.37489, 32.81639 ], [ 76.37494, 32.81639 ], [ 76.37499, 32.8164 ], [ 76.37504, 32.81641 ], [ 76.37509, 32.81642 ], [ 76.37514, 32.81643 ], [ 76.37519, 32.81643 ], [ 76.37523, 32.81644 ], [ 76.37528, 32.81645 ], [ 76.37533, 32.81645 ], [ 76.37538, 32.81646 ], [ 76.37543, 32.81646 ], [ 76.37547, 32.81646 ], [ 76.37552, 32.81647 ], [ 76.37557, 32.81647 ], [ 76.37562, 32.81647 ], [ 76.37567, 32.81647 ], [ 76.37571, 32.81647 ], [ 76.37576, 32.81647 ], [ 76.37581, 32.81647 ], [ 76.37585, 32.81647 ], [ 76.3759, 32.81647 ], [ 76.37599, 32.81647 ], [ 76.37605, 32.81647 ], [ 76.37613, 32.81646 ], [ 76.37622, 32.81645 ], [ 76.37631, 32.81644 ], [ 76.37639, 32.81643 ], [ 76.37647, 32.81642 ], [ 76.37655, 32.8164 ], [ 76.37663, 32.81638 ], [ 76.3767, 32.81636 ], [ 76.37677, 32.81634 ], [ 76.37684, 32.81632 ], [ 76.37691, 32.81629 ], [ 76.37697, 32.81627 ], [ 76.37704, 32.81624 ], [ 76.3771, 32.81621 ], [ 76.37715, 32.81617 ], [ 76.37721, 32.81614 ], [ 76.37725, 32.81611 ], [ 76.3773, 32.81607 ], [ 76.37799, 32.81932 ], [ 76.38369, 32.82114 ], [ 76.39105, 32.82228 ], [ 76.39395, 32.82273 ], [ 76.39965, 32.8284 ], [ 76.40582, 32.83612 ], [ 76.41114, 32.84106 ], [ 76.419, 32.84491 ], [ 76.43414, 32.8507 ], [ 76.43997, 32.85205 ], [ 76.44056, 32.85221 ], [ 76.44092, 32.85232 ], [ 76.44466, 32.85332 ], [ 76.45638, 32.85162 ], [ 76.45776, 32.84588 ], [ 76.46562, 32.82528 ], [ 76.46863, 32.82296 ], [ 76.46911, 32.82259 ], [ 76.4719, 32.82044 ], [ 76.47088, 32.81207 ], [ 76.47416, 32.80487 ], [ 76.51403, 32.80272 ], [ 76.52333, 32.80512 ], [ 76.52809, 32.80635 ], [ 76.53722, 32.81114 ], [ 76.54768, 32.81248 ], [ 76.55509, 32.81686 ], [ 76.56333, 32.82369 ], [ 76.57647, 32.82799 ], [ 76.59205, 32.83766 ], [ 76.6046, 32.84824 ], [ 76.61318, 32.85379 ], [ 76.61511, 32.85341 ], [ 76.61871, 32.85272 ], [ 76.62168, 32.84978 ], [ 76.62362, 32.84787 ], [ 76.63084, 32.84294 ], [ 76.63905, 32.84164 ], [ 76.64086, 32.84135 ], [ 76.64837, 32.8436 ], [ 76.65758, 32.84831 ], [ 76.66488, 32.84586 ], [ 76.67166, 32.84531 ], [ 76.67959, 32.85134 ], [ 76.68574, 32.8537 ], [ 76.69118, 32.86391 ], [ 76.69724, 32.8707 ], [ 76.69766, 32.87297 ], [ 76.69854, 32.87778 ], [ 76.70275, 32.88096 ], [ 76.71828, 32.88981 ], [ 76.71833, 32.89251 ], [ 76.71876, 32.91315 ], [ 76.71991, 32.92238 ], [ 76.72477, 32.92298 ], [ 76.74549, 32.92554 ], [ 76.764, 32.92926 ], [ 76.76622, 32.93338 ], [ 76.76896, 32.93592 ], [ 76.77442, 32.93721 ], [ 76.77803, 32.94519 ], [ 76.78129, 32.94874 ], [ 76.78627, 32.95415 ], [ 76.78647, 32.95437 ], [ 76.79201, 32.96038 ], [ 76.78687, 32.96106 ], [ 76.78631, 32.96113 ], [ 76.78054, 32.96078 ], [ 76.7808, 32.96757 ], [ 76.77746, 32.98023 ], [ 76.7808, 32.98369 ], [ 76.78789, 32.9879 ], [ 76.78642, 32.98986 ], [ 76.78107, 32.99221 ], [ 76.7752, 32.99353 ], [ 76.77436, 33.00018 ], [ 76.77543, 33.00198 ], [ 76.77394, 33.00948 ], [ 76.77643, 33.01433 ], [ 76.76962, 33.01745 ], [ 76.76336, 33.01788 ], [ 76.75751, 33.02521 ], [ 76.75837, 33.03653 ], [ 76.75497, 33.03836 ], [ 76.7563, 33.04417 ], [ 76.74662, 33.05308 ], [ 76.74456, 33.06366 ], [ 76.73825, 33.07494 ], [ 76.73666, 33.08259 ], [ 76.73805, 33.08938 ], [ 76.7365, 33.09651 ], [ 76.73868, 33.10612 ], [ 76.74188, 33.11449 ], [ 76.74155, 33.12047 ], [ 76.7423, 33.1212 ], [ 76.74648, 33.12527 ], [ 76.74848, 33.13007 ], [ 76.74963, 33.13962 ], [ 76.74902, 33.1483 ], [ 76.74515, 33.15409 ], [ 76.7461, 33.15581 ], [ 76.74743, 33.15824 ], [ 76.7485, 33.17809 ], [ 76.73282, 33.17614 ], [ 76.7271, 33.18 ], [ 76.71536, 33.18021 ], [ 76.71228, 33.17633 ], [ 76.70389, 33.17277 ], [ 76.68808, 33.17208 ], [ 76.67806, 33.16988 ], [ 76.67344, 33.17029 ], [ 76.6732, 33.17031 ], [ 76.66969, 33.17062 ], [ 76.65932, 33.16347 ], [ 76.65519, 33.16282 ], [ 76.64556, 33.1613 ], [ 76.63852, 33.16301 ], [ 76.63114, 33.16481 ], [ 76.61816, 33.17264 ], [ 76.61705, 33.17539 ], [ 76.61746, 33.18281 ], [ 76.61591, 33.18694 ], [ 76.61115, 33.18954 ], [ 76.60995, 33.18938 ], [ 76.60659, 33.18894 ], [ 76.60263, 33.192 ], [ 76.60332, 33.1985 ], [ 76.60482, 33.20317 ], [ 76.60417, 33.20357 ], [ 76.60052, 33.20584 ], [ 76.59536, 33.20477 ], [ 76.58808, 33.20577 ], [ 76.58624, 33.20602 ], [ 76.58156, 33.20518 ], [ 76.57642, 33.20568 ], [ 76.57449, 33.20587 ], [ 76.57353, 33.20618 ], [ 76.56774, 33.20803 ], [ 76.5661, 33.20855 ], [ 76.56057, 33.2058 ], [ 76.55276, 33.19838 ], [ 76.53882, 33.19947 ], [ 76.52628, 33.19548 ], [ 76.52433, 33.19486 ], [ 76.51821, 33.19567 ], [ 76.51739, 33.19578 ], [ 76.51471, 33.19516 ], [ 76.51454, 33.19512 ], [ 76.50734, 33.18925 ], [ 76.48757, 33.17903 ], [ 76.48465, 33.179 ], [ 76.47463, 33.18229 ], [ 76.47407, 33.18247 ], [ 76.46871, 33.18208 ], [ 76.46287, 33.18039 ], [ 76.4607, 33.17976 ], [ 76.46031, 33.17965 ], [ 76.45993, 33.17973 ], [ 76.44929, 33.18181 ], [ 76.44828, 33.18201 ], [ 76.44026, 33.18102 ], [ 76.43597, 33.18305 ], [ 76.4262, 33.18766 ], [ 76.41916, 33.18581 ], [ 76.41578, 33.18587 ], [ 76.41019, 33.18596 ], [ 76.4072, 33.18437 ], [ 76.40304, 33.18216 ], [ 76.39929, 33.17706 ], [ 76.39843, 33.17589 ], [ 76.39831, 33.17573 ], [ 76.39715, 33.17518 ], [ 76.39197, 33.17274 ], [ 76.38872, 33.17036 ], [ 76.38459, 33.16733 ], [ 76.38104, 33.16383 ], [ 76.38026, 33.16306 ], [ 76.37923, 33.16204 ], [ 76.37839, 33.15979 ], [ 76.37727, 33.15679 ], [ 76.3742, 33.15389 ], [ 76.37263, 33.154 ], [ 76.37053, 33.15414 ], [ 76.36941, 33.15356 ], [ 76.35398, 33.14559 ], [ 76.34297, 33.13679 ], [ 76.33816, 33.13295 ], [ 76.33388, 33.12953 ], [ 76.32525, 33.12657 ], [ 76.32411, 33.12604 ], [ 76.31998, 33.12411 ], [ 76.31981, 33.12403 ], [ 76.31903, 33.12367 ], [ 76.31841, 33.12338 ], [ 76.3179, 33.12316 ], [ 76.31024, 33.11957 ], [ 76.3085, 33.11646 ], [ 76.30628, 33.11251 ], [ 76.29798, 33.10667 ], [ 76.29372, 33.10368 ], [ 76.29326, 33.10336 ], [ 76.29429, 33.10151 ], [ 76.29513, 33.09999 ], [ 76.29409, 33.09739 ], [ 76.29179, 33.09655 ], [ 76.28948, 33.09571 ], [ 76.28371, 33.0799 ], [ 76.28017, 33.07021 ], [ 76.27962, 33.06871 ], [ 76.27339, 33.0516 ], [ 76.26811, 33.04583 ], [ 76.26467, 33.04208 ], [ 76.25538, 33.03193 ], [ 76.24787, 33.03018 ], [ 76.24757, 33.0296 ], [ 76.24399, 33.02916 ], [ 76.23734, 33.02833 ], [ 76.23422, 33.02794 ], [ 76.2186, 33.02742 ], [ 76.21578, 33.02733 ], [ 76.20634, 33.02701 ], [ 76.19144, 33.0251 ], [ 76.17774, 33.02334 ], [ 76.17697, 33.02324 ], [ 76.17663, 33.0232 ], [ 76.17025, 33.02238 ], [ 76.16666, 33.01963 ], [ 76.16397, 33.01757 ], [ 76.1619, 33.01599 ], [ 76.14618, 33.00961 ], [ 76.13998, 33.00988 ], [ 76.13846, 33.00995 ], [ 76.13744, 33.00954 ], [ 76.13394, 33.00813 ], [ 76.12528, 33.00745 ], [ 76.11751, 33.00572 ], [ 76.11162, 33.00441 ], [ 76.11197, 33.00264 ], [ 76.1121, 33.00194 ], [ 76.11249, 32.9999 ], [ 76.11237, 32.99962 ], [ 76.10896, 32.99175 ], [ 76.10776, 32.98795 ], [ 76.10354, 32.97456 ], [ 76.10006, 32.96835 ], [ 76.09637, 32.96573 ], [ 76.09521, 32.9652 ], [ 76.08999, 32.96278 ], [ 76.08868, 32.96218 ], [ 76.08784, 32.96179 ], [ 76.08665, 32.96057 ], [ 76.08371, 32.95755 ], [ 76.0769, 32.95338 ], [ 76.07228, 32.95055 ], [ 76.07177, 32.9497 ], [ 76.0707, 32.94794 ], [ 76.0682, 32.94385 ], [ 76.06038, 32.93983 ], [ 76.04801, 32.93747 ], [ 76.04584, 32.93706 ], [ 76.04316, 32.93352 ], [ 76.04141, 32.93121 ], [ 76.041, 32.93006 ], [ 76.04045, 32.92848 ], [ 76.04024, 32.92803 ], [ 76.03902, 32.92434 ], [ 76.03892, 32.92405 ], [ 76.03492, 32.91725 ], [ 76.03123, 32.91556 ], [ 76.02859, 32.91499 ], [ 76.02595, 32.91442 ], [ 76.02467, 32.91414 ], [ 76.02234, 32.91364 ], [ 76.01987, 32.91203 ], [ 76.01981, 32.91199 ], [ 76.01522, 32.90901 ], [ 76.00981, 32.90432 ], [ 76.00509, 32.90023 ], [ 76.00175, 32.90009 ], [ 76.00087, 32.90005 ], [ 75.9983, 32.89901 ], [ 75.98839, 32.89499 ], [ 75.98312, 32.89285 ], [ 75.98307, 32.89283 ], [ 75.96961, 32.88738 ], [ 75.96339, 32.88485 ], [ 75.95717, 32.88395 ], [ 75.9514, 32.88404 ], [ 75.94248, 32.89573 ], [ 75.94086, 32.89785 ], [ 75.93941, 32.89908 ], [ 75.93793, 32.90034 ], [ 75.93281, 32.90467 ], [ 75.93274, 32.90473 ], [ 75.93122, 32.90601 ], [ 75.92516, 32.91031 ], [ 75.91777, 32.91554 ], [ 75.89882, 32.92454 ], [ 75.89863, 32.92463 ], [ 75.89401, 32.92648 ], [ 75.88479, 32.93015 ], [ 75.86774, 32.93114 ], [ 75.85732, 32.93338 ], [ 75.85154, 32.93463 ], [ 75.83909, 32.93351 ], [ 75.82558, 32.92985 ], [ 75.82261, 32.92583 ], [ 75.82096, 32.92361 ], [ 75.81694, 32.92033 ], [ 75.81591, 32.91949 ], [ 75.81623, 32.91863 ], [ 75.81671, 32.91736 ], [ 75.8171, 32.91633 ], [ 75.81835, 32.91298 ], [ 75.81935, 32.91031 ], [ 75.81777, 32.90466 ], [ 75.81757, 32.90396 ], [ 75.8131, 32.89887 ], [ 75.81227, 32.89776 ], [ 75.81098, 32.89679 ], [ 75.80837, 32.89483 ], [ 75.80811, 32.89467 ], [ 75.80742, 32.89404 ], [ 75.80496, 32.89337 ], [ 75.80697, 32.88328 ], [ 75.80734, 32.88143 ], [ 75.80865, 32.87839 ], [ 75.80884, 32.87794 ], [ 75.81032, 32.87449 ], [ 75.81035, 32.87441 ], [ 75.81044, 32.87418 ], [ 75.81215, 32.87021 ], [ 75.8258, 32.85315 ], [ 75.83851, 32.84267 ], [ 75.85182, 32.83776 ], [ 75.85513, 32.83646 ], [ 75.87142, 32.8267 ], [ 75.87296, 32.82577 ], [ 75.88974, 32.81446 ], [ 75.89122, 32.81345 ], [ 75.89362, 32.80977 ], [ 75.9031, 32.79517 ], [ 75.90422, 32.79318 ], [ 75.90536, 32.79113 ], [ 75.90597, 32.79005 ], [ 75.90811, 32.78622 ], [ 75.90832, 32.78584 ], [ 75.9085, 32.78551 ], [ 75.91159, 32.77998 ], [ 75.91561, 32.77277 ], [ 75.91743, 32.7695 ], [ 75.91999, 32.76686 ], [ 75.92198, 32.7648 ], [ 75.92497, 32.76171 ], [ 75.92685, 32.75977 ], [ 75.92981, 32.75671 ], [ 75.93047, 32.74958 ], [ 75.93138, 32.74158 ], [ 75.93153, 32.73597 ], [ 75.93111, 32.73558 ], [ 75.92561, 32.73066 ], [ 75.9234, 32.72867 ], [ 75.92082, 32.72522 ], [ 75.92039, 32.72465 ], [ 75.91938, 32.72288 ], [ 75.9165, 32.71781 ], [ 75.91636, 32.71763 ], [ 75.91635, 32.71755 ], [ 75.91634, 32.7175 ], [ 75.9154, 32.71583 ], [ 75.91422, 32.71471 ], [ 75.91263, 32.71187 ], [ 75.91262, 32.71005 ], [ 75.91289, 32.70882 ], [ 75.91273, 32.70792 ], [ 75.91271, 32.70789 ], [ 75.91261, 32.70777 ], [ 75.91216, 32.70723 ], [ 75.91208, 32.70709 ], [ 75.91236, 32.70607 ], [ 75.91261, 32.70515 ], [ 75.91261, 32.70482 ], [ 75.91261, 32.70338 ], [ 75.91261, 32.70188 ], [ 75.91227, 32.70208 ], [ 75.91219, 32.70179 ], [ 75.91115, 32.6998 ], [ 75.91037, 32.69849 ], [ 75.91025, 32.69828 ], [ 75.90989, 32.69654 ], [ 75.90931, 32.69406 ], [ 75.90926, 32.6933 ], [ 75.9094, 32.69333 ], [ 75.90924, 32.692 ], [ 75.90911, 32.6909 ], [ 75.90908, 32.69045 ], [ 75.90947, 32.6867 ], [ 75.90955, 32.68587 ], [ 75.9096, 32.68535 ], [ 75.91236, 32.6826 ], [ 75.91241, 32.68255 ], [ 75.91236, 32.68245 ], [ 75.91163, 32.68163 ], [ 75.91031, 32.68014 ], [ 75.90808, 32.67664 ], [ 75.90765, 32.67598 ], [ 75.90642, 32.67196 ], [ 75.90632, 32.6718 ], [ 75.90428, 32.66857 ], [ 75.90386, 32.66791 ], [ 75.9025, 32.66522 ], [ 75.90211, 32.66436 ], [ 75.90166, 32.66314 ], [ 75.90124, 32.66218 ], [ 75.901, 32.66027 ], [ 75.90132, 32.6595 ], [ 75.90323, 32.65826 ], [ 75.90624, 32.65811 ], [ 75.90778, 32.6603 ], [ 75.90811, 32.66078 ], [ 75.90854, 32.66139 ], [ 75.91125, 32.66368 ], [ 75.91331, 32.66541 ], [ 75.91387, 32.66566 ], [ 75.91428, 32.6662 ], [ 75.91629, 32.66731 ], [ 75.91741, 32.66756 ], [ 75.91895, 32.66745 ], [ 75.92173, 32.66663 ], [ 75.92191, 32.66654 ], [ 75.92476, 32.66524 ], [ 75.92613, 32.66463 ], [ 75.92698, 32.66417 ], [ 75.92817, 32.66362 ], [ 75.92843, 32.66305 ], [ 75.92906, 32.66169 ], [ 75.92888, 32.65916 ], [ 75.92881, 32.65835 ], [ 75.9287, 32.65692 ], [ 75.92852, 32.65515 ], [ 75.92867, 32.65498 ], [ 75.92877, 32.65488 ], [ 75.92946, 32.65463 ], [ 75.9299, 32.65457 ], [ 75.93029, 32.65461 ], [ 75.93137, 32.65472 ], [ 75.93238, 32.65479 ], [ 75.93349, 32.65475 ], [ 75.93455, 32.65452 ], [ 75.93564, 32.65375 ], [ 75.93615, 32.65339 ], [ 75.93652, 32.6533 ], [ 75.93846, 32.65417 ], [ 75.93995, 32.6553 ], [ 75.94366, 32.65732 ], [ 75.94501, 32.65526 ], [ 75.94494, 32.65447 ], [ 75.94444, 32.65428 ], [ 75.94282, 32.65341 ], [ 75.9448, 32.65216 ], [ 75.94407, 32.65066 ], [ 75.94406, 32.64965 ], [ 75.94469, 32.64851 ], [ 75.94562, 32.64604 ], [ 75.94568, 32.64591 ], [ 75.94576, 32.64567 ], [ 75.94625, 32.64435 ], [ 75.94663, 32.64335 ], [ 75.9458, 32.64287 ], [ 75.94466, 32.64279 ], [ 75.94461, 32.64279 ], [ 75.9425, 32.64388 ], [ 75.94232, 32.64397 ], [ 75.9402, 32.64621 ], [ 75.93808, 32.64755 ], [ 75.93615, 32.64663 ], [ 75.93535, 32.64626 ], [ 75.93486, 32.64599 ], [ 75.93351, 32.64502 ], [ 75.93329, 32.64483 ], [ 75.93273, 32.64148 ], [ 75.93258, 32.64126 ], [ 75.9319, 32.64072 ], [ 75.9316, 32.64011 ], [ 75.93129, 32.63949 ], [ 75.93014, 32.6379 ], [ 75.93014, 32.63784 ], [ 75.93171, 32.63534 ], [ 75.93177, 32.63459 ], [ 75.93194, 32.6325 ], [ 75.93202, 32.6315 ], [ 75.93213, 32.63014 ], [ 75.93215, 32.62986 ], [ 75.9321, 32.62977 ], [ 75.93076, 32.6277 ], [ 75.92831, 32.62426 ], [ 75.92603, 32.62106 ], [ 75.92496, 32.61963 ], [ 75.92483, 32.61854 ], [ 75.92424, 32.6178 ], [ 75.92378, 32.61722 ], [ 75.92353, 32.6169 ], [ 75.92279, 32.61597 ], [ 75.92223, 32.61526 ], [ 75.92159, 32.61446 ], [ 75.92095, 32.61365 ], [ 75.91822, 32.6102 ], [ 75.91808, 32.61003 ], [ 75.9174, 32.60916 ], [ 75.91343, 32.60414 ], [ 75.91184, 32.60213 ], [ 75.90929, 32.59891 ], [ 75.90813, 32.59745 ], [ 75.90432, 32.59263 ], [ 75.90329, 32.59133 ], [ 75.90084, 32.58854 ], [ 75.89557, 32.58254 ], [ 75.89118, 32.57754 ], [ 75.89061, 32.57689 ], [ 75.89044, 32.57646 ], [ 75.88997, 32.57616 ], [ 75.8895, 32.57561 ], [ 75.89089, 32.57305 ], [ 75.89138, 32.57215 ], [ 75.89239, 32.57027 ], [ 75.89015, 32.565 ], [ 75.88983, 32.56423 ], [ 75.88931, 32.56301 ], [ 75.88853, 32.56076 ], [ 75.88792, 32.55952 ], [ 75.88721, 32.55807 ], [ 75.88687, 32.55756 ], [ 75.87929, 32.54619 ], [ 75.87324, 32.5371 ], [ 75.87196, 32.53292 ], [ 75.8711, 32.53255 ], [ 75.87068, 32.53246 ], [ 75.86771, 32.53184 ], [ 75.86584, 32.53087 ], [ 75.86562, 32.53068 ], [ 75.86452, 32.52971 ], [ 75.85737, 32.52571 ], [ 75.85715, 32.52402 ], [ 75.85748, 32.52285 ], [ 75.8589, 32.51961 ], [ 75.85613, 32.51901 ], [ 75.85496, 32.51902 ], [ 75.85365, 32.51902 ], [ 75.85262, 32.51891 ], [ 75.85185, 32.5181 ], [ 75.85225, 32.51652 ], [ 75.85321, 32.51605 ], [ 75.85431, 32.51604 ], [ 75.85535, 32.51603 ], [ 75.85659, 32.51603 ], [ 75.859, 32.51595 ], [ 75.86031, 32.51571 ], [ 75.86175, 32.51488 ], [ 75.8637, 32.5096 ], [ 75.86488, 32.5078 ], [ 75.86552, 32.50683 ], [ 75.86574, 32.50649 ], [ 75.87133, 32.50036 ], [ 75.87207, 32.49893 ], [ 75.87558, 32.49608 ], [ 75.88113, 32.49154 ], [ 75.88551, 32.48794 ], [ 75.88662, 32.48703 ], [ 75.88837, 32.48543 ], [ 75.89024, 32.48373 ], [ 75.89302, 32.48119 ], [ 75.89624, 32.47825 ], [ 75.90287, 32.47221 ], [ 75.90389, 32.47128 ], [ 75.90516, 32.46972 ], [ 75.90692, 32.46755 ], [ 75.90735, 32.46702 ], [ 75.90819, 32.46599 ], [ 75.91216, 32.46108 ], [ 75.91589, 32.45863 ], [ 75.91642, 32.45828 ], [ 75.91858, 32.45686 ], [ 75.91938, 32.45633 ], [ 75.92108, 32.45521 ], [ 75.9212, 32.44898 ], [ 75.92126, 32.44541 ], [ 75.923, 32.43722 ], [ 75.92614, 32.43491 ], [ 75.92744, 32.43395 ], [ 75.93085, 32.43268 ], [ 75.93341, 32.43147 ], [ 75.93386, 32.43035 ], [ 75.9339, 32.42898 ], [ 75.93356, 32.42671 ], [ 75.93153, 32.42165 ], [ 75.92818, 32.41272 ], [ 75.92775, 32.4083 ] ] ] } }
]
}
