{
"type": "FeatureCollection",
"name": "kullu_district",
"crs": { "type": "name", "properties": { "name": "urn:ogc:def:crs:OGC:1.3:CRS84" } },
"features": [
{ "type": "Feature", "properties": { "shapeName": "Kullu", "shapeISO": "", "shapeID": "76128533B97425778881707", "shapeGroup": "IND", "shapeType": "ADM2" }, "geometry": { "type": "Polygon", "coordinates": [ [ [ 77.86743, 31.783 ], [ 77.86432, 31.78995 ], [ 77.85569, 31.79611 ], [ 77.85246, 31.80055 ], [ 77.84893, 31.8054 ], [ 77.84846, 31.80991 ], [ 77.84797, 31.81463 ], [ 77.84768, 31.8175 ], [ 77.84812, 31.82454 ], [ 77.8503, 31.82915 ], [ 77.84498, 31.83652 ], [ 77.84246, 31.84227 ], [ 77.83982, 31.8483 ], [ 77.84147, 31.85502 ], [ 77.84249, 31.85673 ], [ 77.85071, 31.87048 ], [ 77.85841, 31.87464 ], [ 77.85867, 31.87479 ], [ 77.86287, 31.87706 ], [ 77.86488, 31.87814 ], [ 77.86962, 31.88234 ], [ 77.86001, 31.88365 ], [ 77.85769, 31.8847 ], [ 77.84883, 31.88871 ], [ 77.83185, 31.8949 ], [ 77.83168, 31.89496 ], [ 77.83063, 31.89483 ], [ 77.82224, 31.89382 ], [ 77.81911, 31.89345 ], [ 77.80738, 31.8953 ], [ 77.79347, 31.90528 ], [ 77.78535, 31.91397 ], [ 77.78452, 31.91486 ], [ 77.78307, 31.92037 ], [ 77.78193, 31.92469 ], [ 77.78172, 31.92547 ], [ 77.78151, 31.92571 ], [ 77.77801, 31.92973 ], [ 77.77402, 31.93432 ], [ 77.77285, 31.93697 ], [ 77.77027, 31.94283 ], [ 77.77114, 31.94433 ], [ 77.77503, 31.95104 ], [ 77.77551, 31.95188 ], [ 77.77951, 31.95595 ], [ 77.78372, 31.96023 ], [ 77.78362, 31.96079 ], [ 77.78268, 31.96648 ], [ 77.78746, 31.97092 ], [ 77.79107, 31.97256 ], [ 77.79547, 31.97454 ], [ 77.79578, 31.97483 ], [ 77.80221, 31.981 ], [ 77.80166, 31.98544 ], [ 77.79864, 31.98744 ], [ 77.79232, 31.99163 ], [ 77.79164, 31.99256 ], [ 77.78601, 32.00021 ], [ 77.78373, 32.00186 ], [ 77.77641, 32.00716 ], [ 77.78233, 32.01063 ], [ 77.79152, 32.01602 ], [ 77.79234, 32.01796 ], [ 77.78507, 32.0267 ], [ 77.77952, 32.03337 ], [ 77.7763, 32.03337 ], [ 77.77521, 32.03337 ], [ 77.76817, 32.03679 ], [ 77.7647, 32.04041 ], [ 77.76629, 32.04654 ], [ 77.76634, 32.04738 ], [ 77.76659, 32.05163 ], [ 77.76476, 32.05442 ], [ 77.76391, 32.05572 ], [ 77.76254, 32.05694 ], [ 77.75868, 32.06035 ], [ 77.75529, 32.07056 ], [ 77.74908, 32.07397 ], [ 77.74843, 32.07433 ], [ 77.74661, 32.07719 ], [ 77.74636, 32.07987 ], [ 77.74626, 32.08083 ], [ 77.74545, 32.08933 ], [ 77.74527, 32.09124 ], [ 77.73527, 32.09183 ], [ 77.73409, 32.092 ], [ 77.73061, 32.0925 ], [ 77.72119, 32.09386 ], [ 77.71372, 32.09684 ], [ 77.70203, 32.10475 ], [ 77.69303, 32.10517 ], [ 77.68861, 32.10537 ], [ 77.68405, 32.10839 ], [ 77.67708, 32.11747 ], [ 77.67446, 32.11925 ], [ 77.67109, 32.12033 ], [ 77.66982, 32.12371 ], [ 77.66916, 32.12546 ], [ 77.66316, 32.12828 ], [ 77.66137, 32.13245 ], [ 77.66023, 32.13513 ], [ 77.65984, 32.14012 ], [ 77.65406, 32.14413 ], [ 77.65337, 32.1458 ], [ 77.65272, 32.14737 ], [ 77.64006, 32.15358 ], [ 77.63371, 32.15404 ], [ 77.62774, 32.16174 ], [ 77.61957, 32.16145 ], [ 77.6139, 32.16364 ], [ 77.60394, 32.17006 ], [ 77.60251, 32.17119 ], [ 77.59458, 32.1775 ], [ 77.59318, 32.17781 ], [ 77.58695, 32.17918 ], [ 77.58596, 32.18224 ], [ 77.58362, 32.18486 ], [ 77.58296, 32.1856 ], [ 77.58225, 32.1864 ], [ 77.57375, 32.18829 ], [ 77.57132, 32.19103 ], [ 77.56716, 32.19569 ], [ 77.56536, 32.20095 ], [ 77.56492, 32.20881 ], [ 77.54611, 32.22238 ], [ 77.54116, 32.21775 ], [ 77.53386, 32.21318 ], [ 77.53484, 32.2084 ], [ 77.53543, 32.20553 ], [ 77.53545, 32.20543 ], [ 77.53279, 32.19976 ], [ 77.52564, 32.19952 ], [ 77.51604, 32.20131 ], [ 77.51518, 32.20148 ], [ 77.51322, 32.20599 ], [ 77.51033, 32.20985 ], [ 77.50467, 32.215 ], [ 77.50449, 32.21527 ], [ 77.5009, 32.22077 ], [ 77.49683, 32.22227 ], [ 77.49457, 32.22311 ], [ 77.4895, 32.22498 ], [ 77.48799, 32.22505 ], [ 77.48133, 32.22537 ], [ 77.47937, 32.22604 ], [ 77.4792, 32.2261 ], [ 77.47458, 32.22767 ], [ 77.47244, 32.22628 ], [ 77.46944, 32.22432 ], [ 77.46793, 32.22078 ], [ 77.46541, 32.21141 ], [ 77.46494, 32.20655 ], [ 77.46567, 32.20227 ], [ 77.4637, 32.19851 ], [ 77.45856, 32.19607 ], [ 77.4462, 32.19409 ], [ 77.43757, 32.19455 ], [ 77.43492, 32.19469 ], [ 77.43054, 32.19385 ], [ 77.42917, 32.19359 ], [ 77.42599, 32.19391 ], [ 77.4235, 32.19415 ], [ 77.42054, 32.19629 ], [ 77.41778, 32.20478 ], [ 77.39612, 32.21834 ], [ 77.38984, 32.21572 ], [ 77.38477, 32.2167 ], [ 77.37669, 32.22117 ], [ 77.37552, 32.22182 ], [ 77.37072, 32.22234 ], [ 77.3581, 32.23226 ], [ 77.35691, 32.23419 ], [ 77.35138, 32.24316 ], [ 77.34752, 32.24942 ], [ 77.34686, 32.25088 ], [ 77.3457, 32.25347 ], [ 77.3501, 32.25793 ], [ 77.34929, 32.26227 ], [ 77.35125, 32.26685 ], [ 77.35063, 32.26793 ], [ 77.35055, 32.26808 ], [ 77.34796, 32.27257 ], [ 77.34755, 32.27853 ], [ 77.34762, 32.27906 ], [ 77.34822, 32.28356 ], [ 77.34776, 32.28454 ], [ 77.34635, 32.2875 ], [ 77.34425, 32.28929 ], [ 77.34303, 32.29033 ], [ 77.34203, 32.29313 ], [ 77.34159, 32.29437 ], [ 77.33669, 32.30813 ], [ 77.33155, 32.30685 ], [ 77.32999, 32.30968 ], [ 77.33109, 32.31426 ], [ 77.32981, 32.31644 ], [ 77.32965, 32.31671 ], [ 77.32962, 32.31677 ], [ 77.32704, 32.32119 ], [ 77.32412, 32.32397 ], [ 77.32305, 32.325 ], [ 77.31598, 32.32861 ], [ 77.31223, 32.33054 ], [ 77.30899, 32.33568 ], [ 77.29864, 32.33547 ], [ 77.28769, 32.34395 ], [ 77.28431, 32.34413 ], [ 77.28261, 32.35078 ], [ 77.28077, 32.35341 ], [ 77.27754, 32.35805 ], [ 77.26483, 32.363 ], [ 77.26197, 32.36549 ], [ 77.26116, 32.3662 ], [ 77.25638, 32.37038 ], [ 77.25475, 32.37133 ], [ 77.2491, 32.37464 ], [ 77.24683, 32.37597 ], [ 77.24243, 32.37724 ], [ 77.23769, 32.37658 ], [ 77.22991, 32.37402 ], [ 77.22853, 32.37497 ], [ 77.21772, 32.38238 ], [ 77.21659, 32.38295 ], [ 77.21012, 32.3862 ], [ 77.20692, 32.3878 ], [ 77.20444, 32.38905 ], [ 77.20419, 32.38929 ], [ 77.2012, 32.39217 ], [ 77.19995, 32.39475 ], [ 77.19899, 32.39672 ], [ 77.19694, 32.40096 ], [ 77.19381, 32.40157 ], [ 77.18137, 32.40403 ], [ 77.1578, 32.41366 ], [ 77.1515, 32.41561 ], [ 77.13917, 32.40997 ], [ 77.13535, 32.40823 ], [ 77.11656, 32.40248 ], [ 77.11054, 32.3989 ], [ 77.09561, 32.39785 ], [ 77.07537, 32.39656 ], [ 77.07682, 32.39361 ], [ 77.0733, 32.38978 ], [ 77.06987, 32.38296 ], [ 77.05583, 32.37004 ], [ 77.05313, 32.36612 ], [ 77.05022, 32.35753 ], [ 77.04879, 32.35332 ], [ 77.04693, 32.34781 ], [ 77.04555, 32.34565 ], [ 77.04161, 32.33948 ], [ 77.04475, 32.33308 ], [ 77.04497, 32.3319 ], [ 77.04499, 32.33181 ], [ 77.04578, 32.32752 ], [ 77.04566, 32.32244 ], [ 77.04269, 32.3178 ], [ 77.03256, 32.30995 ], [ 77.03142, 32.30636 ], [ 77.03498, 32.29329 ], [ 77.03735, 32.28989 ], [ 77.03716, 32.28444 ], [ 77.03684, 32.28385 ], [ 77.03461, 32.27985 ], [ 77.03225, 32.27563 ], [ 77.0316, 32.27365 ], [ 77.03091, 32.27151 ], [ 77.03084, 32.26481 ], [ 77.03083, 32.26367 ], [ 77.0308, 32.26091 ], [ 77.03325, 32.25664 ], [ 77.03337, 32.25515 ], [ 77.03359, 32.25246 ], [ 77.03238, 32.24702 ], [ 77.03273, 32.24642 ], [ 77.03503, 32.24251 ], [ 77.03707, 32.24095 ], [ 77.04166, 32.23745 ], [ 77.0441, 32.23559 ], [ 77.05004, 32.22902 ], [ 77.05035, 32.22868 ], [ 77.05311, 32.22562 ], [ 77.0487, 32.21807 ], [ 77.04745, 32.21593 ], [ 77.04691, 32.21533 ], [ 77.03924, 32.20668 ], [ 77.03305, 32.20632 ], [ 77.0296, 32.20612 ], [ 77.02883, 32.20608 ], [ 77.02182, 32.20567 ], [ 77.01716, 32.20079 ], [ 77.01406, 32.20047 ], [ 77.00926, 32.19997 ], [ 77.00618, 32.19964 ], [ 77.00594, 32.19939 ], [ 77.00296, 32.19619 ], [ 76.99568, 32.18648 ], [ 77.00024, 32.18195 ], [ 76.99892, 32.17981 ], [ 76.99573, 32.17462 ], [ 76.99382, 32.16892 ], [ 76.992, 32.16349 ], [ 76.99173, 32.16289 ], [ 76.98883, 32.15649 ], [ 76.98767, 32.15393 ], [ 76.98764, 32.15365 ], [ 76.98743, 32.15161 ], [ 76.98664, 32.14398 ], [ 76.98578, 32.13572 ], [ 76.98532, 32.13124 ], [ 76.98609, 32.12606 ], [ 76.98625, 32.12492 ], [ 76.98714, 32.11885 ], [ 76.98713, 32.11882 ], [ 76.98688, 32.11632 ], [ 76.98708, 32.11508 ], [ 76.98738, 32.11436 ], [ 76.98783, 32.11371 ], [ 76.98858, 32.11306 ], [ 76.98938, 32.11051 ], [ 76.98539, 32.11065 ], [ 76.96183, 32.11146 ], [ 76.95502, 32.1117 ], [ 76.9469, 32.11198 ], [ 76.94656, 32.11018 ], [ 76.94549, 32.10457 ], [ 76.94311, 32.09866 ], [ 76.93945, 32.09256 ], [ 76.94154, 32.08901 ], [ 76.94159, 32.08892 ], [ 76.94356, 32.08558 ], [ 76.94293, 32.07931 ], [ 76.94432, 32.06838 ], [ 76.94459, 32.06624 ], [ 76.94011, 32.06239 ], [ 76.94343, 32.05706 ], [ 76.94357, 32.05565 ], [ 76.94388, 32.05241 ], [ 76.94431, 32.04807 ], [ 76.94464, 32.04473 ], [ 76.94468, 32.04428 ], [ 76.9454, 32.04374 ], [ 76.95975, 32.03281 ], [ 76.96429, 32.02817 ], [ 76.96486, 32.02759 ], [ 76.97035, 32.0258 ], [ 76.97789, 32.02334 ], [ 76.98225, 32.011 ], [ 76.98258, 32.00339 ], [ 76.98267, 32.00125 ], [ 76.98274, 31.99961 ], [ 76.98191, 31.99176 ], [ 76.97928, 31.98315 ], [ 76.98482, 31.97434 ], [ 76.9897, 31.96657 ], [ 76.99082, 31.96478 ], [ 76.99289, 31.96244 ], [ 76.99391, 31.96128 ], [ 77.00068, 31.95362 ], [ 77.00352, 31.94732 ], [ 77.00441, 31.94535 ], [ 77.00739, 31.9419 ], [ 77.0103, 31.93854 ], [ 77.01665, 31.9312 ], [ 77.01674, 31.93109 ], [ 77.01871, 31.92874 ], [ 77.01904, 31.92829 ], [ 77.02003, 31.92696 ], [ 77.02506, 31.92018 ], [ 77.02732, 31.9116 ], [ 77.02756, 31.91069 ], [ 77.02796, 31.90507 ], [ 77.02833, 31.8999 ], [ 77.03122, 31.89302 ], [ 77.03484, 31.88842 ], [ 77.03932, 31.88272 ], [ 77.04217, 31.87911 ], [ 77.04222, 31.87904 ], [ 77.04328, 31.87769 ], [ 77.04376, 31.87708 ], [ 77.04476, 31.87581 ], [ 77.04903, 31.87038 ], [ 77.05405, 31.864 ], [ 77.05575, 31.86185 ], [ 77.05756, 31.85742 ], [ 77.05959, 31.85665 ], [ 77.06065, 31.85624 ], [ 77.06199, 31.85574 ], [ 77.0608, 31.85173 ], [ 77.06065, 31.85121 ], [ 77.05843, 31.84371 ], [ 77.05942, 31.84088 ], [ 77.05984, 31.83968 ], [ 77.0603, 31.83836 ], [ 77.06026, 31.8362 ], [ 77.06023, 31.83452 ], [ 77.06124, 31.83461 ], [ 77.07036, 31.83536 ], [ 77.07941, 31.83273 ], [ 77.0824, 31.83035 ], [ 77.08381, 31.82922 ], [ 77.08785, 31.8316 ], [ 77.09615, 31.83649 ], [ 77.10581, 31.83813 ], [ 77.11255, 31.83753 ], [ 77.11469, 31.83774 ], [ 77.11956, 31.83754 ], [ 77.12171, 31.83745 ], [ 77.12233, 31.83742 ], [ 77.12315, 31.83743 ], [ 77.12468, 31.83745 ], [ 77.12502, 31.83745 ], [ 77.12646, 31.83747 ], [ 77.13468, 31.83756 ], [ 77.14413, 31.83766 ], [ 77.15067, 31.83773 ], [ 77.15606, 31.83779 ], [ 77.16036, 31.83784 ], [ 77.16229, 31.83786 ], [ 77.16286, 31.83783 ], [ 77.16621, 31.83791 ], [ 77.16632, 31.83791 ], [ 77.16806, 31.83793 ], [ 77.1691, 31.83829 ], [ 77.17141, 31.83908 ], [ 77.17356, 31.83982 ], [ 77.17462, 31.84002 ], [ 77.17629, 31.84034 ], [ 77.17896, 31.84059 ], [ 77.1799, 31.84068 ], [ 77.18004, 31.83422 ], [ 77.17965, 31.83152 ], [ 77.17833, 31.82895 ], [ 77.17721, 31.82678 ], [ 77.17674, 31.82587 ], [ 77.17768, 31.82548 ], [ 77.17937, 31.82479 ], [ 77.184, 31.8229 ], [ 77.18763, 31.82141 ], [ 77.18827, 31.82114 ], [ 77.18839, 31.82087 ], [ 77.18916, 31.81913 ], [ 77.18962, 31.81809 ], [ 77.19015, 31.8169 ], [ 77.19102, 31.81492 ], [ 77.19128, 31.81434 ], [ 77.18984, 31.8088 ], [ 77.18974, 31.80843 ], [ 77.18958, 31.80783 ], [ 77.18989, 31.8074 ], [ 77.19063, 31.80637 ], [ 77.19279, 31.80336 ], [ 77.19281, 31.80333 ], [ 77.19734, 31.79704 ], [ 77.19591, 31.79209 ], [ 77.19554, 31.79083 ], [ 77.19551, 31.7907 ], [ 77.19565, 31.7905 ], [ 77.19582, 31.79024 ], [ 77.1971, 31.78835 ], [ 77.19789, 31.78717 ], [ 77.19864, 31.78605 ], [ 77.19958, 31.78465 ], [ 77.19923, 31.78166 ], [ 77.2014, 31.77935 ], [ 77.20588, 31.76957 ], [ 77.20643, 31.76885 ], [ 77.20785, 31.76614 ], [ 77.2086, 31.76472 ], [ 77.20874, 31.7643 ], [ 77.20877, 31.76398 ], [ 77.2099, 31.76043 ], [ 77.21164, 31.75499 ], [ 77.21164, 31.75486 ], [ 77.21173, 31.75262 ], [ 77.21188, 31.74894 ], [ 77.21225, 31.74714 ], [ 77.21354, 31.74109 ], [ 77.21367, 31.7332 ], [ 77.21371, 31.73077 ], [ 77.21659, 31.72417 ], [ 77.21669, 31.72395 ], [ 77.21698, 31.7233 ], [ 77.217, 31.72325 ], [ 77.21753, 31.72205 ], [ 77.21814, 31.72065 ], [ 77.22325, 31.72314 ], [ 77.22447, 31.72373 ], [ 77.22466, 31.72382 ], [ 77.22598, 31.72446 ], [ 77.22721, 31.72335 ], [ 77.22745, 31.72313 ], [ 77.22788, 31.72274 ], [ 77.22847, 31.72221 ], [ 77.23065, 31.72151 ], [ 77.23503, 31.7201 ], [ 77.23648, 31.71963 ], [ 77.2371, 31.71943 ], [ 77.23925, 31.71874 ], [ 77.24093, 31.71741 ], [ 77.24566, 31.71366 ], [ 77.24617, 31.71326 ], [ 77.24713, 31.7125 ], [ 77.25066, 31.71172 ], [ 77.25263, 31.71128 ], [ 77.25278, 31.71125 ], [ 77.25666, 31.7104 ], [ 77.25898, 31.70989 ], [ 77.2623, 31.70795 ], [ 77.26758, 31.70487 ], [ 77.26995, 31.70348 ], [ 77.27298, 31.70171 ], [ 77.2745, 31.70082 ], [ 77.27517, 31.70015 ], [ 77.27528, 31.70004 ], [ 77.27758, 31.69775 ], [ 77.27785, 31.69748 ], [ 77.278, 31.69732 ], [ 77.28041, 31.69492 ], [ 77.28051, 31.69482 ], [ 77.28147, 31.69386 ], [ 77.28395, 31.69139 ], [ 77.28531, 31.69002 ], [ 77.28764, 31.6869 ], [ 77.28841, 31.68585 ], [ 77.29179, 31.6813 ], [ 77.29185, 31.68123 ], [ 77.29223, 31.68072 ], [ 77.29257, 31.68025 ], [ 77.29265, 31.68015 ], [ 77.29318, 31.67944 ], [ 77.29702, 31.67427 ], [ 77.30014, 31.67006 ], [ 77.30121, 31.66863 ], [ 77.3016, 31.6681 ], [ 77.30207, 31.66747 ], [ 77.30255, 31.66682 ], [ 77.30267, 31.66666 ], [ 77.30321, 31.66594 ], [ 77.30651, 31.66149 ], [ 77.30337, 31.65767 ], [ 77.30306, 31.65729 ], [ 77.3021, 31.65613 ], [ 77.29976, 31.65328 ], [ 77.2995, 31.65297 ], [ 77.30003, 31.65067 ], [ 77.30032, 31.64939 ], [ 77.30258, 31.63954 ], [ 77.30305, 31.6375 ], [ 77.30415, 31.63267 ], [ 77.30456, 31.63092 ], [ 77.30507, 31.62868 ], [ 77.3054, 31.62723 ], [ 77.30542, 31.62716 ], [ 77.30631, 31.62326 ], [ 77.30675, 31.62135 ], [ 77.30715, 31.61711 ], [ 77.30755, 31.6129 ], [ 77.30778, 31.61044 ], [ 77.30746, 31.60897 ], [ 77.30651, 31.6047 ], [ 77.30648, 31.60458 ], [ 77.30513, 31.59844 ], [ 77.30389, 31.59573 ], [ 77.30345, 31.59475 ], [ 77.30235, 31.59233 ], [ 77.30318, 31.58969 ], [ 77.30536, 31.58281 ], [ 77.30578, 31.58148 ], [ 77.30645, 31.57934 ], [ 77.30615, 31.57573 ], [ 77.30595, 31.57334 ], [ 77.3055, 31.56798 ], [ 77.30526, 31.5651 ], [ 77.30423, 31.56198 ], [ 77.30316, 31.55878 ], [ 77.30261, 31.55713 ], [ 77.30296, 31.55626 ], [ 77.30345, 31.555 ], [ 77.30391, 31.55384 ], [ 77.30465, 31.55196 ], [ 77.3059, 31.5488 ], [ 77.30699, 31.54606 ], [ 77.30848, 31.54438 ], [ 77.31107, 31.54146 ], [ 77.31451, 31.53757 ], [ 77.31614, 31.53533 ], [ 77.32043, 31.52942 ], [ 77.31734, 31.52412 ], [ 77.31764, 31.51986 ], [ 77.31833, 31.50984 ], [ 77.31854, 31.50693 ], [ 77.32111, 31.50099 ], [ 77.32271, 31.49729 ], [ 77.32275, 31.49694 ], [ 77.3229, 31.49548 ], [ 77.32313, 31.49325 ], [ 77.32345, 31.49007 ], [ 77.32369, 31.48777 ], [ 77.32406, 31.48418 ], [ 77.32425, 31.48229 ], [ 77.32493, 31.47926 ], [ 77.3257, 31.47585 ], [ 77.32694, 31.47034 ], [ 77.32784, 31.46809 ], [ 77.32815, 31.46732 ], [ 77.33021, 31.46215 ], [ 77.33035, 31.46181 ], [ 77.33203, 31.45759 ], [ 77.33208, 31.45751 ], [ 77.33512, 31.45194 ], [ 77.33542, 31.4514 ], [ 77.33562, 31.45103 ], [ 77.33786, 31.44882 ], [ 77.3401, 31.44776 ], [ 77.34433, 31.44576 ], [ 77.34488, 31.4455 ], [ 77.34783, 31.44272 ], [ 77.34787, 31.44268 ], [ 77.34976, 31.4409 ], [ 77.35236, 31.43844 ], [ 77.35278, 31.43805 ], [ 77.35389, 31.43701 ], [ 77.35445, 31.43648 ], [ 77.35545, 31.43553 ], [ 77.35622, 31.43292 ], [ 77.35683, 31.43235 ], [ 77.35699, 31.4322 ], [ 77.35722, 31.43197 ], [ 77.35734, 31.43186 ], [ 77.36388, 31.42857 ], [ 77.36418, 31.42834 ], [ 77.36427, 31.42722 ], [ 77.36924, 31.42391 ], [ 77.37131, 31.42337 ], [ 77.37697, 31.42093 ], [ 77.37712, 31.42082 ], [ 77.38083, 31.41803 ], [ 77.38144, 31.41757 ], [ 77.3823, 31.41606 ], [ 77.38272, 31.41531 ], [ 77.38487, 31.41151 ], [ 77.38524, 31.41006 ], [ 77.38535, 31.40959 ], [ 77.38547, 31.40912 ], [ 77.38612, 31.40632 ], [ 77.38457, 31.4028 ], [ 77.38396, 31.40142 ], [ 77.38431, 31.40017 ], [ 77.38481, 31.39836 ], [ 77.38351, 31.39358 ], [ 77.38438, 31.39289 ], [ 77.38555, 31.39196 ], [ 77.38635, 31.39133 ], [ 77.38944, 31.38889 ], [ 77.38865, 31.38647 ], [ 77.38849, 31.38601 ], [ 77.38897, 31.38555 ], [ 77.39042, 31.38422 ], [ 77.39054, 31.38408 ], [ 77.39116, 31.38345 ], [ 77.39155, 31.38312 ], [ 77.39042, 31.38098 ], [ 77.39034, 31.38038 ], [ 77.3905, 31.37897 ], [ 77.39026, 31.37776 ], [ 77.38985, 31.37608 ], [ 77.39008, 31.37534 ], [ 77.39019, 31.375 ], [ 77.39124, 31.37425 ], [ 77.39435, 31.37203 ], [ 77.39373, 31.37052 ], [ 77.3936, 31.37021 ], [ 77.38768, 31.3619 ], [ 77.38732, 31.36103 ], [ 77.38892, 31.36055 ], [ 77.39166, 31.35972 ], [ 77.3927, 31.35941 ], [ 77.39359, 31.35932 ], [ 77.39459, 31.35922 ], [ 77.39594, 31.3591 ], [ 77.39612, 31.35909 ], [ 77.39664, 31.35903 ], [ 77.39679, 31.35901 ], [ 77.3975, 31.35894 ], [ 77.39903, 31.35979 ], [ 77.39967, 31.36016 ], [ 77.40038, 31.36054 ], [ 77.40044, 31.36057 ], [ 77.40116, 31.36097 ], [ 77.40267, 31.36181 ], [ 77.4064, 31.35727 ], [ 77.40704, 31.3565 ], [ 77.41005, 31.35392 ], [ 77.41576, 31.34903 ], [ 77.41595, 31.34887 ], [ 77.41652, 31.34838 ], [ 77.41699, 31.34798 ], [ 77.41758, 31.34737 ], [ 77.41793, 31.34715 ], [ 77.41903, 31.34624 ], [ 77.41947, 31.34585 ], [ 77.42176, 31.34606 ], [ 77.42238, 31.34612 ], [ 77.42378, 31.34625 ], [ 77.42438, 31.3463 ], [ 77.42495, 31.34635 ], [ 77.42583, 31.34555 ], [ 77.42607, 31.34533 ], [ 77.42717, 31.34433 ], [ 77.42941, 31.34229 ], [ 77.43059, 31.34121 ], [ 77.43234, 31.34193 ], [ 77.43339, 31.34236 ], [ 77.43504, 31.34304 ], [ 77.43702, 31.34385 ], [ 77.44096, 31.34341 ], [ 77.44762, 31.34267 ], [ 77.44886, 31.34346 ], [ 77.45026, 31.34434 ], [ 77.45106, 31.34484 ], [ 77.45344, 31.34635 ], [ 77.45419, 31.34682 ], [ 77.45498, 31.34732 ], [ 77.45545, 31.34738 ], [ 77.46122, 31.34802 ], [ 77.46167, 31.34807 ], [ 77.4626, 31.34818 ], [ 77.4677, 31.34877 ], [ 77.46898, 31.34888 ], [ 77.46971, 31.349 ], [ 77.47118, 31.34913 ], [ 77.47343, 31.34938 ], [ 77.47677, 31.34975 ], [ 77.47958, 31.35246 ], [ 77.48118, 31.35273 ], [ 77.48221, 31.35292 ], [ 77.4824, 31.35293 ], [ 77.48348, 31.35315 ], [ 77.48959, 31.35414 ], [ 77.49916, 31.35575 ], [ 77.50008, 31.35566 ], [ 77.50421, 31.35528 ], [ 77.50657, 31.35507 ], [ 77.50824, 31.35492 ], [ 77.51552, 31.35215 ], [ 77.51896, 31.35085 ], [ 77.52294, 31.3509 ], [ 77.52461, 31.35092 ], [ 77.52509, 31.35093 ], [ 77.5263, 31.35094 ], [ 77.52644, 31.35099 ], [ 77.53226, 31.35305 ], [ 77.53529, 31.35898 ], [ 77.5354, 31.3592 ], [ 77.53812, 31.36453 ], [ 77.53818, 31.36465 ], [ 77.53931, 31.36686 ], [ 77.54017, 31.36854 ], [ 77.54255, 31.37233 ], [ 77.54346, 31.37378 ], [ 77.54381, 31.37433 ], [ 77.54645, 31.37853 ], [ 77.54676, 31.37903 ], [ 77.54757, 31.38032 ], [ 77.54847, 31.38174 ], [ 77.54852, 31.38178 ], [ 77.55217, 31.38434 ], [ 77.55225, 31.38439 ], [ 77.55317, 31.38504 ], [ 77.55353, 31.3853 ], [ 77.55382, 31.3855 ], [ 77.55484, 31.38622 ], [ 77.5566, 31.38662 ], [ 77.56082, 31.38758 ], [ 77.56099, 31.38762 ], [ 77.56217, 31.38789 ], [ 77.56381, 31.38826 ], [ 77.56614, 31.38765 ], [ 77.56716, 31.38739 ], [ 77.56954, 31.38676 ], [ 77.57207, 31.3861 ], [ 77.57423, 31.38708 ], [ 77.57576, 31.38777 ], [ 77.5769, 31.38828 ], [ 77.5771, 31.38837 ], [ 77.57851, 31.38901 ], [ 77.5875, 31.39309 ], [ 77.58881, 31.39368 ], [ 77.59203, 31.39514 ], [ 77.59746, 31.39543 ], [ 77.60112, 31.39563 ], [ 77.61106, 31.39329 ], [ 77.61705, 31.38997 ], [ 77.62031, 31.38817 ], [ 77.62438, 31.38916 ], [ 77.6256, 31.38946 ], [ 77.63025, 31.39058 ], [ 77.63061, 31.39067 ], [ 77.63325, 31.39488 ], [ 77.634, 31.39607 ], [ 77.63465, 31.39712 ], [ 77.63457, 31.39729 ], [ 77.63414, 31.39819 ], [ 77.6338, 31.39891 ], [ 77.63089, 31.405 ], [ 77.62991, 31.40705 ], [ 77.62786, 31.41134 ], [ 77.62684, 31.41348 ], [ 77.62431, 31.42132 ], [ 77.62382, 31.42286 ], [ 77.6237, 31.42323 ], [ 77.6238, 31.42402 ], [ 77.6246, 31.43015 ], [ 77.62469, 31.43084 ], [ 77.62473, 31.43114 ], [ 77.62479, 31.43163 ], [ 77.62486, 31.43215 ], [ 77.62507, 31.43382 ], [ 77.62543, 31.43663 ], [ 77.62549, 31.43699 ], [ 77.62553, 31.43735 ], [ 77.62566, 31.43835 ], [ 77.62569, 31.43863 ], [ 77.62579, 31.43887 ], [ 77.62632, 31.44006 ], [ 77.62766, 31.44311 ], [ 77.62774, 31.44327 ], [ 77.62788, 31.44361 ], [ 77.62795, 31.44377 ], [ 77.62847, 31.44495 ], [ 77.6286, 31.44524 ], [ 77.62881, 31.44571 ], [ 77.62909, 31.44599 ], [ 77.62957, 31.44647 ], [ 77.6296, 31.44649 ], [ 77.62964, 31.44652 ], [ 77.63054, 31.44747 ], [ 77.63139, 31.44835 ], [ 77.63285, 31.44985 ], [ 77.63495, 31.45089 ], [ 77.63501, 31.45092 ], [ 77.63538, 31.4511 ], [ 77.63579, 31.45131 ], [ 77.64023, 31.45346 ], [ 77.64144, 31.45409 ], [ 77.64154, 31.45412 ], [ 77.64233, 31.45436 ], [ 77.64244, 31.4544 ], [ 77.64331, 31.45467 ], [ 77.64367, 31.45478 ], [ 77.64409, 31.45491 ], [ 77.64442, 31.45501 ], [ 77.64521, 31.45525 ], [ 77.64618, 31.45555 ], [ 77.64641, 31.45562 ], [ 77.64725, 31.45587 ], [ 77.65123, 31.4571 ], [ 77.65298, 31.45763 ], [ 77.65497, 31.45825 ], [ 77.65532, 31.45829 ], [ 77.65742, 31.45856 ], [ 77.6595, 31.45882 ], [ 77.66032, 31.45892 ], [ 77.6634, 31.45939 ], [ 77.66766, 31.46093 ], [ 77.66801, 31.46107 ], [ 77.66823, 31.46115 ], [ 77.66974, 31.46173 ], [ 77.67025, 31.46193 ], [ 77.67158, 31.46245 ], [ 77.6727, 31.46376 ], [ 77.6747, 31.46611 ], [ 77.6751, 31.46658 ], [ 77.67643, 31.46814 ], [ 77.67711, 31.46894 ], [ 77.67742, 31.46947 ], [ 77.67795, 31.47038 ], [ 77.67863, 31.47153 ], [ 77.68012, 31.47406 ], [ 77.68193, 31.47713 ], [ 77.68212, 31.47746 ], [ 77.68359, 31.47924 ], [ 77.68373, 31.47941 ], [ 77.68472, 31.4806 ], [ 77.68499, 31.48093 ], [ 77.68845, 31.48512 ], [ 77.68933, 31.48618 ], [ 77.69774, 31.4921 ], [ 77.69935, 31.49324 ], [ 77.70029, 31.4939 ], [ 77.70089, 31.49432 ], [ 77.70205, 31.49514 ], [ 77.70393, 31.49573 ], [ 77.70521, 31.49613 ], [ 77.70698, 31.49669 ], [ 77.70776, 31.49809 ], [ 77.70837, 31.49918 ], [ 77.70924, 31.50123 ], [ 77.70864, 31.50293 ], [ 77.70845, 31.50344 ], [ 77.70529, 31.50714 ], [ 77.70391, 31.50875 ], [ 77.70296, 31.51304 ], [ 77.70183, 31.51814 ], [ 77.70178, 31.51839 ], [ 77.70311, 31.52285 ], [ 77.70373, 31.52493 ], [ 77.70508, 31.52945 ], [ 77.70346, 31.53325 ], [ 77.70341, 31.53336 ], [ 77.6999, 31.5416 ], [ 77.69754, 31.54247 ], [ 77.6974, 31.54252 ], [ 77.69196, 31.54452 ], [ 77.68885, 31.54664 ], [ 77.68491, 31.54933 ], [ 77.68158, 31.5569 ], [ 77.68051, 31.55933 ], [ 77.67516, 31.56072 ], [ 77.67463, 31.56085 ], [ 77.67418, 31.56137 ], [ 77.66516, 31.57186 ], [ 77.65676, 31.57801 ], [ 77.65641, 31.57938 ], [ 77.65521, 31.58406 ], [ 77.65491, 31.58523 ], [ 77.65319, 31.59193 ], [ 77.64977, 31.59852 ], [ 77.64953, 31.60038 ], [ 77.64901, 31.60436 ], [ 77.64888, 31.60539 ], [ 77.64894, 31.60671 ], [ 77.64894, 31.60684 ], [ 77.64905, 31.6093 ], [ 77.64907, 31.60963 ], [ 77.6492, 31.61271 ], [ 77.64973, 31.61489 ], [ 77.65205, 31.62447 ], [ 77.65408, 31.62896 ], [ 77.65982, 31.63086 ], [ 77.66027, 31.63101 ], [ 77.66071, 31.63141 ], [ 77.66284, 31.63333 ], [ 77.66403, 31.6344 ], [ 77.6634, 31.63532 ], [ 77.65272, 31.65084 ], [ 77.6526, 31.65091 ], [ 77.65126, 31.6517 ], [ 77.64978, 31.65258 ], [ 77.64922, 31.65463 ], [ 77.64858, 31.65698 ], [ 77.64847, 31.65738 ], [ 77.64871, 31.65811 ], [ 77.64873, 31.65817 ], [ 77.64938, 31.66013 ], [ 77.65133, 31.66264 ], [ 77.6531, 31.66491 ], [ 77.65398, 31.66559 ], [ 77.6572, 31.66806 ], [ 77.65787, 31.66857 ], [ 77.6599, 31.67013 ], [ 77.66221, 31.67811 ], [ 77.66252, 31.67918 ], [ 77.67059, 31.68307 ], [ 77.6723, 31.68581 ], [ 77.68036, 31.69878 ], [ 77.6818, 31.69982 ], [ 77.68649, 31.70319 ], [ 77.69488, 31.70387 ], [ 77.69535, 31.7039 ], [ 77.69693, 31.70374 ], [ 77.70784, 31.70266 ], [ 77.70981, 31.70246 ], [ 77.71252, 31.70305 ], [ 77.71578, 31.70376 ], [ 77.71625, 31.70386 ], [ 77.73537, 31.71428 ], [ 77.74342, 31.71459 ], [ 77.75138, 31.71351 ], [ 77.75209, 31.71545 ], [ 77.75248, 31.71651 ], [ 77.7537, 31.71734 ], [ 77.7568, 31.71943 ], [ 77.75646, 31.72647 ], [ 77.7539, 31.74044 ], [ 77.7534, 31.74321 ], [ 77.75329, 31.7496 ], [ 77.75326, 31.75117 ], [ 77.75762, 31.75295 ], [ 77.76222, 31.75482 ], [ 77.76356, 31.76171 ], [ 77.76876, 31.7574 ], [ 77.77059, 31.7565 ], [ 77.78024, 31.75177 ], [ 77.78963, 31.75161 ], [ 77.7941, 31.75479 ], [ 77.79961, 31.75869 ], [ 77.81142, 31.76032 ], [ 77.82163, 31.76022 ], [ 77.82919, 31.76014 ], [ 77.84633, 31.75537 ], [ 77.84972, 31.75443 ], [ 77.85247, 31.75695 ], [ 77.85438, 31.75869 ], [ 77.85743, 31.76815 ], [ 77.85882, 31.77432 ], [ 77.85594, 31.78088 ], [ 77.86608, 31.78275 ], [ 77.86743, 31.783 ] ] ] } }
]
}
