{
"type": "FeatureCollection",
"name": "mandi_district",
"crs": { "type": "name", "properties": { "name": "urn:ogc:def:crs:OGC:1.3:CRS84" } },
"features": [
{ "type": "Feature", "properties": { "shapeName": "Mandi", "shapeISO": "", "shapeID": "76128533B23735146933631", "shapeGroup": "IND", "shapeType": "ADM2" }, "geometry": { "type": "Polygon", "coordinates": [ [ [ 77.00378, 31.29751 ], [ 77.00493, 31.29679 ], [ 77.00511, 31.29668 ], [ 77.0092, 31.2941 ], [ 77.01839, 31.28831 ], [ 77.02246, 31.28451 ], [ 77.03262, 31.27495 ], [ 77.03279, 31.27485 ], [ 77.04096, 31.27096 ], [ 77.05027, 31.26759 ], [ 77.05143, 31.26717 ], [ 77.05224, 31.26688 ], [ 77.05306, 31.26658 ], [ 77.05365, 31.26636 ], [ 77.05571, 31.26562 ], [ 77.05667, 31.26527 ], [ 77.05754, 31.26496 ], [ 77.058, 31.26479 ], [ 77.05914, 31.26438 ], [ 77.05988, 31.26411 ], [ 77.05991, 31.2641 ], [ 77.06021, 31.26399 ], [ 77.06052, 31.26387 ], [ 77.06151, 31.26351 ], [ 77.06378, 31.26195 ], [ 77.06435, 31.26159 ], [ 77.06475, 31.26138 ], [ 77.06626, 31.2606 ], [ 77.06687, 31.26028 ], [ 77.06713, 31.26015 ], [ 77.06999, 31.25866 ], [ 77.07195, 31.25764 ], [ 77.07243, 31.25739 ], [ 77.07302, 31.25708 ], [ 77.07422, 31.25646 ], [ 77.07464, 31.25624 ], [ 77.07491, 31.25599 ], [ 77.07683, 31.25424 ], [ 77.07701, 31.25408 ], [ 77.07744, 31.25368 ], [ 77.0783, 31.2529 ], [ 77.07859, 31.25264 ], [ 77.07996, 31.25138 ], [ 77.08042, 31.25096 ], [ 77.08334, 31.24829 ], [ 77.0841, 31.2476 ], [ 77.08552, 31.24718 ], [ 77.08684, 31.2468 ], [ 77.08873, 31.24625 ], [ 77.09032, 31.24571 ], [ 77.09097, 31.2454 ], [ 77.09132, 31.2452 ], [ 77.09289, 31.24472 ], [ 77.09483, 31.24448 ], [ 77.09597, 31.24415 ], [ 77.10339, 31.24635 ], [ 77.10567, 31.24702 ], [ 77.10658, 31.24729 ], [ 77.10732, 31.24686 ], [ 77.10885, 31.24597 ], [ 77.10896, 31.24591 ], [ 77.11072, 31.24488 ], [ 77.11213, 31.24433 ], [ 77.11465, 31.24551 ], [ 77.11489, 31.24513 ], [ 77.11502, 31.24486 ], [ 77.11504, 31.24483 ], [ 77.1162, 31.24513 ], [ 77.11757, 31.24549 ], [ 77.11844, 31.24572 ], [ 77.12006, 31.24614 ], [ 77.12025, 31.24619 ], [ 77.12062, 31.24629 ], [ 77.12083, 31.24634 ], [ 77.12101, 31.24639 ], [ 77.12123, 31.24645 ], [ 77.12144, 31.24648 ], [ 77.12148, 31.24651 ], [ 77.12164, 31.24655 ], [ 77.12185, 31.24661 ], [ 77.12205, 31.24666 ], [ 77.12228, 31.24672 ], [ 77.1224, 31.24675 ], [ 77.12516, 31.24472 ], [ 77.12528, 31.24463 ], [ 77.12542, 31.24452 ], [ 77.12576, 31.24418 ], [ 77.12627, 31.2424 ], [ 77.12646, 31.24173 ], [ 77.12659, 31.24127 ], [ 77.12685, 31.24037 ], [ 77.12678, 31.24006 ], [ 77.12667, 31.2396 ], [ 77.12629, 31.23794 ], [ 77.12592, 31.23631 ], [ 77.12563, 31.23506 ], [ 77.12654, 31.23344 ], [ 77.12794, 31.23097 ], [ 77.12963, 31.23016 ], [ 77.13072, 31.22963 ], [ 77.13328, 31.2284 ], [ 77.13381, 31.22837 ], [ 77.13732, 31.22824 ], [ 77.13903, 31.22817 ], [ 77.13926, 31.22816 ], [ 77.13962, 31.22815 ], [ 77.14001, 31.22813 ], [ 77.14423, 31.22978 ], [ 77.14594, 31.23045 ], [ 77.14654, 31.23068 ], [ 77.14774, 31.23115 ], [ 77.14912, 31.23096 ], [ 77.1556, 31.23008 ], [ 77.15631, 31.23012 ], [ 77.15743, 31.23019 ], [ 77.15775, 31.2302 ], [ 77.15904, 31.23027 ], [ 77.15963, 31.23032 ], [ 77.1609, 31.2304 ], [ 77.16246, 31.23049 ], [ 77.16468, 31.23184 ], [ 77.16721, 31.23339 ], [ 77.16767, 31.23367 ], [ 77.17096, 31.23649 ], [ 77.17127, 31.23675 ], [ 77.1726, 31.23789 ], [ 77.17289, 31.23814 ], [ 77.17806, 31.24257 ], [ 77.17846, 31.24291 ], [ 77.17983, 31.24409 ], [ 77.18277, 31.24696 ], [ 77.18386, 31.24802 ], [ 77.18409, 31.24824 ], [ 77.1875, 31.25158 ], [ 77.18987, 31.25389 ], [ 77.19086, 31.25485 ], [ 77.19465, 31.25076 ], [ 77.19497, 31.2504 ], [ 77.19729, 31.24405 ], [ 77.20073, 31.24415 ], [ 77.20163, 31.24418 ], [ 77.20287, 31.24422 ], [ 77.20453, 31.24427 ], [ 77.20529, 31.2443 ], [ 77.2111, 31.2486 ], [ 77.21183, 31.24914 ], [ 77.2123, 31.24973 ], [ 77.22027, 31.25966 ], [ 77.22453, 31.26034 ], [ 77.22637, 31.26063 ], [ 77.22674, 31.26069 ], [ 77.2311, 31.26 ], [ 77.23424, 31.25951 ], [ 77.2373, 31.25902 ], [ 77.241, 31.25844 ], [ 77.24692, 31.25596 ], [ 77.2487, 31.25421 ], [ 77.24904, 31.25388 ], [ 77.25014, 31.25495 ], [ 77.25051, 31.25532 ], [ 77.25164, 31.25642 ], [ 77.25168, 31.25646 ], [ 77.25259, 31.25735 ], [ 77.2531, 31.25819 ], [ 77.25431, 31.26018 ], [ 77.25532, 31.26185 ], [ 77.25574, 31.26254 ], [ 77.26623, 31.26921 ], [ 77.26763, 31.27103 ], [ 77.2695, 31.27278 ], [ 77.27125, 31.27529 ], [ 77.27651, 31.27321 ], [ 77.27834, 31.26866 ], [ 77.27839, 31.26852 ], [ 77.27876, 31.26761 ], [ 77.28248, 31.26595 ], [ 77.28302, 31.26571 ], [ 77.28342, 31.26553 ], [ 77.28536, 31.26605 ], [ 77.28577, 31.26616 ], [ 77.28662, 31.26639 ], [ 77.28656, 31.2672 ], [ 77.28654, 31.26744 ], [ 77.28717, 31.26851 ], [ 77.28779, 31.26861 ], [ 77.28922, 31.26881 ], [ 77.2907, 31.26856 ], [ 77.29309, 31.26785 ], [ 77.29594, 31.26831 ], [ 77.30262, 31.26939 ], [ 77.30623, 31.27099 ], [ 77.30628, 31.27106 ], [ 77.30704, 31.27244 ], [ 77.30729, 31.2726 ], [ 77.30771, 31.27349 ], [ 77.3084, 31.27434 ], [ 77.3096, 31.27494 ], [ 77.31288, 31.2792 ], [ 77.31333, 31.27976 ], [ 77.31422, 31.28086 ], [ 77.31863, 31.28309 ], [ 77.31993, 31.28493 ], [ 77.32033, 31.28615 ], [ 77.32048, 31.28631 ], [ 77.32222, 31.28814 ], [ 77.32483, 31.29181 ], [ 77.32529, 31.29245 ], [ 77.32547, 31.29271 ], [ 77.32605, 31.29279 ], [ 77.3271, 31.29293 ], [ 77.33188, 31.29357 ], [ 77.33372, 31.29502 ], [ 77.33406, 31.29529 ], [ 77.33498, 31.29602 ], [ 77.33546, 31.2964 ], [ 77.33553, 31.29646 ], [ 77.33676, 31.29741 ], [ 77.33737, 31.29789 ], [ 77.33748, 31.29826 ], [ 77.33841, 31.30121 ], [ 77.33916, 31.30361 ], [ 77.33959, 31.30498 ], [ 77.34008, 31.30845 ], [ 77.34023, 31.30959 ], [ 77.3412, 31.31653 ], [ 77.3413, 31.31728 ], [ 77.34201, 31.32234 ], [ 77.34229, 31.3229 ], [ 77.34253, 31.32338 ], [ 77.3437, 31.32572 ], [ 77.34504, 31.32839 ], [ 77.34561, 31.32955 ], [ 77.34566, 31.32968 ], [ 77.34592, 31.33014 ], [ 77.34702, 31.33234 ], [ 77.34787, 31.33403 ], [ 77.3492, 31.33668 ], [ 77.34946, 31.33719 ], [ 77.34975, 31.33777 ], [ 77.35008, 31.33866 ], [ 77.35022, 31.33906 ], [ 77.35171, 31.3421 ], [ 77.3518, 31.34231 ], [ 77.35224, 31.34312 ], [ 77.3524, 31.34339 ], [ 77.35269, 31.34397 ], [ 77.35322, 31.34502 ], [ 77.35335, 31.34529 ], [ 77.3541, 31.34623 ], [ 77.35428, 31.34644 ], [ 77.35645, 31.34897 ], [ 77.35855, 31.35162 ], [ 77.35944, 31.35225 ], [ 77.36217, 31.3542 ], [ 77.3626, 31.35451 ], [ 77.36375, 31.35533 ], [ 77.364, 31.35551 ], [ 77.36485, 31.35611 ], [ 77.36531, 31.35626 ], [ 77.37065, 31.35798 ], [ 77.37087, 31.35804 ], [ 77.3726, 31.35852 ], [ 77.37292, 31.35853 ], [ 77.37374, 31.35856 ], [ 77.37691, 31.35866 ], [ 77.37928, 31.35874 ], [ 77.38009, 31.35866 ], [ 77.38208, 31.35845 ], [ 77.38295, 31.35836 ], [ 77.38608, 31.35804 ], [ 77.38634, 31.35867 ], [ 77.38683, 31.35985 ], [ 77.38694, 31.36011 ], [ 77.38698, 31.3602 ], [ 77.38732, 31.36103 ], [ 77.38768, 31.3619 ], [ 77.3936, 31.37021 ], [ 77.39373, 31.37052 ], [ 77.39435, 31.37203 ], [ 77.39124, 31.37425 ], [ 77.39019, 31.375 ], [ 77.39008, 31.37534 ], [ 77.38985, 31.37608 ], [ 77.39026, 31.37776 ], [ 77.3905, 31.37897 ], [ 77.39034, 31.38038 ], [ 77.39042, 31.38098 ], [ 77.39155, 31.38312 ], [ 77.39116, 31.38345 ], [ 77.39054, 31.38408 ], [ 77.39042, 31.38422 ], [ 77.38897, 31.38555 ], [ 77.38849, 31.38601 ], [ 77.38865, 31.38647 ], [ 77.38944, 31.38889 ], [ 77.38635, 31.39133 ], [ 77.38555, 31.39196 ], [ 77.38438, 31.39289 ], [ 77.38351, 31.39358 ], [ 77.38481, 31.39836 ], [ 77.38431, 31.40017 ], [ 77.38396, 31.40142 ], [ 77.38457, 31.4028 ], [ 77.38612, 31.40632 ], [ 77.38547, 31.40912 ], [ 77.38535, 31.40959 ], [ 77.38524, 31.41006 ], [ 77.38487, 31.41151 ], [ 77.38272, 31.41531 ], [ 77.3823, 31.41606 ], [ 77.38144, 31.41757 ], [ 77.38083, 31.41803 ], [ 77.37712, 31.42082 ], [ 77.37697, 31.42093 ], [ 77.37131, 31.42337 ], [ 77.36924, 31.42391 ], [ 77.36427, 31.42722 ], [ 77.36418, 31.42834 ], [ 77.36388, 31.42857 ], [ 77.35734, 31.43186 ], [ 77.35722, 31.43197 ], [ 77.35699, 31.4322 ], [ 77.35683, 31.43235 ], [ 77.35622, 31.43292 ], [ 77.35545, 31.43553 ], [ 77.35445, 31.43648 ], [ 77.35389, 31.43701 ], [ 77.35278, 31.43805 ], [ 77.35236, 31.43844 ], [ 77.34976, 31.4409 ], [ 77.34787, 31.44268 ], [ 77.34783, 31.44272 ], [ 77.34488, 31.4455 ], [ 77.34433, 31.44576 ], [ 77.3401, 31.44776 ], [ 77.33786, 31.44882 ], [ 77.33562, 31.45103 ], [ 77.33542, 31.4514 ], [ 77.33512, 31.45194 ], [ 77.33208, 31.45751 ], [ 77.33203, 31.45759 ], [ 77.33035, 31.46181 ], [ 77.33021, 31.46215 ], [ 77.32815, 31.46732 ], [ 77.32784, 31.46809 ], [ 77.32694, 31.47034 ], [ 77.3257, 31.47585 ], [ 77.32493, 31.47926 ], [ 77.32425, 31.48229 ], [ 77.32406, 31.48418 ], [ 77.32369, 31.48777 ], [ 77.32345, 31.49007 ], [ 77.32313, 31.49325 ], [ 77.3229, 31.49548 ], [ 77.32275, 31.49694 ], [ 77.32271, 31.49729 ], [ 77.32111, 31.50099 ], [ 77.31854, 31.50693 ], [ 77.31833, 31.50984 ], [ 77.31764, 31.51986 ], [ 77.31734, 31.52412 ], [ 77.32043, 31.52942 ], [ 77.31614, 31.53533 ], [ 77.31451, 31.53757 ], [ 77.31107, 31.54146 ], [ 77.30848, 31.54438 ], [ 77.30699, 31.54606 ], [ 77.3059, 31.5488 ], [ 77.30465, 31.55196 ], [ 77.30391, 31.55384 ], [ 77.30345, 31.555 ], [ 77.30296, 31.55626 ], [ 77.30261, 31.55713 ], [ 77.30316, 31.55878 ], [ 77.30423, 31.56198 ], [ 77.30526, 31.5651 ], [ 77.3055, 31.56798 ], [ 77.30595, 31.57334 ], [ 77.30615, 31.57573 ], [ 77.30645, 31.57934 ], [ 77.30578, 31.58148 ], [ 77.30536, 31.58281 ], [ 77.30318, 31.58969 ], [ 77.30235, 31.59233 ], [ 77.30345, 31.59475 ], [ 77.30389, 31.59573 ], [ 77.30513, 31.59844 ], [ 77.30648, 31.60458 ], [ 77.30651, 31.6047 ], [ 77.30746, 31.60897 ], [ 77.30778, 31.61044 ], [ 77.30755, 31.6129 ], [ 77.30715, 31.61711 ], [ 77.30675, 31.62135 ], [ 77.30631, 31.62326 ], [ 77.30542, 31.62716 ], [ 77.3054, 31.62723 ], [ 77.30507, 31.62868 ], [ 77.30456, 31.63092 ], [ 77.30415, 31.63267 ], [ 77.30305, 31.6375 ], [ 77.30258, 31.63954 ], [ 77.30032, 31.64939 ], [ 77.30003, 31.65067 ], [ 77.2995, 31.65297 ], [ 77.29976, 31.65328 ], [ 77.3021, 31.65613 ], [ 77.30306, 31.65729 ], [ 77.30337, 31.65767 ], [ 77.30651, 31.66149 ], [ 77.30321, 31.66594 ], [ 77.30267, 31.66666 ], [ 77.30255, 31.66682 ], [ 77.30207, 31.66747 ], [ 77.3016, 31.6681 ], [ 77.30121, 31.66863 ], [ 77.30014, 31.67006 ], [ 77.29702, 31.67427 ], [ 77.29318, 31.67944 ], [ 77.29265, 31.68015 ], [ 77.29257, 31.68025 ], [ 77.29223, 31.68072 ], [ 77.29185, 31.68123 ], [ 77.29179, 31.6813 ], [ 77.28841, 31.68585 ], [ 77.28764, 31.6869 ], [ 77.28531, 31.69002 ], [ 77.28395, 31.69139 ], [ 77.28147, 31.69386 ], [ 77.28051, 31.69482 ], [ 77.28041, 31.69492 ], [ 77.278, 31.69732 ], [ 77.27785, 31.69748 ], [ 77.27758, 31.69775 ], [ 77.27528, 31.70004 ], [ 77.27517, 31.70015 ], [ 77.2745, 31.70082 ], [ 77.27298, 31.70171 ], [ 77.26995, 31.70348 ], [ 77.26758, 31.70487 ], [ 77.2623, 31.70795 ], [ 77.25898, 31.70989 ], [ 77.25666, 31.7104 ], [ 77.25278, 31.71125 ], [ 77.25263, 31.71128 ], [ 77.25066, 31.71172 ], [ 77.24713, 31.7125 ], [ 77.24617, 31.71326 ], [ 77.24566, 31.71366 ], [ 77.24093, 31.71741 ], [ 77.23925, 31.71874 ], [ 77.2371, 31.71943 ], [ 77.23648, 31.71963 ], [ 77.23503, 31.7201 ], [ 77.23065, 31.72151 ], [ 77.22847, 31.72221 ], [ 77.22788, 31.72274 ], [ 77.22745, 31.72313 ], [ 77.22721, 31.72335 ], [ 77.22598, 31.72446 ], [ 77.22466, 31.72382 ], [ 77.22447, 31.72373 ], [ 77.22325, 31.72314 ], [ 77.21814, 31.72065 ], [ 77.21753, 31.72205 ], [ 77.217, 31.72325 ], [ 77.21698, 31.7233 ], [ 77.21669, 31.72395 ], [ 77.21659, 31.72417 ], [ 77.21371, 31.73077 ], [ 77.21367, 31.7332 ], [ 77.21354, 31.74109 ], [ 77.21225, 31.74714 ], [ 77.21188, 31.74894 ], [ 77.21173, 31.75262 ], [ 77.21164, 31.75486 ], [ 77.21164, 31.75499 ], [ 77.2099, 31.76043 ], [ 77.20877, 31.76398 ], [ 77.20874, 31.7643 ], [ 77.2086, 31.76472 ], [ 77.20785, 31.76614 ], [ 77.20643, 31.76885 ], [ 77.20588, 31.76957 ], [ 77.2014, 31.77935 ], [ 77.19923, 31.78166 ], [ 77.19958, 31.78465 ], [ 77.19864, 31.78605 ], [ 77.19789, 31.78717 ], [ 77.1971, 31.78835 ], [ 77.19582, 31.79024 ], [ 77.19565, 31.7905 ], [ 77.19551, 31.7907 ], [ 77.19554, 31.79083 ], [ 77.19591, 31.79209 ], [ 77.19734, 31.79704 ], [ 77.19281, 31.80333 ], [ 77.19279, 31.80336 ], [ 77.19063, 31.80637 ], [ 77.18989, 31.8074 ], [ 77.18958, 31.80783 ], [ 77.18974, 31.80843 ], [ 77.18984, 31.8088 ], [ 77.19128, 31.81434 ], [ 77.19102, 31.81492 ], [ 77.19015, 31.8169 ], [ 77.18962, 31.81809 ], [ 77.18916, 31.81913 ], [ 77.18839, 31.82087 ], [ 77.18827, 31.82114 ], [ 77.18763, 31.82141 ], [ 77.184, 31.8229 ], [ 77.17937, 31.82479 ], [ 77.17768, 31.82548 ], [ 77.17674, 31.82587 ], [ 77.17721, 31.82678 ], [ 77.17833, 31.82895 ], [ 77.17965, 31.83152 ], [ 77.18004, 31.83422 ], [ 77.1799, 31.84068 ], [ 77.17896, 31.84059 ], [ 77.17629, 31.84034 ], [ 77.17462, 31.84002 ], [ 77.17356, 31.83982 ], [ 77.17141, 31.83908 ], [ 77.1691, 31.83829 ], [ 77.16806, 31.83793 ], [ 77.16632, 31.83791 ], [ 77.16621, 31.83791 ], [ 77.16286, 31.83783 ], [ 77.16229, 31.83786 ], [ 77.16036, 31.83784 ], [ 77.15606, 31.83779 ], [ 77.15067, 31.83773 ], [ 77.14413, 31.83766 ], [ 77.13468, 31.83756 ], [ 77.12646, 31.83747 ], [ 77.12502, 31.83745 ], [ 77.12468, 31.83745 ], [ 77.12315, 31.83743 ], [ 77.12233, 31.83742 ], [ 77.12171, 31.83745 ], [ 77.11956, 31.83754 ], [ 77.11469, 31.83774 ], [ 77.11255, 31.83753 ], [ 77.10581, 31.83813 ], [ 77.09615, 31.83649 ], [ 77.08785, 31.8316 ], [ 77.08381, 31.82922 ], [ 77.0824, 31.83035 ], [ 77.07941, 31.83273 ], [ 77.07036, 31.83536 ], [ 77.06124, 31.83461 ], [ 77.06023, 31.83452 ], [ 77.06026, 31.8362 ], [ 77.0603, 31.83836 ], [ 77.05984, 31.83968 ], [ 77.05942, 31.84088 ], [ 77.05843, 31.84371 ], [ 77.06065, 31.85121 ], [ 77.0608, 31.85173 ], [ 77.06199, 31.85574 ], [ 77.06065, 31.85624 ], [ 77.05959, 31.85665 ], [ 77.05756, 31.85742 ], [ 77.05575, 31.86185 ], [ 77.05405, 31.864 ], [ 77.04903, 31.87038 ], [ 77.04476, 31.87581 ], [ 77.04376, 31.87708 ], [ 77.04328, 31.87769 ], [ 77.04222, 31.87904 ], [ 77.04217, 31.87911 ], [ 77.03932, 31.88272 ], [ 77.03484, 31.88842 ], [ 77.03122, 31.89302 ], [ 77.02833, 31.8999 ], [ 77.02796, 31.90507 ], [ 77.02756, 31.91069 ], [ 77.02732, 31.9116 ], [ 77.02506, 31.92018 ], [ 77.02003, 31.92696 ], [ 77.01904, 31.92829 ], [ 77.01871, 31.92874 ], [ 77.01674, 31.93109 ], [ 77.01665, 31.9312 ], [ 77.0103, 31.93854 ], [ 77.00739, 31.9419 ], [ 77.00441, 31.94535 ], [ 77.00352, 31.94732 ], [ 77.00068, 31.95362 ], [ 76.99391, 31.96128 ], [ 76.99289, 31.96244 ], [ 76.99082, 31.96478 ], [ 76.9897, 31.96657 ], [ 76.98482, 31.97434 ], [ 76.97928, 31.98315 ], [ 76.98191, 31.99176 ], [ 76.98274, 31.99961 ], [ 76.98267, 32.00125 ], [ 76.98258, 32.00339 ], [ 76.98225, 32.011 ], [ 76.97789, 32.02334 ], [ 76.97035, 32.0258 ], [ 76.96486, 32.02759 ], [ 76.96429, 32.02817 ], [ 76.95975, 32.03281 ], [ 76.9454, 32.04374 ], [ 76.94468, 32.04428 ], [ 76.94464, 32.04473 ], [ 76.94431, 32.04807 ], [ 76.94388, 32.05241 ], [ 76.94357, 32.05565 ], [ 76.94343, 32.05706 ], [ 76.94011, 32.06239 ], [ 76.93924, 32.065 ], [ 76.93919, 32.06534 ], [ 76.93827, 32.0655 ], [ 76.93683, 32.06552 ], [ 76.93473, 32.06511 ], [ 76.93078, 32.06451 ], [ 76.92781, 32.06406 ], [ 76.92186, 32.06427 ], [ 76.91054, 32.06587 ], [ 76.90278, 32.0662 ], [ 76.89834, 32.06594 ], [ 76.89812, 32.06594 ], [ 76.88531, 32.06375 ], [ 76.88523, 32.06373 ], [ 76.88378, 32.06361 ], [ 76.88403, 32.06202 ], [ 76.88422, 32.06076 ], [ 76.88424, 32.06065 ], [ 76.8852, 32.05639 ], [ 76.88522, 32.05625 ], [ 76.86907, 32.05075 ], [ 76.86201, 32.05006 ], [ 76.85964, 32.04983 ], [ 76.85861, 32.04947 ], [ 76.85639, 32.05068 ], [ 76.85221, 32.05296 ], [ 76.85041, 32.05132 ], [ 76.84831, 32.05028 ], [ 76.84742, 32.05023 ], [ 76.84571, 32.05044 ], [ 76.84486, 32.05229 ], [ 76.8445, 32.05237 ], [ 76.84429, 32.05188 ], [ 76.84276, 32.05033 ], [ 76.8415, 32.04864 ], [ 76.83877, 32.04835 ], [ 76.83795, 32.04819 ], [ 76.83652, 32.04821 ], [ 76.83444, 32.04806 ], [ 76.83415, 32.04804 ], [ 76.83308, 32.04785 ], [ 76.8329, 32.04782 ], [ 76.83045, 32.04776 ], [ 76.82963, 32.04752 ], [ 76.82819, 32.04779 ], [ 76.82686, 32.04831 ], [ 76.82674, 32.04842 ], [ 76.82662, 32.04852 ], [ 76.82622, 32.04854 ], [ 76.82565, 32.04857 ], [ 76.82436, 32.04855 ], [ 76.82392, 32.04854 ], [ 76.8234, 32.04843 ], [ 76.81977, 32.04768 ], [ 76.81809, 32.0476 ], [ 76.81638, 32.04783 ], [ 76.81086, 32.05204 ], [ 76.80799, 32.05346 ], [ 76.80136, 32.05567 ], [ 76.80002, 32.05612 ], [ 76.79581, 32.05937 ], [ 76.79432, 32.06272 ], [ 76.79465, 32.06746 ], [ 76.79491, 32.06859 ], [ 76.79474, 32.07001 ], [ 76.79443, 32.07085 ], [ 76.79401, 32.07198 ], [ 76.79397, 32.07209 ], [ 76.79101, 32.07377 ], [ 76.79078, 32.07372 ], [ 76.7896, 32.07345 ], [ 76.78893, 32.0733 ], [ 76.78784, 32.07305 ], [ 76.78771, 32.07285 ], [ 76.78753, 32.07258 ], [ 76.78696, 32.07173 ], [ 76.78338, 32.06639 ], [ 76.77768, 32.06851 ], [ 76.77727, 32.06828 ], [ 76.77676, 32.068 ], [ 76.77191, 32.06533 ], [ 76.77097, 32.06481 ], [ 76.76837, 32.06141 ], [ 76.76212, 32.05324 ], [ 76.76209, 32.05319 ], [ 76.76022, 32.05148 ], [ 76.75979, 32.05107 ], [ 76.75563, 32.04725 ], [ 76.74633, 32.03868 ], [ 76.74471, 32.0372 ], [ 76.74327, 32.03535 ], [ 76.74252, 32.03439 ], [ 76.7425, 32.03436 ], [ 76.73887, 32.02972 ], [ 76.7388, 32.02971 ], [ 76.73739, 32.02956 ], [ 76.73654, 32.02946 ], [ 76.73543, 32.02933 ], [ 76.73142, 32.02886 ], [ 76.73122, 32.02966 ], [ 76.73097, 32.03067 ], [ 76.73064, 32.032 ], [ 76.72983, 32.03202 ], [ 76.72922, 32.03203 ], [ 76.72663, 32.03208 ], [ 76.72574, 32.0321 ], [ 76.72541, 32.03211 ], [ 76.72431, 32.03213 ], [ 76.72356, 32.03233 ], [ 76.72167, 32.03284 ], [ 76.71876, 32.03364 ], [ 76.71775, 32.03391 ], [ 76.71489, 32.03469 ], [ 76.71435, 32.03499 ], [ 76.71214, 32.03452 ], [ 76.71103, 32.03446 ], [ 76.70941, 32.03438 ], [ 76.70894, 32.03438 ], [ 76.70847, 32.03439 ], [ 76.70761, 32.03389 ], [ 76.70722, 32.03394 ], [ 76.70684, 32.0338 ], [ 76.70658, 32.03376 ], [ 76.70612, 32.03409 ], [ 76.70574, 32.03444 ], [ 76.70511, 32.03502 ], [ 76.70466, 32.03593 ], [ 76.70437, 32.0363 ], [ 76.70377, 32.03645 ], [ 76.70497, 32.03677 ], [ 76.70545, 32.0369 ], [ 76.70584, 32.03722 ], [ 76.70661, 32.03779 ], [ 76.7071, 32.03901 ], [ 76.70672, 32.04461 ], [ 76.70369, 32.04858 ], [ 76.70245, 32.04883 ], [ 76.70202, 32.04891 ], [ 76.70197, 32.04892 ], [ 76.69978, 32.04936 ], [ 76.69926, 32.04946 ], [ 76.69901, 32.04951 ], [ 76.69762, 32.04978 ], [ 76.69561, 32.05018 ], [ 76.69228, 32.05084 ], [ 76.6914, 32.05102 ], [ 76.68963, 32.05137 ], [ 76.68927, 32.05144 ], [ 76.68911, 32.05137 ], [ 76.68901, 32.05133 ], [ 76.68889, 32.05128 ], [ 76.68881, 32.05125 ], [ 76.68783, 32.05084 ], [ 76.68775, 32.05081 ], [ 76.68649, 32.05028 ], [ 76.68627, 32.05019 ], [ 76.68532, 32.04979 ], [ 76.68519, 32.04974 ], [ 76.68478, 32.04957 ], [ 76.68439, 32.04941 ], [ 76.6843, 32.04937 ], [ 76.68367, 32.04911 ], [ 76.68278, 32.04874 ], [ 76.68264, 32.04868 ], [ 76.68053, 32.0478 ], [ 76.68044, 32.04776 ], [ 76.6784, 32.04607 ], [ 76.67808, 32.0458 ], [ 76.67728, 32.04513 ], [ 76.67706, 32.04495 ], [ 76.67637, 32.04227 ], [ 76.676, 32.04086 ], [ 76.6752, 32.04018 ], [ 76.67497, 32.03998 ], [ 76.67477, 32.03981 ], [ 76.67446, 32.03955 ], [ 76.67382, 32.039 ], [ 76.67355, 32.03877 ], [ 76.6732, 32.03848 ], [ 76.67116, 32.03675 ], [ 76.6705, 32.03619 ], [ 76.66996, 32.03574 ], [ 76.66908, 32.03499 ], [ 76.66881, 32.03476 ], [ 76.66753, 32.03368 ], [ 76.66699, 32.03322 ], [ 76.66647, 32.03278 ], [ 76.66603, 32.0324 ], [ 76.66353, 32.03029 ], [ 76.66381, 32.02758 ], [ 76.66401, 32.02567 ], [ 76.66406, 32.02519 ], [ 76.6643, 32.02281 ], [ 76.6643, 32.02277 ], [ 76.66432, 32.0226 ], [ 76.66433, 32.02247 ], [ 76.66439, 32.02188 ], [ 76.66488, 32.0171 ], [ 76.66517, 32.01425 ], [ 76.66542, 32.01185 ], [ 76.66544, 32.01169 ], [ 76.66555, 32.01141 ], [ 76.66565, 32.01116 ], [ 76.66657, 32.00886 ], [ 76.66672, 32.00849 ], [ 76.66685, 32.00818 ], [ 76.66705, 32.00767 ], [ 76.66732, 32.00699 ], [ 76.66771, 32.00602 ], [ 76.66786, 32.00565 ], [ 76.66787, 32.00561 ], [ 76.66795, 32.00541 ], [ 76.66839, 32.00433 ], [ 76.66951, 32.00153 ], [ 76.66995, 32.00043 ], [ 76.67006, 32.00029 ], [ 76.67009, 32.00026 ], [ 76.67117, 31.9988 ], [ 76.67189, 31.99806 ], [ 76.67226, 31.99761 ], [ 76.67235, 31.9975 ], [ 76.6724, 31.99744 ], [ 76.67264, 31.99715 ], [ 76.67273, 31.99704 ], [ 76.67338, 31.99625 ], [ 76.67363, 31.99594 ], [ 76.67373, 31.99582 ], [ 76.67442, 31.99498 ], [ 76.6756, 31.99354 ], [ 76.67565, 31.99348 ], [ 76.67611, 31.99291 ], [ 76.67668, 31.99221 ], [ 76.678, 31.99061 ], [ 76.67926, 31.98907 ], [ 76.67951, 31.98877 ], [ 76.67956, 31.98871 ], [ 76.68006, 31.9881 ], [ 76.68074, 31.98762 ], [ 76.68082, 31.98746 ], [ 76.68116, 31.98675 ], [ 76.68166, 31.98498 ], [ 76.68174, 31.98482 ], [ 76.68282, 31.98263 ], [ 76.68345, 31.98106 ], [ 76.68367, 31.98052 ], [ 76.68378, 31.98025 ], [ 76.68401, 31.97951 ], [ 76.68421, 31.97884 ], [ 76.68427, 31.97869 ], [ 76.68445, 31.97798 ], [ 76.68453, 31.97739 ], [ 76.68472, 31.97696 ], [ 76.68522, 31.97669 ], [ 76.68558, 31.97509 ], [ 76.68571, 31.97451 ], [ 76.686, 31.97324 ], [ 76.68602, 31.97316 ], [ 76.68667, 31.97026 ], [ 76.68691, 31.96922 ], [ 76.68698, 31.9689 ], [ 76.68748, 31.96666 ], [ 76.68646, 31.96425 ], [ 76.68628, 31.96382 ], [ 76.68514, 31.96113 ], [ 76.68765, 31.95799 ], [ 76.68868, 31.9566 ], [ 76.69018, 31.95458 ], [ 76.69057, 31.95191 ], [ 76.69095, 31.94787 ], [ 76.69098, 31.94751 ], [ 76.69136, 31.94589 ], [ 76.69195, 31.94342 ], [ 76.6925, 31.94129 ], [ 76.69278, 31.94019 ], [ 76.69303, 31.93924 ], [ 76.6933, 31.93819 ], [ 76.69353, 31.9373 ], [ 76.69417, 31.93482 ], [ 76.69483, 31.93224 ], [ 76.69254, 31.93132 ], [ 76.6924, 31.93127 ], [ 76.69217, 31.93118 ], [ 76.69127, 31.93081 ], [ 76.68956, 31.93012 ], [ 76.68929, 31.92947 ], [ 76.68921, 31.92927 ], [ 76.68864, 31.92787 ], [ 76.68828, 31.92698 ], [ 76.68784, 31.92588 ], [ 76.68789, 31.92435 ], [ 76.68797, 31.92218 ], [ 76.68798, 31.92201 ], [ 76.688, 31.92134 ], [ 76.68707, 31.91894 ], [ 76.68543, 31.91475 ], [ 76.68526, 31.91433 ], [ 76.68472, 31.91293 ], [ 76.68375, 31.91047 ], [ 76.6816, 31.90922 ], [ 76.67869, 31.90754 ], [ 76.67854, 31.90627 ], [ 76.67848, 31.90575 ], [ 76.67842, 31.90519 ], [ 76.67832, 31.90437 ], [ 76.67881, 31.90206 ], [ 76.67883, 31.90197 ], [ 76.67936, 31.89945 ], [ 76.6796, 31.8983 ], [ 76.6797, 31.89783 ], [ 76.67881, 31.89694 ], [ 76.67794, 31.89607 ], [ 76.67772, 31.89585 ], [ 76.6775, 31.89563 ], [ 76.67667, 31.89481 ], [ 76.67643, 31.89457 ], [ 76.67597, 31.8941 ], [ 76.67598, 31.89344 ], [ 76.67602, 31.89167 ], [ 76.67605, 31.89054 ], [ 76.67611, 31.8879 ], [ 76.67613, 31.88748 ], [ 76.67616, 31.88597 ], [ 76.67617, 31.88558 ], [ 76.67627, 31.88526 ], [ 76.67735, 31.88173 ], [ 76.67821, 31.8789 ], [ 76.67823, 31.87877 ], [ 76.67832, 31.87807 ], [ 76.6785, 31.87652 ], [ 76.67859, 31.87592 ], [ 76.67869, 31.87512 ], [ 76.67895, 31.87309 ], [ 76.67761, 31.87306 ], [ 76.67344, 31.87297 ], [ 76.6731, 31.87245 ], [ 76.67297, 31.87229 ], [ 76.67273, 31.87198 ], [ 76.67257, 31.87186 ], [ 76.67242, 31.8718 ], [ 76.67229, 31.87179 ], [ 76.67215, 31.87178 ], [ 76.67197, 31.87166 ], [ 76.67156, 31.87174 ], [ 76.67087, 31.87174 ], [ 76.66941, 31.87158 ], [ 76.66936, 31.87158 ], [ 76.66846, 31.87152 ], [ 76.66824, 31.87149 ], [ 76.66719, 31.87136 ], [ 76.66675, 31.87135 ], [ 76.66629, 31.87142 ], [ 76.66574, 31.87156 ], [ 76.6652, 31.87159 ], [ 76.66135, 31.87075 ], [ 76.66075, 31.87059 ], [ 76.66033, 31.87048 ], [ 76.66003, 31.87052 ], [ 76.65751, 31.87083 ], [ 76.65733, 31.87085 ], [ 76.64927, 31.87234 ], [ 76.64846, 31.8727 ], [ 76.64761, 31.87304 ], [ 76.64602, 31.87325 ], [ 76.64422, 31.87356 ], [ 76.6441, 31.87359 ], [ 76.64219, 31.87408 ], [ 76.64161, 31.87426 ], [ 76.64146, 31.8743 ], [ 76.64141, 31.87423 ], [ 76.64135, 31.87415 ], [ 76.64098, 31.87392 ], [ 76.64007, 31.87365 ], [ 76.64004, 31.87361 ], [ 76.63959, 31.87303 ], [ 76.63984, 31.87207 ], [ 76.63899, 31.8709 ], [ 76.63885, 31.87071 ], [ 76.63716, 31.86839 ], [ 76.6371, 31.86798 ], [ 76.63701, 31.86727 ], [ 76.63684, 31.86604 ], [ 76.63682, 31.86592 ], [ 76.63676, 31.86549 ], [ 76.6367, 31.86499 ], [ 76.63635, 31.86241 ], [ 76.6363, 31.86203 ], [ 76.63624, 31.86159 ], [ 76.63614, 31.86082 ], [ 76.63543, 31.85558 ], [ 76.63523, 31.85408 ], [ 76.63522, 31.85404 ], [ 76.63518, 31.85374 ], [ 76.63505, 31.85279 ], [ 76.635, 31.85236 ], [ 76.63479, 31.85082 ], [ 76.63468, 31.85066 ], [ 76.63465, 31.85061 ], [ 76.63389, 31.8495 ], [ 76.63332, 31.84866 ], [ 76.63216, 31.84698 ], [ 76.6317, 31.84632 ], [ 76.62937, 31.84294 ], [ 76.62896, 31.84235 ], [ 76.62863, 31.83781 ], [ 76.6284, 31.83459 ], [ 76.62849, 31.82761 ], [ 76.6287, 31.82715 ], [ 76.62941, 31.82483 ], [ 76.62941, 31.82476 ], [ 76.62977, 31.82365 ], [ 76.63007, 31.82279 ], [ 76.63022, 31.82145 ], [ 76.62958, 31.82049 ], [ 76.62941, 31.81923 ], [ 76.62941, 31.81918 ], [ 76.62824, 31.81596 ], [ 76.62764, 31.81343 ], [ 76.62731, 31.81203 ], [ 76.62661, 31.80914 ], [ 76.6262, 31.80597 ], [ 76.62619, 31.8059 ], [ 76.6255, 31.80448 ], [ 76.62544, 31.80421 ], [ 76.62542, 31.80415 ], [ 76.62532, 31.8037 ], [ 76.62351, 31.79613 ], [ 76.62266, 31.79259 ], [ 76.62198, 31.78973 ], [ 76.62288, 31.78666 ], [ 76.62297, 31.7858 ], [ 76.62325, 31.7854 ], [ 76.62361, 31.78415 ], [ 76.62384, 31.78335 ], [ 76.62505, 31.77917 ], [ 76.62507, 31.77911 ], [ 76.62512, 31.77892 ], [ 76.62557, 31.77738 ], [ 76.62619, 31.77525 ], [ 76.62646, 31.77479 ], [ 76.62856, 31.77124 ], [ 76.62961, 31.76946 ], [ 76.63028, 31.76833 ], [ 76.63172, 31.76456 ], [ 76.63305, 31.76131 ], [ 76.63307, 31.76126 ], [ 76.63458, 31.75708 ], [ 76.63462, 31.75698 ], [ 76.63527, 31.75528 ], [ 76.6375, 31.74943 ], [ 76.64224, 31.74634 ], [ 76.64825, 31.74243 ], [ 76.6488, 31.74208 ], [ 76.65095, 31.74165 ], [ 76.65387, 31.74081 ], [ 76.65837, 31.73952 ], [ 76.66725, 31.73846 ], [ 76.67461, 31.73176 ], [ 76.67424, 31.72948 ], [ 76.67372, 31.72629 ], [ 76.67294, 31.72146 ], [ 76.67463, 31.7182 ], [ 76.67506, 31.71743 ], [ 76.67624, 31.71533 ], [ 76.67674, 31.71442 ], [ 76.6802, 31.71279 ], [ 76.6809, 31.71248 ], [ 76.68639, 31.70987 ], [ 76.68936, 31.70846 ], [ 76.68762, 31.7011 ], [ 76.68954, 31.69962 ], [ 76.69035, 31.69899 ], [ 76.69051, 31.69887 ], [ 76.69272, 31.69716 ], [ 76.69263, 31.69567 ], [ 76.69249, 31.69325 ], [ 76.69324, 31.68887 ], [ 76.69326, 31.68875 ], [ 76.69364, 31.68652 ], [ 76.69392, 31.68486 ], [ 76.69443, 31.6819 ], [ 76.70115, 31.67908 ], [ 76.70488, 31.67752 ], [ 76.70563, 31.6772 ], [ 76.71014, 31.67531 ], [ 76.71323, 31.67401 ], [ 76.71833, 31.67187 ], [ 76.7188, 31.67167 ], [ 76.71886, 31.67165 ], [ 76.72057, 31.67038 ], [ 76.7208, 31.67021 ], [ 76.72218, 31.66919 ], [ 76.72304, 31.66855 ], [ 76.72314, 31.66848 ], [ 76.72345, 31.66825 ], [ 76.72366, 31.66809 ], [ 76.72844, 31.66454 ], [ 76.72789, 31.66345 ], [ 76.72683, 31.66141 ], [ 76.72557, 31.65947 ], [ 76.72446, 31.65718 ], [ 76.72451, 31.65677 ], [ 76.72318, 31.65248 ], [ 76.72293, 31.65169 ], [ 76.72207, 31.64893 ], [ 76.72111, 31.64584 ], [ 76.72096, 31.64533 ], [ 76.72093, 31.64525 ], [ 76.7207, 31.64452 ], [ 76.72068, 31.64444 ], [ 76.71974, 31.64143 ], [ 76.71945, 31.64047 ], [ 76.71933, 31.64009 ], [ 76.71928, 31.63993 ], [ 76.71858, 31.63769 ], [ 76.71823, 31.63657 ], [ 76.71818, 31.6364 ], [ 76.7179, 31.6355 ], [ 76.71773, 31.63495 ], [ 76.71631, 31.63036 ], [ 76.71639, 31.62926 ], [ 76.71662, 31.62592 ], [ 76.71669, 31.62492 ], [ 76.71683, 31.62286 ], [ 76.71698, 31.62074 ], [ 76.71723, 31.62028 ], [ 76.71819, 31.61853 ], [ 76.71917, 31.61673 ], [ 76.72094, 31.61349 ], [ 76.7232, 31.60935 ], [ 76.72355, 31.60871 ], [ 76.72404, 31.6078 ], [ 76.7242, 31.60752 ], [ 76.72448, 31.60701 ], [ 76.72469, 31.60662 ], [ 76.72511, 31.60584 ], [ 76.7266, 31.60302 ], [ 76.72672, 31.60279 ], [ 76.72667, 31.6009 ], [ 76.72861, 31.59527 ], [ 76.72951, 31.59267 ], [ 76.72959, 31.59212 ], [ 76.72963, 31.5918 ], [ 76.72993, 31.58963 ], [ 76.73019, 31.58634 ], [ 76.73027, 31.58607 ], [ 76.73075, 31.58467 ], [ 76.73077, 31.58463 ], [ 76.73205, 31.5819 ], [ 76.73202, 31.58021 ], [ 76.73186, 31.57262 ], [ 76.73102, 31.56984 ], [ 76.7291, 31.56347 ], [ 76.73186, 31.56303 ], [ 76.73273, 31.56289 ], [ 76.73459, 31.56259 ], [ 76.73568, 31.56242 ], [ 76.73511, 31.56169 ], [ 76.73478, 31.56127 ], [ 76.73432, 31.56008 ], [ 76.73396, 31.55917 ], [ 76.73174, 31.55744 ], [ 76.73059, 31.556 ], [ 76.72999, 31.55524 ], [ 76.73012, 31.55413 ], [ 76.73057, 31.55014 ], [ 76.73069, 31.54912 ], [ 76.73075, 31.54856 ], [ 76.73101, 31.54625 ], [ 76.73234, 31.54473 ], [ 76.73267, 31.54435 ], [ 76.73345, 31.54347 ], [ 76.73639, 31.54012 ], [ 76.73694, 31.53949 ], [ 76.73634, 31.53667 ], [ 76.73617, 31.53586 ], [ 76.73597, 31.53492 ], [ 76.73594, 31.53478 ], [ 76.73576, 31.53393 ], [ 76.73548, 31.53258 ], [ 76.73674, 31.53059 ], [ 76.73904, 31.52695 ], [ 76.74033, 31.52537 ], [ 76.74041, 31.52468 ], [ 76.74044, 31.52411 ], [ 76.73837, 31.52261 ], [ 76.73791, 31.52216 ], [ 76.73782, 31.52207 ], [ 76.73756, 31.52181 ], [ 76.73854, 31.51979 ], [ 76.74096, 31.51827 ], [ 76.74378, 31.5187 ], [ 76.74441, 31.51894 ], [ 76.74514, 31.51939 ], [ 76.74547, 31.51952 ], [ 76.74884, 31.52083 ], [ 76.75022, 31.52192 ], [ 76.75643, 31.52111 ], [ 76.76452, 31.52116 ], [ 76.76595, 31.52167 ], [ 76.76675, 31.52154 ], [ 76.76707, 31.52113 ], [ 76.76713, 31.52106 ], [ 76.76722, 31.52075 ], [ 76.7673, 31.52047 ], [ 76.76784, 31.51977 ], [ 76.76796, 31.51968 ], [ 76.77107, 31.51739 ], [ 76.77199, 31.51671 ], [ 76.77288, 31.51606 ], [ 76.77326, 31.51578 ], [ 76.77351, 31.51551 ], [ 76.7737, 31.51532 ], [ 76.7741, 31.5149 ], [ 76.77538, 31.51358 ], [ 76.77569, 31.51325 ], [ 76.77695, 31.51193 ], [ 76.77729, 31.51214 ], [ 76.77732, 31.51219 ], [ 76.77818, 31.51355 ], [ 76.77861, 31.51391 ], [ 76.77878, 31.51405 ], [ 76.77901, 31.5143 ], [ 76.78002, 31.51471 ], [ 76.78029, 31.51449 ], [ 76.78076, 31.51411 ], [ 76.78334, 31.51122 ], [ 76.79018, 31.50355 ], [ 76.79052, 31.50317 ], [ 76.79068, 31.5026 ], [ 76.79087, 31.50191 ], [ 76.79096, 31.5016 ], [ 76.79102, 31.50137 ], [ 76.79183, 31.49846 ], [ 76.79133, 31.49809 ], [ 76.79119, 31.49798 ], [ 76.79073, 31.4966 ], [ 76.79035, 31.49543 ], [ 76.78996, 31.49425 ], [ 76.78991, 31.49408 ], [ 76.78847, 31.48954 ], [ 76.78767, 31.48699 ], [ 76.78684, 31.48435 ], [ 76.78796, 31.48389 ], [ 76.78736, 31.48324 ], [ 76.78844, 31.48241 ], [ 76.78952, 31.48159 ], [ 76.79204, 31.47966 ], [ 76.79224, 31.47942 ], [ 76.79298, 31.47852 ], [ 76.7938, 31.4775 ], [ 76.79469, 31.47686 ], [ 76.79558, 31.47622 ], [ 76.79641, 31.47529 ], [ 76.79735, 31.47426 ], [ 76.79767, 31.47334 ], [ 76.79756, 31.47078 ], [ 76.79754, 31.4693 ], [ 76.79753, 31.4689 ], [ 76.79757, 31.4687 ], [ 76.79764, 31.46831 ], [ 76.79774, 31.46781 ], [ 76.7978, 31.46747 ], [ 76.79814, 31.46571 ], [ 76.79884, 31.46367 ], [ 76.79886, 31.46288 ], [ 76.79887, 31.46244 ], [ 76.79891, 31.46107 ], [ 76.79889, 31.46046 ], [ 76.7998, 31.45981 ], [ 76.80108, 31.45854 ], [ 76.8022, 31.45743 ], [ 76.80239, 31.45705 ], [ 76.80273, 31.45637 ], [ 76.80279, 31.45595 ], [ 76.80284, 31.45559 ], [ 76.80226, 31.45388 ], [ 76.80195, 31.45291 ], [ 76.80213, 31.45164 ], [ 76.80171, 31.45124 ], [ 76.79975, 31.45135 ], [ 76.79942, 31.45109 ], [ 76.79921, 31.45095 ], [ 76.79793, 31.44533 ], [ 76.79835, 31.44499 ], [ 76.80125, 31.44263 ], [ 76.80333, 31.43987 ], [ 76.80348, 31.43932 ], [ 76.80378, 31.43816 ], [ 76.80441, 31.43572 ], [ 76.80484, 31.43406 ], [ 76.80525, 31.43248 ], [ 76.80424, 31.42766 ], [ 76.80369, 31.42648 ], [ 76.80428, 31.4244 ], [ 76.80477, 31.4227 ], [ 76.80487, 31.42233 ], [ 76.80695, 31.42262 ], [ 76.80707, 31.42264 ], [ 76.8071, 31.42266 ], [ 76.80754, 31.42288 ], [ 76.8087, 31.42302 ], [ 76.80935, 31.423 ], [ 76.80945, 31.42297 ], [ 76.81194, 31.42332 ], [ 76.81275, 31.42343 ], [ 76.8134, 31.42293 ], [ 76.817, 31.42018 ], [ 76.81722, 31.42001 ], [ 76.81757, 31.41992 ], [ 76.82136, 31.41893 ], [ 76.82411, 31.41821 ], [ 76.82506, 31.41796 ], [ 76.82568, 31.41834 ], [ 76.82876, 31.42026 ], [ 76.82895, 31.42029 ], [ 76.82919, 31.42033 ], [ 76.83223, 31.42084 ], [ 76.83475, 31.42127 ], [ 76.83579, 31.42079 ], [ 76.83627, 31.42072 ], [ 76.83689, 31.42041 ], [ 76.83745, 31.42001 ], [ 76.83839, 31.41957 ], [ 76.84095, 31.41837 ], [ 76.8415, 31.41811 ], [ 76.84309, 31.41737 ], [ 76.8434, 31.41722 ], [ 76.8444, 31.41675 ], [ 76.84665, 31.4157 ], [ 76.84794, 31.4154 ], [ 76.84912, 31.41512 ], [ 76.85293, 31.41423 ], [ 76.85704, 31.41452 ], [ 76.85956, 31.41393 ], [ 76.86294, 31.4135 ], [ 76.86535, 31.41354 ], [ 76.86711, 31.41357 ], [ 76.86824, 31.41297 ], [ 76.86872, 31.41272 ], [ 76.86979, 31.41275 ], [ 76.87044, 31.41307 ], [ 76.87088, 31.41302 ], [ 76.87273, 31.41298 ], [ 76.8737, 31.41277 ], [ 76.87487, 31.41233 ], [ 76.87606, 31.41193 ], [ 76.87657, 31.41189 ], [ 76.87746, 31.41182 ], [ 76.88132, 31.41153 ], [ 76.88197, 31.40873 ], [ 76.88226, 31.40724 ], [ 76.88233, 31.40691 ], [ 76.8828, 31.40478 ], [ 76.88281, 31.40475 ], [ 76.88284, 31.4046 ], [ 76.88286, 31.40451 ], [ 76.88315, 31.40317 ], [ 76.88318, 31.40304 ], [ 76.88319, 31.40299 ], [ 76.88331, 31.40248 ], [ 76.88338, 31.40217 ], [ 76.88351, 31.40154 ], [ 76.88365, 31.40089 ], [ 76.8837, 31.39991 ], [ 76.88383, 31.39713 ], [ 76.88366, 31.39666 ], [ 76.88334, 31.3958 ], [ 76.88335, 31.39554 ], [ 76.88399, 31.39358 ], [ 76.88421, 31.38894 ], [ 76.88425, 31.38801 ], [ 76.88273, 31.38734 ], [ 76.88196, 31.387 ], [ 76.88187, 31.38696 ], [ 76.88128, 31.3867 ], [ 76.87881, 31.38562 ], [ 76.87859, 31.38552 ], [ 76.87825, 31.38537 ], [ 76.878, 31.38526 ], [ 76.87767, 31.38511 ], [ 76.87746, 31.38502 ], [ 76.87733, 31.38501 ], [ 76.87697, 31.38497 ], [ 76.8767, 31.38494 ], [ 76.87585, 31.38486 ], [ 76.87525, 31.3848 ], [ 76.87383, 31.38467 ], [ 76.87107, 31.384 ], [ 76.87032, 31.38382 ], [ 76.8701, 31.3839 ], [ 76.86978, 31.38403 ], [ 76.86925, 31.38364 ], [ 76.86827, 31.3828 ], [ 76.868, 31.38257 ], [ 76.86704, 31.38174 ], [ 76.86694, 31.38166 ], [ 76.8671, 31.38056 ], [ 76.86705, 31.38025 ], [ 76.86699, 31.37956 ], [ 76.86712, 31.37937 ], [ 76.86827, 31.37806 ], [ 76.86836, 31.37796 ], [ 76.86867, 31.3776 ], [ 76.86882, 31.37743 ], [ 76.86978, 31.3758 ], [ 76.87111, 31.37402 ], [ 76.87203, 31.3725 ], [ 76.8723, 31.3721 ], [ 76.87466, 31.36962 ], [ 76.87501, 31.3691 ], [ 76.87645, 31.36694 ], [ 76.87555, 31.36373 ], [ 76.87528, 31.36278 ], [ 76.87521, 31.36254 ], [ 76.875, 31.36181 ], [ 76.87461, 31.36043 ], [ 76.87501, 31.3591 ], [ 76.87539, 31.35785 ], [ 76.87653, 31.35346 ], [ 76.87961, 31.35448 ], [ 76.88382, 31.3572 ], [ 76.8847, 31.35757 ], [ 76.88586, 31.35806 ], [ 76.88767, 31.35912 ], [ 76.88904, 31.35984 ], [ 76.89236, 31.36171 ], [ 76.89286, 31.36182 ], [ 76.89651, 31.36265 ], [ 76.8988, 31.36317 ], [ 76.90137, 31.36375 ], [ 76.90255, 31.36402 ], [ 76.90476, 31.36358 ], [ 76.90995, 31.36255 ], [ 76.91608, 31.36474 ], [ 76.9179, 31.36539 ], [ 76.91808, 31.36545 ], [ 76.91996, 31.36612 ], [ 76.92163, 31.36672 ], [ 76.92384, 31.36503 ], [ 76.9334, 31.35769 ], [ 76.94337, 31.34773 ], [ 76.94549, 31.34181 ], [ 76.94643, 31.33918 ], [ 76.94468, 31.33525 ], [ 76.94418, 31.33413 ], [ 76.94693, 31.33314 ], [ 76.95248, 31.33113 ], [ 76.95653, 31.32966 ], [ 76.95718, 31.32927 ], [ 76.95774, 31.32893 ], [ 76.96512, 31.32448 ], [ 76.96615, 31.32386 ], [ 76.96864, 31.32236 ], [ 76.9711, 31.31961 ], [ 76.97494, 31.31532 ], [ 76.97915, 31.31062 ], [ 76.98978, 31.30511 ], [ 76.99615, 31.30181 ], [ 77.0008, 31.29939 ], [ 77.00102, 31.29926 ], [ 77.00378, 31.29751 ] ] ] } }
]
}
