{
"type": "FeatureCollection",
"name": "chamba_Bridges",
"crs": { "type": "name", "properties": { "name": "urn:ogc:def:crs:OGC:1.3:CRS84" } },
"features": [
{ "type": "Feature", "properties": { "osm_id": 57770479, "osm_type": "way", "name": "Chamba Shahpur Via Dramman Road", "tags": { "bridge": "yes", "highway": "primary", "lanes": "2", "layer": "1", "maxspeed": "30", "name": "Chamba Shahpur Via Dramman Road", "oneway": "no", "ref": "SH43" } }, "geometry": { "type": "LineString", "coordinates": [ [ 76.1687171, 32.2361768 ], [ 76.168740108301179, 32.2361470196536 ] ] } },
{ "type": "Feature", "properties": { "osm_id": 57770477, "osm_type": "way", "name": "Chamba Shahpur Via Dramman Road", "tags": { "bridge": "yes", "highway": "primary", "lanes": "2", "layer": "1", "maxspeed": "30", "name": "Chamba Shahpur Via Dramman Road", "oneway": "no", "ref": "SH43" } }, "geometry": { "type": "LineString", "coordinates": [ [ 76.149616, 32.237429 ], [ 76.1504359, 32.2379016 ] ] } },
{ "type": "Feature", "properties": { "osm_id": 316869425, "osm_type": "way", "name": null, "tags": { "bridge": "yes" } }, "geometry": { "type": "LineString", "coordinates": [ [ 76.0644588, 32.2880931 ], [ 76.0646036, 32.2883153 ] ] } },
{ "type": "Feature", "properties": { "osm_id": 57770305, "osm_type": "way", "name": "Chamba Shahpur Via Dramman Road", "tags": { "bridge": "yes", "highway": "primary", "lanes": "2", "layer": "0", "maxspeed": "30", "name": "Chamba Shahpur Via Dramman Road", "oneway": "no", "ref": "SH43" } }, "geometry": { "type": "LineString", "coordinates": [ [ 76.1147362, 32.2930136 ], [ 76.115541, 32.2925702 ] ] } },
{ "type": "Feature", "properties": { "osm_id": 57769587, "osm_type": "way", "name": "Chamba Shahpur Via Dramman Road", "tags": { "bridge": "yes", "highway": "primary", "lanes": "2", "layer": "1", "maxspeed": "30", "name": "Chamba Shahpur Via Dramman Road", "oneway": "no", "ref": "SH43" } }, "geometry": { "type": "LineString", "coordinates": [ [ 76.0843743, 32.3096576 ], [ 76.0843172, 32.3095414 ], [ 76.0841175, 32.3094315 ], [ 76.0837887, 32.3093283 ], [ 76.0834981, 32.3093172 ], [ 76.0832649, 32.3093305 ], [ 76.08287, 32.3093637 ], [ 76.0825402, 32.3093438 ], [ 76.0822104, 32.3093504 ], [ 76.0819748, 32.3093504 ], [ 76.0817628, 32.3092575 ], [ 76.0814959, 32.3090584 ], [ 76.0812524, 32.3088792 ], [ 76.0810247, 32.3086735 ], [ 76.080852, 32.308481 ], [ 76.0807684, 32.308276 ], [ 76.0807838, 32.3080634 ], [ 76.0811672, 32.3075976 ], [ 76.0823174, 32.3070305 ], [ 76.0839709, 32.3063419 ], [ 76.0856243, 32.3056735 ], [ 76.0866787, 32.3052482 ], [ 76.0879008, 32.3047216 ], [ 76.0883941, 32.3044618 ], [ 76.0885021, 32.3042922 ], [ 76.0885465, 32.3037252 ], [ 76.0886197, 32.3035671 ], [ 76.0887155, 32.302919 ], [ 76.0893709, 32.3020236 ], [ 76.0898657, 32.3015214 ], [ 76.0902297, 32.3011443 ], [ 76.0906896, 32.3008845 ], [ 76.0920463, 32.3005694 ], [ 76.0928611, 32.3005492 ], [ 76.0939634, 32.3008935 ], [ 76.0946244, 32.3008582 ], [ 76.0951993, 32.3006303 ], [ 76.0956802, 32.3003004 ], [ 76.096439, 32.3002446 ], [ 76.0969668, 32.3004677 ], [ 76.0973957, 32.3003283 ], [ 76.0977257, 32.3005514 ], [ 76.0975987, 32.3011177 ], [ 76.0978132, 32.3012432 ], [ 76.0979896, 32.3013043 ], [ 76.0986824, 32.3014438 ], [ 76.0993093, 32.3014438 ], [ 76.100497, 32.3012765 ], [ 76.1013878, 32.3009697 ], [ 76.1019817, 32.3009418 ], [ 76.1028609, 32.3003831 ], [ 76.1035207, 32.2997553 ], [ 76.1039086, 32.2992 ], [ 76.1044041, 32.2984432 ], [ 76.1044561, 32.2978742 ], [ 76.104753, 32.297428 ], [ 76.1056768, 32.2968424 ], [ 76.1061057, 32.2964241 ], [ 76.1072274, 32.2961452 ], [ 76.1080192, 32.2960336 ], [ 76.108778, 32.2956711 ], [ 76.1094424, 32.2953123 ], [ 76.1105266, 32.2952806 ], [ 76.1114778, 32.2947223 ], [ 76.112968, 32.2939699 ], [ 76.1141888, 32.2933284 ], [ 76.1147362, 32.2930136 ] ] } },
{ "type": "Feature", "properties": { "osm_id": 1061905312, "osm_type": "way", "name": null, "tags": { "bridge": "yes", "highway": "unclassified", "layer": "1" } }, "geometry": { "type": "LineString", "coordinates": [ [ 76.1110496, 32.3046382 ], [ 76.1110765, 32.3040715 ] ] } },
{ "type": "Feature", "properties": { "osm_id": 1061905316, "osm_type": "way", "name": null, "tags": { "bridge": "yes", "highway": "unclassified", "layer": "1" } }, "geometry": { "type": "LineString", "coordinates": [ [ 76.1203569, 32.3079504 ], [ 76.1200994, 32.3085148 ] ] } },
{ "type": "Feature", "properties": { "osm_id": 1061905301, "osm_type": "way", "name": null, "tags": { "bridge": "yes", "highway": "unclassified", "layer": "1" } }, "geometry": { "type": "LineString", "coordinates": [ [ 76.1584389, 32.296252 ], [ 76.1586294, 32.2961477 ] ] } },
{ "type": "Feature", "properties": { "osm_id": 316869426, "osm_type": "way", "name": null, "tags": { "bridge": "yes", "highway": "path" } }, "geometry": { "type": "LineString", "coordinates": [ [ 76.0805369, 32.3091112 ], [ 76.0804271, 32.3094513 ] ] } },
{ "type": "Feature", "properties": { "osm_id": 57769586, "osm_type": "way", "name": "Chamba Shahpur Via Dramman Road", "tags": { "bridge": "yes", "highway": "primary", "lanes": "2", "layer": "0", "maxspeed": "30", "name": "Chamba Shahpur Via Dramman Road", "oneway": "no", "ref": "SH43" } }, "geometry": { "type": "LineString", "coordinates": [ [ 76.0842912, 32.3099782 ], [ 76.0843743, 32.3096576 ] ] } },
{ "type": "Feature", "properties": { "osm_id": 57769584, "osm_type": "way", "name": "Khola Bridge", "tags": { "bridge": "yes", "highway": "primary", "lanes": "2", "layer": "0", "maxspeed": "30", "name": "Khola Bridge", "oneway": "no", "ref": "SH43" } }, "geometry": { "type": "LineString", "coordinates": [ [ 76.0840177, 32.3127551 ], [ 76.0842202, 32.3126224 ] ] } },
{ "type": "Feature", "properties": { "osm_id": 627729873, "osm_type": "way", "name": null, "tags": { "bridge": "yes", "highway": "tertiary", "layer": "1", "oneway": "no" } }, "geometry": { "type": "LineString", "coordinates": [ [ 76.0997068, 32.3154704 ], [ 76.0998874, 32.3150275 ] ] } },
{ "type": "Feature", "properties": { "osm_id": 627729851, "osm_type": "way", "name": null, "tags": { "bridge": "yes", "highway": "unclassified", "layer": "1", "oneway": "no" } }, "geometry": { "type": "LineString", "coordinates": [ [ 76.052103, 32.3196626 ], [ 76.0519162, 32.3195363 ] ] } },
{ "type": "Feature", "properties": { "osm_id": 627729870, "osm_type": "way", "name": null, "tags": { "bridge": "yes", "highway": "tertiary", "layer": "1", "oneway": "no" } }, "geometry": { "type": "LineString", "coordinates": [ [ 76.0917218, 32.3221951 ], [ 76.0920759, 32.3219593 ] ] } },
{ "type": "Feature", "properties": { "osm_id": 627729848, "osm_type": "way", "name": null, "tags": { "bridge": "yes", "highway": "unclassified", "layer": "1", "oneway": "no" } }, "geometry": { "type": "LineString", "coordinates": [ [ 76.0564274, 32.3232026 ], [ 76.0562639, 32.3230723 ] ] } },
{ "type": "Feature", "properties": { "osm_id": 57769580, "osm_type": "way", "name": "Chamba Shahpur Via Dramman Road", "tags": { "bridge": "yes", "highway": "primary", "lanes": "2", "layer": "1", "maxspeed": "30", "name": "Chamba Shahpur Via Dramman Road", "oneway": "no", "ref": "SH43" } }, "geometry": { "type": "LineString", "coordinates": [ [ 76.0771605, 32.3239865 ], [ 76.0774769, 32.3238725 ], [ 76.0779599, 32.3237073 ] ] } },
{ "type": "Feature", "properties": { "osm_id": 627729853, "osm_type": "way", "name": null, "tags": { "bridge": "yes", "highway": "unclassified", "layer": "1", "oneway": "no" } }, "geometry": { "type": "LineString", "coordinates": [ [ 76.0571351, 32.3260116 ], [ 76.0570387, 32.3258391 ] ] } },
{ "type": "Feature", "properties": { "osm_id": 627729854, "osm_type": "way", "name": null, "tags": { "bridge": "yes", "highway": "unclassified", "layer": "1", "oneway": "no" } }, "geometry": { "type": "LineString", "coordinates": [ [ 76.0578439, 32.3267255 ], [ 76.0577418, 32.326577 ] ] } },
{ "type": "Feature", "properties": { "osm_id": 1347879468, "osm_type": "way", "name": null, "tags": { "bridge": "yes", "highway": "unclassified", "layer": "1" } }, "geometry": { "type": "LineString", "coordinates": [ [ 76.5545234, 32.3257318 ], [ 76.554805, 32.3256163 ] ] } },
{ "type": "Feature", "properties": { "osm_id": 43106059, "osm_type": "way", "name": null, "tags": { "bridge": "yes", "highway": "tertiary", "lanes": "2", "layer": "1", "maxspeed": "30" } }, "geometry": { "type": "LineString", "coordinates": [ [ 76.5546688, 32.3273073 ], [ 76.5549053, 32.3272474 ] ] } },
{ "type": "Feature", "properties": { "osm_id": 821258363, "osm_type": "way", "name": null, "tags": { "bridge": "yes" } }, "geometry": { "type": "LineString", "coordinates": [ [ 76.4194435, 32.3310278 ], [ 76.4196093, 32.3310112 ] ] } },
{ "type": "Feature", "properties": { "osm_id": 723083350, "osm_type": "way", "name": "Lake wali Mata - Yada Goth", "tags": { "bicycle": "no", "bridge": "yes", "highway": "path", "layer": "1", "name": "Lake wali Mata - Yada Goth", "sac_scale": "mountain_hiking", "surface": "gravel", "trail_visibility": "intermediate", "width": "1" } }, "geometry": { "type": "LineString", "coordinates": [ [ 76.6795174, 32.2519433 ], [ 76.6793654, 32.2518136 ] ] } },
{ "type": "Feature", "properties": { "osm_id": 43107204, "osm_type": "way", "name": null, "tags": { "bridge": "yes", "width": "1" } }, "geometry": { "type": "LineString", "coordinates": [ [ 76.6731387, 32.2744942 ], [ 76.6731597, 32.2742706 ] ] } },
{ "type": "Feature", "properties": { "osm_id": 1175275592, "osm_type": "way", "name": "Chamba - Bara Bhanghal Trail", "tags": { "bridge": "yes", "highway": "bridleway", "layer": "1", "name": "Chamba - Bara Bhanghal Trail" } }, "geometry": { "type": "LineString", "coordinates": [ [ 76.6626077, 32.2829809 ], [ 76.6627957, 32.2832983 ] ] } },
{ "type": "Feature", "properties": { "osm_id": 819320403, "osm_type": "way", "name": null, "tags": { "bridge": "yes", "highway": "tertiary", "lanes": "2", "layer": "1", "maxspeed": "30", "oneway": "no" } }, "geometry": { "type": "LineString", "coordinates": [ [ 76.6266975, 32.2845918 ], [ 76.6267337, 32.2845133 ] ] } },
{ "type": "Feature", "properties": { "osm_id": 819335250, "osm_type": "way", "name": null, "tags": { "bridge": "yes", "highway": "unclassified", "layer": "1", "oneway": "yes" } }, "geometry": { "type": "LineString", "coordinates": [ [ 76.6129558, 32.2948128 ], [ 76.6132955, 32.2946902 ] ] } },
{ "type": "Feature", "properties": { "osm_id": 1347879532, "osm_type": "way", "name": null, "tags": { "bridge": "yes", "highway": "unclassified", "layer": "1" } }, "geometry": { "type": "LineString", "coordinates": [ [ 76.5685058, 32.3030399 ], [ 76.5686747, 32.3029606 ] ] } },
{ "type": "Feature", "properties": { "osm_id": 1410349727, "osm_type": "way", "name": "Chamba - Bara Bhanghal Trail", "tags": { "bicycle": "yes", "bridge": "yes", "covered": "no", "highway": "unclassified", "lanes": "1", "layer": "1", "maxaxleload": "1 tone", "name": "Chamba - Bara Bhanghal Trail", "oneway": "no", "surface": "ground" } }, "geometry": { "type": "LineString", "coordinates": [ [ 76.6906639, 32.3088458 ], [ 76.6907746, 32.3092394 ] ] } },
{ "type": "Feature", "properties": { "osm_id": 1410345688, "osm_type": "way", "name": null, "tags": { "bridge": "yes", "highway": "unclassified", "layer": "1", "oneway": "no" } }, "geometry": { "type": "LineString", "coordinates": [ [ 76.5656036, 32.3231486 ], [ 76.5661077, 32.3232447 ] ] } },
{ "type": "Feature", "properties": { "osm_id": 62049342, "osm_type": "way", "name": "Tiyari Road", "tags": { "bridge": "yes", "highway": "unclassified", "layer": "1", "maxspeed": "20", "name": "Tiyari Road", "surface": "wood", "width": "5" } }, "geometry": { "type": "LineString", "coordinates": [ [ 76.5392811, 32.3384719 ], [ 76.5401198, 32.3389113 ] ] } },
{ "type": "Feature", "properties": { "osm_id": 43104601, "osm_type": "way", "name": "Ki Nala", "tags": { "bridge": "yes", "highway": "tertiary", "layer": "1", "maxspeed": "30", "maxweight": "9", "name": "Ki Nala", "width": "3" } }, "geometry": { "type": "LineString", "coordinates": [ [ 76.5330429, 32.3420417 ], [ 76.5334364, 32.3418629 ] ] } },
{ "type": "Feature", "properties": { "osm_id": 81361726, "osm_type": "way", "name": "Hikam Bridge", "tags": { "bridge": "yes", "highway": "path", "name": "Hikam Bridge" } }, "geometry": { "type": "LineString", "coordinates": [ [ 76.4770803, 32.354992 ], [ 76.4773358, 32.3549582 ], [ 76.477596, 32.354877 ] ] } },
{ "type": "Feature", "properties": { "osm_id": 1393185463, "osm_type": "way", "name": null, "tags": { "bridge": "yes", "highway": "path", "layer": "1" } }, "geometry": { "type": "LineString", "coordinates": [ [ 76.4569421, 32.3566266 ], [ 76.4569853, 32.3567594 ] ] } },
{ "type": "Feature", "properties": { "osm_id": 1393185476, "osm_type": "way", "name": "Lamu Hilling Road", "tags": { "bicycle": "no", "bridge": "yes", "foot": "yes", "highway": "unclassified", "horse": "yes", "layer": "1", "maxspeed": "20", "motorcar": "no", "name": "Lamu Hilling Road", "oneway": "no", "ski": "no", "snowmobile": "no", "width": "5" } }, "geometry": { "type": "LineString", "coordinates": [ [ 76.4912119, 32.3582586 ], [ 76.4913129, 32.358223 ], [ 76.4913651, 32.3582105 ], [ 76.4914173, 32.3581979 ] ] } },
{ "type": "Feature", "properties": { "osm_id": 1455770037, "osm_type": "way", "name": null, "tags": { "bridge": "yes", "highway": "service", "layer": "1", "oneway": "no" } }, "geometry": { "type": "LineString", "coordinates": [ [ 76.4784092, 32.3602454 ], [ 76.4779523, 32.3598858 ] ] } },
{ "type": "Feature", "properties": { "osm_id": 627745755, "osm_type": "way", "name": null, "tags": { "bridge": "yes", "highway": "unclassified", "layer": "1", "oneway": "no" } }, "geometry": { "type": "LineString", "coordinates": [ [ 76.5235773, 32.3625259 ], [ 76.523243, 32.3618836 ] ] } },
{ "type": "Feature", "properties": { "osm_id": 1393185467, "osm_type": "way", "name": null, "tags": { "bridge": "yes", "highway": "path", "layer": "1" } }, "geometry": { "type": "LineString", "coordinates": [ [ 76.4827935, 32.3656997 ], [ 76.4829103, 32.3655921 ] ] } },
{ "type": "Feature", "properties": { "osm_id": 837581164, "osm_type": "way", "name": null, "tags": { "bridge": "yes", "highway": "unclassified", "layer": "1", "source": "digitalglobe" } }, "geometry": { "type": "LineString", "coordinates": [ [ 76.5059264, 32.3756953 ], [ 76.5056858, 32.3760399 ] ] } },
{ "type": "Feature", "properties": { "osm_id": 1075624187, "osm_type": "way", "name": null, "tags": { "bridge": "yes", "highway": "path", "layer": "1" } }, "geometry": { "type": "LineString", "coordinates": [ [ 76.487361, 32.4080533 ], [ 76.4880894, 32.4078765 ] ] } },
{ "type": "Feature", "properties": { "osm_id": 62049649, "osm_type": "way", "name": "Klah Jailkhud Trail", "tags": { "bicycle": "no", "bridge": "yes", "foot": "yes", "highway": "path", "horse": "no", "layer": "0", "name": "Klah Jailkhud Trail", "ski": "no", "snowmobile": "no", "surface": "wood", "width": "1" } }, "geometry": { "type": "LineString", "coordinates": [ [ 76.5948753, 32.3670189 ], [ 76.5952281, 32.3669628 ] ] } },
{ "type": "Feature", "properties": { "osm_id": 62049651, "osm_type": "way", "name": "Klah Jailkhud Trail", "tags": { "bicycle": "no", "bridge": "yes", "foot": "yes", "highway": "path", "horse": "no", "layer": "0", "name": "Klah Jailkhud Trail", "ski": "no", "snowmobile": "no", "surface": "wood", "width": "1" } }, "geometry": { "type": "LineString", "coordinates": [ [ 76.605807, 32.3754486 ], [ 76.6058121, 32.3755954 ] ] } },
{ "type": "Feature", "properties": { "osm_id": 732573614, "osm_type": "way", "name": "Manimahesh Lake Dhanchho Trail", "tags": { "bicycle": "no", "bridge": "yes", "highway": "path", "layer": "1", "name": "Manimahesh Lake Dhanchho Trail", "sac_scale": "mountain_hiking", "surface": "gravel", "trail_visibility": "intermediate" } }, "geometry": { "type": "LineString", "coordinates": [ [ 76.6380238, 32.4011556 ], [ 76.6379685, 32.4012965 ] ] } },
{ "type": "Feature", "properties": { "osm_id": 732589855, "osm_type": "way", "name": null, "tags": { "access": "no", "bridge": "yes", "description": "(Oct 2019) at present this bridge is broken but materials are on spot for repair work by next season.", "foot": "no", "highway": "path", "layer": "1" } }, "geometry": { "type": "LineString", "coordinates": [ [ 76.615435, 32.4156223 ], [ 76.6154743, 32.4157511 ] ] } },
{ "type": "Feature", "properties": { "osm_id": 732573627, "osm_type": "way", "name": null, "tags": { "bridge": "yes", "highway": "path", "layer": "1" } }, "geometry": { "type": "LineString", "coordinates": [ [ 76.6089417, 32.4194539 ], [ 76.6089159, 32.4193477 ] ] } },
{ "type": "Feature", "properties": { "osm_id": 62067823, "osm_type": "way", "name": "Dhanchho Hadsar Path", "tags": { "bicycle": "no", "bridge": "yes", "foot": "yes", "highway": "path", "horse": "no", "layer": "0", "name": "Dhanchho Hadsar Path", "ski": "no", "snowmobile": "no", "surface": "wood", "width": "1" } }, "geometry": { "type": "LineString", "coordinates": [ [ 76.6045305, 32.428182 ], [ 76.6044359, 32.4283165 ] ] } },
{ "type": "Feature", "properties": { "osm_id": 62069702, "osm_type": "way", "name": "Bharmour Hadsar Road", "tags": { "bridge": "yes", "highway": "unclassified", "layer": "1", "maxspeed": "30", "name": "Bharmour Hadsar Road", "surface": "asphalt", "width": "5" } }, "geometry": { "type": "LineString", "coordinates": [ [ 76.5729482, 32.4443132 ], [ 76.572835, 32.444386 ] ] } },
{ "type": "Feature", "properties": { "osm_id": 732589858, "osm_type": "way", "name": "Bharmour - Kugti Road", "tags": { "bridge": "yes", "highway": "unclassified", "layer": "1", "maxspeed": "20", "name": "Bharmour - Kugti Road", "oneway": "no", "surface": "metal" } }, "geometry": { "type": "LineString", "coordinates": [ [ 76.6154526, 32.4504354 ], [ 76.6159011, 32.450267 ] ] } },
{ "type": "Feature", "properties": { "osm_id": 732589866, "osm_type": "way", "name": "Bharmour - Kugti Road", "tags": { "bridge": "yes", "highway": "unclassified", "layer": "1", "name": "Bharmour - Kugti Road", "oneway": "no", "surface": "metal" } }, "geometry": { "type": "LineString", "coordinates": [ [ 76.6197002, 32.4508929 ], [ 76.6197182, 32.4504885 ], [ 76.6197867, 32.4502057 ], [ 76.6198155, 32.4501175 ] ] } },
{ "type": "Feature", "properties": { "osm_id": 627719967, "osm_type": "way", "name": null, "tags": { "bridge": "yes", "highway": "path", "layer": "1" } }, "geometry": { "type": "LineString", "coordinates": [ [ 76.0482771, 32.3348775 ], [ 76.0484527, 32.335023 ] ] } },
{ "type": "Feature", "properties": { "osm_id": 57769141, "osm_type": "way", "name": "Chamba Shahpur Via Dramman Road", "tags": { "bridge": "yes", "highway": "primary", "layer": "1", "name": "Chamba Shahpur Via Dramman Road", "oneway": "no" } }, "geometry": { "type": "LineString", "coordinates": [ [ 76.0364708, 32.3364213 ], [ 76.0366279, 32.3363588 ] ] } },
{ "type": "Feature", "properties": { "osm_id": 57769143, "osm_type": "way", "name": "Chamba Shahpur Via Dramman Road", "tags": { "bridge": "yes", "highway": "primary", "lanes": "2", "layer": "1", "maxspeed": "30", "name": "Chamba Shahpur Via Dramman Road", "oneway": "no", "ref": "SH43" } }, "geometry": { "type": "LineString", "coordinates": [ [ 76.0454803, 32.3386855 ], [ 76.0457863, 32.3387267 ] ] } },
{ "type": "Feature", "properties": { "osm_id": 627729882, "osm_type": "way", "name": "Chamba Shahpur Via Dramman Road", "tags": { "bridge": "yes", "highway": "primary", "lanes": "2", "layer": "1", "maxspeed": "30", "name": "Chamba Shahpur Via Dramman Road", "oneway": "no", "ref": "SH43" } }, "geometry": { "type": "LineString", "coordinates": [ [ 76.0248023, 32.3414296 ], [ 76.0249012, 32.3413824 ], [ 76.0250205, 32.3412868 ] ] } },
{ "type": "Feature", "properties": { "osm_id": 57769145, "osm_type": "way", "name": "Chamba Shahpur Via Dramman Road", "tags": { "bridge": "yes", "highway": "primary", "lanes": "2", "layer": "1", "maxspeed": "30", "name": "Chamba Shahpur Via Dramman Road", "oneway": "no", "ref": "SH43" } }, "geometry": { "type": "LineString", "coordinates": [ [ 76.0195541, 32.3526301 ], [ 76.0199363, 32.3522123 ] ] } },
{ "type": "Feature", "properties": { "osm_id": 316869442, "osm_type": "way", "name": null, "tags": { "bridge": "yes", "highway": "unclassified" } }, "geometry": { "type": "LineString", "coordinates": [ [ 76.0327669, 32.3700442 ], [ 76.0331638, 32.3698177 ] ] } },
{ "type": "Feature", "properties": { "osm_id": 1061552386, "osm_type": "way", "name": null, "tags": { "bridge": "yes", "highway": "unclassified", "layer": "1" } }, "geometry": { "type": "LineString", "coordinates": [ [ 76.0294569, 32.3958412 ], [ 76.0295561, 32.3957619 ], [ 76.0295883, 32.3956396 ] ] } },
{ "type": "Feature", "properties": { "osm_id": 1118871409, "osm_type": "way", "name": null, "tags": { "bridge": "yes", "highway": "residential", "layer": "1", "source": "maxar" } }, "geometry": { "type": "LineString", "coordinates": [ [ 75.9403721, 32.3985538 ], [ 75.9405056, 32.3994913 ] ] } },
{ "type": "Feature", "properties": { "osm_id": 627729884, "osm_type": "way", "name": "Chamba Shahpur Via Dramman Road", "tags": { "bridge": "yes", "highway": "primary", "lanes": "2", "layer": "1", "maxspeed": "30", "name": "Chamba Shahpur Via Dramman Road", "oneway": "no", "ref": "SH43" } }, "geometry": { "type": "LineString", "coordinates": [ [ 75.9908033, 32.397062 ], [ 75.9909673, 32.3969908 ] ] } },
{ "type": "Feature", "properties": { "osm_id": 627729887, "osm_type": "way", "name": "Chamba Shahpur Via Dramman Road", "tags": { "bridge": "yes", "highway": "primary", "lanes": "2", "layer": "1", "maxspeed": "30", "name": "Chamba Shahpur Via Dramman Road", "oneway": "no", "ref": "SH43" } }, "geometry": { "type": "LineString", "coordinates": [ [ 75.9810928, 32.4015545 ], [ 75.981368, 32.4013934 ] ] } },
{ "type": "Feature", "properties": { "osm_id": 627717236, "osm_type": "way", "name": null, "tags": { "bridge": "yes", "highway": "primary", "layer": "1", "oneway": "no", "ref": "SH 28" } }, "geometry": { "type": "LineString", "coordinates": [ [ 75.9755047, 32.4056923 ], [ 75.9755731, 32.4055536 ] ] } },
{ "type": "Feature", "properties": { "osm_id": 57769049, "osm_type": "way", "name": "Chamba Shahpur Road", "tags": { "bridge": "yes", "highway": "primary", "lanes": "2", "layer": "1", "maxspeed": "30", "name": "Chamba Shahpur Road", "ref": "SH28;43" } }, "geometry": { "type": "LineString", "coordinates": [ [ 75.9775269, 32.4074816 ], [ 75.9772994, 32.4072445 ], [ 75.9771199, 32.4069362 ], [ 75.9769403, 32.406628 ] ] } },
{ "type": "Feature", "properties": { "osm_id": 627719958, "osm_type": "way", "name": null, "tags": { "bridge": "yes", "highway": "unclassified", "layer": "1" } }, "geometry": { "type": "LineString", "coordinates": [ [ 75.9836051, 32.4079916 ], [ 75.9845347, 32.4078104 ] ] } },
{ "type": "Feature", "properties": { "osm_id": 527829320, "osm_type": "way", "name": "Chamba Via Chowari Jot", "tags": { "bridge": "yes", "highway": "primary", "lanes": "2", "layer": "1", "maxspeed": "30", "name": "Chamba Via Chowari Jot", "oneway": "no", "ref": "SH43" } }, "geometry": { "type": "LineString", "coordinates": [ [ 75.9847451, 32.4101274 ], [ 75.9848165, 32.4099945 ] ] } },
{ "type": "Feature", "properties": { "osm_id": 527829317, "osm_type": "way", "name": "Chamba Via Chowari Jot", "tags": { "bridge": "yes", "highway": "primary", "lanes": "2", "layer": "1", "maxspeed": "30", "name": "Chamba Via Chowari Jot", "oneway": "no", "ref": "SH43" } }, "geometry": { "type": "LineString", "coordinates": [ [ 75.9847293, 32.4104568 ], [ 75.9846861, 32.4103987 ], [ 75.9846833, 32.4103418 ] ] } },
{ "type": "Feature", "properties": { "osm_id": 527829321, "osm_type": "way", "name": "Chamba Via Chowari Jot", "tags": { "bridge": "yes", "highway": "primary", "lanes": "2", "layer": "1", "maxspeed": "30", "name": "Chamba Via Chowari Jot", "oneway": "no", "ref": "SH43" } }, "geometry": { "type": "LineString", "coordinates": [ [ 75.984939, 32.4120038 ], [ 75.9847066, 32.4118521 ] ] } },
{ "type": "Feature", "properties": { "osm_id": 527829315, "osm_type": "way", "name": null, "tags": { "bridge": "yes", "highway": "primary", "layer": "1", "oneway": "no", "ref": "SH 28" } }, "geometry": { "type": "LineString", "coordinates": [ [ 75.9696723, 32.4155577 ], [ 75.9693826, 32.4153938 ] ] } },
{ "type": "Feature", "properties": { "osm_id": 316869431, "osm_type": "way", "name": null, "tags": { "bridge": "yes", "highway": "primary", "ref": "SH 28" } }, "geometry": { "type": "LineString", "coordinates": [ [ 75.9637477, 32.4202592 ], [ 75.9630497, 32.4205385 ] ] } },
{ "type": "Feature", "properties": { "osm_id": 1118871413, "osm_type": "way", "name": null, "tags": { "bridge": "yes", "highway": "residential", "layer": "1", "source": "maxar" } }, "geometry": { "type": "LineString", "coordinates": [ [ 75.934616, 32.403988 ], [ 75.9346327, 32.4039476 ] ] } },
{ "type": "Feature", "properties": { "osm_id": 1118884913, "osm_type": "way", "name": null, "tags": { "bridge": "yes", "highway": "residential", "layer": "1", "source": "maxar" } }, "geometry": { "type": "LineString", "coordinates": [ [ 75.9468998, 32.4048917 ], [ 75.9473323, 32.4054519 ] ] } },
{ "type": "Feature", "properties": { "osm_id": 1118884915, "osm_type": "way", "name": null, "tags": { "bridge": "yes", "highway": "residential", "layer": "1", "source": "maxar" } }, "geometry": { "type": "LineString", "coordinates": [ [ 75.9415347, 32.4067272 ], [ 75.9414215, 32.4066908 ] ] } },
{ "type": "Feature", "properties": { "osm_id": 527824069, "osm_type": "way", "name": null, "tags": { "bridge": "yes", "highway": "unclassified", "layer": "1" } }, "geometry": { "type": "LineString", "coordinates": [ [ 75.952344, 32.4174206 ], [ 75.9522258, 32.4173881 ] ] } },
{ "type": "Feature", "properties": { "osm_id": 527824074, "osm_type": "way", "name": null, "tags": { "bridge": "yes", "highway": "unclassified", "layer": "1", "oneway": "no" } }, "geometry": { "type": "LineString", "coordinates": [ [ 75.9534343, 32.4183459 ], [ 75.9532798, 32.4182993 ] ] } },
{ "type": "Feature", "properties": { "osm_id": 527824078, "osm_type": "way", "name": null, "tags": { "bridge": "yes", "highway": "unclassified", "layer": "1", "oneway": "no" } }, "geometry": { "type": "LineString", "coordinates": [ [ 75.9544441, 32.4197449 ], [ 75.9544134, 32.419651 ] ] } },
{ "type": "Feature", "properties": { "osm_id": 527824085, "osm_type": "way", "name": null, "tags": { "bridge": "yes", "highway": "unclassified", "layer": "1" } }, "geometry": { "type": "LineString", "coordinates": [ [ 75.955106, 32.4210942 ], [ 75.9549759, 32.4210311 ] ] } },
{ "type": "Feature", "properties": { "osm_id": 527824090, "osm_type": "way", "name": null, "tags": { "bridge": "yes", "highway": "unclassified", "layer": "1" } }, "geometry": { "type": "LineString", "coordinates": [ [ 75.9553808, 32.4213496 ], [ 75.9552637, 32.4212878 ] ] } },
{ "type": "Feature", "properties": { "osm_id": 527824099, "osm_type": "way", "name": null, "tags": { "bridge": "yes", "highway": "unclassified", "layer": "1" } }, "geometry": { "type": "LineString", "coordinates": [ [ 75.9530384, 32.4257462 ], [ 75.9530098, 32.4256103 ] ] } },
{ "type": "Feature", "properties": { "osm_id": 527829307, "osm_type": "way", "name": "SH 28", "tags": { "bridge": "yes", "highway": "primary", "lanes": "1", "layer": "1", "name": "SH 28", "oneway": "no", "ref": "SH 28", "surface": "asphalt" } }, "geometry": { "type": "LineString", "coordinates": [ [ 75.9578492, 32.4257848 ], [ 75.9577065, 32.4259113 ] ] } },
{ "type": "Feature", "properties": { "osm_id": 527829313, "osm_type": "way", "name": null, "tags": { "bridge": "yes", "highway": "primary", "layer": "1", "oneway": "no", "ref": "SH 28" } }, "geometry": { "type": "LineString", "coordinates": [ [ 75.9689398, 32.420411 ], [ 75.9692349, 32.420654 ] ] } },
{ "type": "Feature", "properties": { "osm_id": 527829312, "osm_type": "way", "name": "SH 28", "tags": { "bridge": "yes", "highway": "primary", "lanes": "1", "layer": "1", "name": "SH 28", "oneway": "no", "ref": "SH 28", "surface": "asphalt" } }, "geometry": { "type": "LineString", "coordinates": [ [ 75.9594126, 32.4236332 ], [ 75.9593914, 32.4238459 ] ] } },
{ "type": "Feature", "properties": { "osm_id": 1035752873, "osm_type": "way", "name": null, "tags": { "bridge": "yes", "highway": "tertiary" } }, "geometry": { "type": "LineString", "coordinates": [ [ 76.0224947, 32.4285714 ], [ 76.0221291, 32.4288543 ] ] } },
{ "type": "Feature", "properties": { "osm_id": 57768968, "osm_type": "way", "name": "Chamba Via Chowari Jot", "tags": { "bridge": "yes", "highway": "primary", "lanes": "2", "layer": "1", "maxspeed": "30", "name": "Chamba Via Chowari Jot", "oneway": "no", "ref": "SH43" } }, "geometry": { "type": "LineString", "coordinates": [ [ 76.0009074, 32.4313365 ], [ 76.0003171, 32.4313578 ] ] } },
{ "type": "Feature", "properties": { "osm_id": 316869428, "osm_type": "way", "name": null, "tags": { "bridge": "yes", "highway": "unclassified", "source": "Bing" } }, "geometry": { "type": "LineString", "coordinates": [ [ 75.9961319, 32.4633639 ], [ 75.9958167, 32.4636027 ] ] } },
{ "type": "Feature", "properties": { "osm_id": 316869419, "osm_type": "way", "name": null, "tags": { "bridge": "yes", "highway": "unclassified" } }, "geometry": { "type": "LineString", "coordinates": [ [ 75.9847038, 32.4654731 ], [ 75.9846866, 32.4653409 ] ] } },
{ "type": "Feature", "properties": { "osm_id": 316869420, "osm_type": "way", "name": null, "tags": { "bridge": "yes", "highway": "unclassified" } }, "geometry": { "type": "LineString", "coordinates": [ [ 75.9853561, 32.4655217 ], [ 75.9853561, 32.4654176 ] ] } },
{ "type": "Feature", "properties": { "osm_id": 316869429, "osm_type": "way", "name": null, "tags": { "bridge": "yes", "highway": "unclassified" } }, "geometry": { "type": "LineString", "coordinates": [ [ 75.9870888, 32.4691606 ], [ 75.9868421, 32.4693778 ] ] } },
{ "type": "Feature", "properties": { "osm_id": 1061544213, "osm_type": "way", "name": null, "tags": { "bridge": "yes", "highway": "unclassified", "layer": "1" } }, "geometry": { "type": "LineString", "coordinates": [ [ 76.0097908, 32.4746029 ], [ 76.0100743, 32.4748545 ] ] } },
{ "type": "Feature", "properties": { "osm_id": 1460198105, "osm_type": "way", "name": null, "tags": { "bicycle": "no", "bridge": "yes", "highway": "path", "layer": "1" } }, "geometry": { "type": "LineString", "coordinates": [ [ 76.0116094, 32.4757082 ], [ 76.011804, 32.4757365 ] ] } },
{ "type": "Feature", "properties": { "osm_id": 627729856, "osm_type": "way", "name": null, "tags": { "bridge": "yes", "highway": "unclassified", "layer": "1", "oneway": "no" } }, "geometry": { "type": "LineString", "coordinates": [ [ 76.0573222, 32.3282013 ], [ 76.0572768, 32.3280432 ] ] } },
{ "type": "Feature", "properties": { "osm_id": 627729866, "osm_type": "way", "name": null, "tags": { "bridge": "yes", "highway": "path", "layer": "1" } }, "geometry": { "type": "LineString", "coordinates": [ [ 76.0844217, 32.3307192 ], [ 76.084805, 32.3305887 ] ] } },
{ "type": "Feature", "properties": { "osm_id": 627729858, "osm_type": "way", "name": null, "tags": { "bridge": "yes", "highway": "unclassified", "layer": "1", "oneway": "no" } }, "geometry": { "type": "LineString", "coordinates": [ [ 76.0561428, 32.3311048 ], [ 76.0565, 32.33087 ] ] } },
{ "type": "Feature", "properties": { "osm_id": 57769291, "osm_type": "way", "name": "Chamba Shahpur Via Dramman Road", "tags": { "bridge": "yes", "highway": "primary", "lanes": "2", "layer": "1", "maxspeed": "30", "name": "Chamba Shahpur Via Dramman Road", "oneway": "no", "ref": "SH43" } }, "geometry": { "type": "LineString", "coordinates": [ [ 76.0583132, 32.332771 ], [ 76.0585561, 32.3327725 ] ] } },
{ "type": "Feature", "properties": { "osm_id": 627729864, "osm_type": "way", "name": null, "tags": { "bridge": "yes", "highway": "tertiary", "layer": "1", "oneway": "no" } }, "geometry": { "type": "LineString", "coordinates": [ [ 76.0933774, 32.3386404 ], [ 76.0931889, 32.3385107 ] ] } },
{ "type": "Feature", "properties": { "osm_id": 627729862, "osm_type": "way", "name": null, "tags": { "bridge": "yes", "highway": "tertiary", "layer": "1", "oneway": "no" } }, "geometry": { "type": "LineString", "coordinates": [ [ 76.0945274, 32.3413323 ], [ 76.0941457, 32.341107 ] ] } },
{ "type": "Feature", "properties": { "osm_id": 627729860, "osm_type": "way", "name": null, "tags": { "bridge": "yes", "highway": "tertiary", "layer": "1", "oneway": "no" } }, "geometry": { "type": "LineString", "coordinates": [ [ 76.0977986, 32.3557835 ], [ 76.0979499, 32.3556758 ], [ 76.0981001, 32.3555263 ], [ 76.0985614, 32.3550187 ], [ 76.0986795, 32.3548556 ] ] } },
{ "type": "Feature", "properties": { "osm_id": 1061552384, "osm_type": "way", "name": null, "tags": { "bridge": "yes", "highway": "unclassified", "layer": "1" } }, "geometry": { "type": "LineString", "coordinates": [ [ 76.0568315, 32.3896174 ], [ 76.0567966, 32.3888858 ] ] } },
{ "type": "Feature", "properties": { "osm_id": 1061552390, "osm_type": "way", "name": null, "tags": { "bridge": "yes", "highway": "unclassified", "layer": "1" } }, "geometry": { "type": "LineString", "coordinates": [ [ 76.0505292, 32.4078429 ], [ 76.0511124, 32.4073413 ] ] } },
{ "type": "Feature", "properties": { "osm_id": 1061543373, "osm_type": "way", "name": null, "tags": { "bridge": "yes", "highway": "unclassified", "layer": "1" } }, "geometry": { "type": "LineString", "coordinates": [ [ 76.0666242, 32.453916 ], [ 76.066348, 32.4542668 ] ] } },
{ "type": "Feature", "properties": { "osm_id": 57755235, "osm_type": "way", "name": "Darkund Dharbala Path", "tags": { "bicycle": "no", "bridge": "yes", "foot": "yes", "highway": "path", "horse": "no", "layer": "0", "name": "Darkund Dharbala Path", "ski": "no", "snowmobile": "no", "surface": "ground", "width": "1" } }, "geometry": { "type": "LineString", "coordinates": [ [ 76.2904854, 32.4350612 ], [ 76.2905641, 32.4352598 ] ] } },
{ "type": "Feature", "properties": { "osm_id": 57755238, "osm_type": "way", "name": "Barehi Trail", "tags": { "bicycle": "no", "bridge": "yes", "foot": "yes", "highway": "path", "horse": "no", "layer": "0", "name": "Barehi Trail", "ski": "no", "snowmobile": "no", "surface": "ground", "width": "1" } }, "geometry": { "type": "LineString", "coordinates": [ [ 76.2988227, 32.4391967 ], [ 76.2990484, 32.438833 ] ] } },
{ "type": "Feature", "properties": { "osm_id": 57765897, "osm_type": "way", "name": "Chamba Bharmour Road", "tags": { "bridge": "yes", "highway": "trunk", "layer": "1", "maxspeed": "30", "name": "Chamba Bharmour Road", "ref": "NH154A", "ref:old": "MDR52" } }, "geometry": { "type": "LineString", "coordinates": [ [ 76.2529231, 32.4717013 ], [ 76.2521412, 32.4720885 ] ] } },
{ "type": "Feature", "properties": { "osm_id": 627745750, "osm_type": "way", "name": null, "tags": { "bridge": "yes", "highway": "unclassified", "layer": "1", "oneway": "no" } }, "geometry": { "type": "LineString", "coordinates": [ [ 76.2274253, 32.473048 ], [ 76.227886, 32.4725311 ] ] } },
{ "type": "Feature", "properties": { "osm_id": 316835836, "osm_type": "way", "name": null, "tags": { "bridge": "yes", "highway": "track" } }, "geometry": { "type": "LineString", "coordinates": [ [ 76.3053772, 32.4787501 ], [ 76.3054276, 32.4785587 ], [ 76.3055126, 32.4783428 ], [ 76.3056762, 32.4781663 ], [ 76.3058881, 32.4780079 ] ] } },
{ "type": "Feature", "properties": { "osm_id": 316835839, "osm_type": "way", "name": null, "tags": { "bridge": "yes", "highway": "tertiary", "oneway": "no" } }, "geometry": { "type": "LineString", "coordinates": [ [ 76.2856596, 32.4805709 ], [ 76.2859752, 32.4811173 ] ] } },
{ "type": "Feature", "properties": { "osm_id": 316835819, "osm_type": "way", "name": null, "tags": { "bridge": "yes", "highway": "tertiary", "layer": "1" } }, "geometry": { "type": "LineString", "coordinates": [ [ 76.2820245, 32.4833342 ], [ 76.2818365, 32.4834247 ] ] } },
{ "type": "Feature", "properties": { "osm_id": 271839226, "osm_type": "way", "name": null, "tags": { "bridge": "yes", "highway": "unclassified", "oneway": "no" } }, "geometry": { "type": "LineString", "coordinates": [ [ 76.1782933, 32.48516 ], [ 76.1782174, 32.4840267 ] ] } },
{ "type": "Feature", "properties": { "osm_id": 1096438292, "osm_type": "way", "name": null, "tags": { "bridge": "yes", "highway": "unclassified", "layer": "1" } }, "geometry": { "type": "LineString", "coordinates": [ [ 76.1504459, 32.5511338 ], [ 76.1505371, 32.5512807 ] ] } },
{ "type": "Feature", "properties": { "osm_id": 1117931122, "osm_type": "way", "name": null, "tags": { "bridge": "yes", "highway": "unclassified", "layer": "1", "source": "maxar" } }, "geometry": { "type": "LineString", "coordinates": [ [ 76.2529412, 32.5680683 ], [ 76.2529707, 32.5684277 ] ] } },
{ "type": "Feature", "properties": { "osm_id": 1060364254, "osm_type": "way", "name": null, "tags": { "bridge": "yes", "highway": "unclassified", "layer": "1" } }, "geometry": { "type": "LineString", "coordinates": [ [ 76.0734719, 32.5065543 ], [ 76.0736221, 32.5062082 ] ] } },
{ "type": "Feature", "properties": { "osm_id": 271842227, "osm_type": "way", "name": null, "tags": { "bridge": "yes", "highway": "track" } }, "geometry": { "type": "LineString", "coordinates": [ [ 76.1431295, 32.5257304 ], [ 76.1424047, 32.5245805 ] ] } },
{ "type": "Feature", "properties": { "osm_id": 1060364255, "osm_type": "way", "name": null, "tags": { "bridge": "yes", "highway": "unclassified", "layer": "1" } }, "geometry": { "type": "LineString", "coordinates": [ [ 76.1047491, 32.5281401 ], [ 76.1049101, 32.5275928 ] ] } },
{ "type": "Feature", "properties": { "osm_id": 1060167295, "osm_type": "way", "name": "Chamba Via Chowari Jot", "tags": { "bridge": "yes", "highway": "tertiary", "lanes": "2", "layer": "1", "maxspeed": "30", "name": "Chamba Via Chowari Jot", "oneway": "no" } }, "geometry": { "type": "LineString", "coordinates": [ [ 76.0787129, 32.5296485 ], [ 76.0788175, 32.5299153 ] ] } },
{ "type": "Feature", "properties": { "osm_id": 1060167291, "osm_type": "way", "name": null, "tags": { "bridge": "yes", "highway": "unclassified", "layer": "1" } }, "geometry": { "type": "LineString", "coordinates": [ [ 76.1164811, 32.5358061 ], [ 76.116685, 32.5354149 ] ] } },
{ "type": "Feature", "properties": { "osm_id": 627745741, "osm_type": "way", "name": "Chamba Via Chowari Jot", "tags": { "bridge": "yes", "highway": "tertiary", "lanes": "2", "layer": "1", "maxspeed": "30", "name": "Chamba Via Chowari Jot", "oneway": "no" } }, "geometry": { "type": "LineString", "coordinates": [ [ 76.1086653, 32.5527583 ], [ 76.1084919, 32.5530516 ] ] } },
{ "type": "Feature", "properties": { "osm_id": 627745745, "osm_type": "way", "name": null, "tags": { "bridge": "yes", "highway": "unclassified", "layer": "1", "oneway": "no" } }, "geometry": { "type": "LineString", "coordinates": [ [ 76.1203936, 32.5556151 ], [ 76.120593, 32.5553577 ], [ 76.1208149, 32.555023 ], [ 76.1209039, 32.5548814 ] ] } },
{ "type": "Feature", "properties": { "osm_id": 271244948, "osm_type": "way", "name": "Chamba Pathankot Road", "tags": { "bridge": "yes", "highway": "trunk", "lanes": "2", "layer": "1", "maxspeed": "30", "name": "Chamba Pathankot Road", "oneway": "no", "ref": "NH154A" } }, "geometry": { "type": "LineString", "coordinates": [ [ 76.1196055, 32.5565253 ], [ 76.1200613, 32.5562263 ], [ 76.120345, 32.5559407 ], [ 76.1208834, 32.5551372 ], [ 76.1210875, 32.5548573 ] ] } },
{ "type": "Feature", "properties": { "osm_id": 627745744, "osm_type": "way", "name": "Chamba Via Chowari Jot", "tags": { "bridge": "yes", "highway": "tertiary", "lanes": "2", "layer": "1", "maxspeed": "30", "name": "Chamba Via Chowari Jot", "oneway": "no" } }, "geometry": { "type": "LineString", "coordinates": [ [ 76.1150557, 32.5569327 ], [ 76.1149362, 32.5571091 ], [ 76.1149158, 32.5572103 ] ] } },
{ "type": "Feature", "properties": { "osm_id": 513731485, "osm_type": "way", "name": null, "tags": { "bridge": "yes", "highway": "track", "layer": "1" } }, "geometry": { "type": "LineString", "coordinates": [ [ 76.1209473, 32.5629098 ], [ 76.1209716, 32.5633635 ] ] } },
{ "type": "Feature", "properties": { "osm_id": 1117650599, "osm_type": "way", "name": null, "tags": { "bridge": "yes", "highway": "unclassified", "layer": "1" } }, "geometry": { "type": "LineString", "coordinates": [ [ 76.1673881, 32.5734412 ], [ 76.1676215, 32.5733757 ] ] } },
{ "type": "Feature", "properties": { "osm_id": 271227094, "osm_type": "way", "name": null, "tags": { "bridge": "yes", "highway": "tertiary", "layer": "1", "surface": "asphalt" } }, "geometry": { "type": "LineString", "coordinates": [ [ 76.1578903, 32.5867239 ], [ 76.1579247, 32.5868899 ] ] } },
{ "type": "Feature", "properties": { "osm_id": 958837439, "osm_type": "way", "name": null, "tags": { "bridge": "yes", "highway": "unclassified", "surface": "asphalt" } }, "geometry": { "type": "LineString", "coordinates": [ [ 76.2272322, 32.5897343 ], [ 76.2274682, 32.5890473 ] ] } },
{ "type": "Feature", "properties": { "osm_id": 271227093, "osm_type": "way", "name": null, "tags": { "bridge": "yes", "highway": "tertiary", "layer": "1", "surface": "asphalt" } }, "geometry": { "type": "LineString", "coordinates": [ [ 76.1722307, 32.5895037 ], [ 76.1729398, 32.589899 ] ] } },
{ "type": "Feature", "properties": { "osm_id": 271227486, "osm_type": "way", "name": null, "tags": { "bridge": "yes", "highway": "tertiary", "layer": "1", "surface": "asphalt" } }, "geometry": { "type": "LineString", "coordinates": [ [ 76.1584388, 32.5907986 ], [ 76.1585622, 32.5906065 ] ] } },
{ "type": "Feature", "properties": { "osm_id": 958837437, "osm_type": "way", "name": null, "tags": { "bridge": "yes", "highway": "unclassified", "source": "maxar" } }, "geometry": { "type": "LineString", "coordinates": [ [ 76.2100517, 32.5967589 ], [ 76.2094814, 32.5970782 ] ] } },
{ "type": "Feature", "properties": { "osm_id": 958837435, "osm_type": "way", "name": null, "tags": { "bridge": "yes", "highway": "tertiary", "surface": "asphalt" } }, "geometry": { "type": "LineString", "coordinates": [ [ 76.2118122, 32.5981339 ], [ 76.2117371, 32.5978244 ] ] } },
{ "type": "Feature", "properties": { "osm_id": 958837448, "osm_type": "way", "name": null, "tags": { "bridge": "yes", "highway": "unclassified", "source": "maxar" } }, "geometry": { "type": "LineString", "coordinates": [ [ 76.2416089, 32.5976296 ], [ 76.2418556, 32.5973404 ], [ 76.2420165, 32.5972233 ], [ 76.2432504, 32.5976345 ], [ 76.2435293, 32.597743 ], [ 76.2451172, 32.5971547 ], [ 76.2455142, 32.5970918 ], [ 76.2462598, 32.5970285 ], [ 76.246705, 32.5968916 ], [ 76.2476975, 32.5967844 ], [ 76.2479067, 32.5967934 ], [ 76.2481106, 32.5968251 ], [ 76.2482071, 32.5968554 ], [ 76.2482393, 32.5968883 ], [ 76.2482393, 32.5969426 ], [ 76.2482071, 32.596992 ], [ 76.2478048, 32.5972228 ], [ 76.2476331, 32.5973675 ], [ 76.2475902, 32.5974217 ], [ 76.2475848, 32.597462 ], [ 76.2476224, 32.5975117 ], [ 76.2477404, 32.5975614 ], [ 76.2478906, 32.5976598 ], [ 76.2479979, 32.5977879 ], [ 76.2480515, 32.5978783 ], [ 76.2480891, 32.5980033 ], [ 76.2481749, 32.5986783 ], [ 76.2482447, 32.5989269 ], [ 76.2482929, 32.599002 ], [ 76.2485665, 32.5991394 ], [ 76.2486041, 32.5991963 ], [ 76.2486416, 32.5993229 ], [ 76.2486899, 32.5993635 ], [ 76.2487596, 32.599388 ], [ 76.2491512, 32.5993789 ], [ 76.2494141, 32.5995371 ], [ 76.2496501, 32.599614 ], [ 76.2497896, 32.5996999 ], [ 76.2500256, 32.6000796 ], [ 76.2500847, 32.6001428 ], [ 76.250149, 32.600178 ], [ 76.2503904, 32.6002602 ], [ 76.2507284, 32.6002512 ], [ 76.2508679, 32.6003236 ], [ 76.2509161, 32.6003849 ], [ 76.2510073, 32.6006345 ], [ 76.2510073, 32.6006627 ], [ 76.2510248, 32.6010853 ], [ 76.25112, 32.6011463 ], [ 76.2512595, 32.601187 ], [ 76.2515974, 32.6012299 ], [ 76.2518495, 32.601291 ], [ 76.2519139, 32.6013497 ], [ 76.2519193, 32.6015124 ], [ 76.2519407, 32.6015802 ], [ 76.2521017, 32.6016345 ], [ 76.2522733, 32.6016616 ], [ 76.2523377, 32.6016909 ], [ 76.2523645, 32.601718 ], [ 76.2524128, 32.6018243 ], [ 76.252622, 32.6021543 ], [ 76.2526328, 32.6022266 ], [ 76.252563, 32.6023848 ], [ 76.2525577, 32.6025204 ], [ 76.252622, 32.6026786 ], [ 76.2527132, 32.6028459 ], [ 76.252783, 32.6029363 ], [ 76.2529117, 32.602977 ], [ 76.2533462, 32.6029724 ], [ 76.2534911, 32.6029905 ] ] } },
{ "type": "Feature", "properties": { "osm_id": 958837444, "osm_type": "way", "name": null, "tags": { "bridge": "yes", "highway": "unclassified", "source": "maxar" } }, "geometry": { "type": "LineString", "coordinates": [ [ 76.2669289, 32.6085204 ], [ 76.2664247, 32.6086431 ], [ 76.2659472, 32.6083629 ], [ 76.2648958, 32.6076851 ] ] } },
{ "type": "Feature", "properties": { "osm_id": 958837433, "osm_type": "way", "name": null, "tags": { "bridge": "yes", "highway": "unclassified", "layer": "1", "source": "maxar" } }, "geometry": { "type": "LineString", "coordinates": [ [ 76.2671435, 32.608674 ], [ 76.2669289, 32.6085204 ] ] } },
{ "type": "Feature", "properties": { "osm_id": 271607937, "osm_type": "way", "name": null, "tags": { "bridge": "yes", "highway": "secondary", "layer": "1" } }, "geometry": { "type": "LineString", "coordinates": [ [ 76.120178, 32.5656285 ], [ 76.1191981, 32.5656983 ] ] } },
{ "type": "Feature", "properties": { "osm_id": 1348085704, "osm_type": "way", "name": "Chamba Shahpur Road", "tags": { "bridge": "yes", "highway": "trunk", "lanes": "2", "layer": "1", "maxspeed": "30", "name": "Chamba Shahpur Road", "ref": "NH154A", "ref:old": "SH43" } }, "geometry": { "type": "LineString", "coordinates": [ [ 76.1189005, 32.5666465 ], [ 76.1188992, 32.5668883 ] ] } },
{ "type": "Feature", "properties": { "osm_id": 1348085706, "osm_type": "way", "name": null, "tags": { "bridge": "yes", "highway": "unclassified", "layer": "1" } }, "geometry": { "type": "LineString", "coordinates": [ [ 76.1021742, 32.5687013 ], [ 76.1020991, 32.5688436 ] ] } },
{ "type": "Feature", "properties": { "osm_id": 1060166915, "osm_type": "way", "name": null, "tags": { "bridge": "yes", "highway": "secondary", "layer": "1" } }, "geometry": { "type": "LineString", "coordinates": [ [ 76.1204787, 32.5687374 ], [ 76.1191766, 32.5689107 ] ] } },
{ "type": "Feature", "properties": { "osm_id": 271226504, "osm_type": "way", "name": "Chamba Pathankot Road", "tags": { "bridge": "yes", "highway": "secondary", "lanes": "2", "layer": "0", "maxspeed": "30", "name": "Chamba Pathankot Road" } }, "geometry": { "type": "LineString", "coordinates": [ [ 76.1333776, 32.5690806 ], [ 76.1335604, 32.5688763 ] ] } },
{ "type": "Feature", "properties": { "osm_id": 27270691, "osm_type": "way", "name": null, "tags": { "bridge": "yes", "highway": "primary", "ref": "SH33" } }, "geometry": { "type": "LineString", "coordinates": [ [ 76.1100721, 32.5795105 ], [ 76.1106215, 32.580372 ] ] } },
{ "type": "Feature", "properties": { "osm_id": 1060159003, "osm_type": "way", "name": null, "tags": { "bridge": "yes", "highway": "unclassified", "layer": "1" } }, "geometry": { "type": "LineString", "coordinates": [ [ 76.0849544, 32.621566 ], [ 76.0845628, 32.6220427 ] ] } },
{ "type": "Feature", "properties": { "osm_id": 1347875105, "osm_type": "way", "name": null, "tags": { "bridge": "yes", "highway": "unclassified", "layer": "1" } }, "geometry": { "type": "LineString", "coordinates": [ [ 76.1032552, 32.6861797 ], [ 76.1034965, 32.686103 ] ] } },
{ "type": "Feature", "properties": { "osm_id": 1117935215, "osm_type": "way", "name": null, "tags": { "bridge": "yes", "highway": "primary", "layer": "1", "surface": "asphalt" } }, "geometry": { "type": "LineString", "coordinates": [ [ 76.0625079, 32.6867375 ], [ 76.0625937, 32.6867898 ] ] } },
{ "type": "Feature", "properties": { "osm_id": 1347875098, "osm_type": "way", "name": null, "tags": { "bridge": "yes", "highway": "unclassified", "layer": "1" } }, "geometry": { "type": "LineString", "coordinates": [ [ 76.0769655, 32.6938965 ], [ 76.0770553, 32.6940308 ] ] } },
{ "type": "Feature", "properties": { "osm_id": 899966529, "osm_type": "way", "name": null, "tags": { "bridge": "yes", "highway": "footway", "layer": "1" } }, "geometry": { "type": "LineString", "coordinates": [ [ 76.0191908, 32.6514785 ], [ 76.0202113, 32.6509971 ] ] } },
{ "type": "Feature", "properties": { "osm_id": 1348084313, "osm_type": "way", "name": null, "tags": { "bridge": "yes", "highway": "secondary", "layer": "1" } }, "geometry": { "type": "LineString", "coordinates": [ [ 76.0179316, 32.6563154 ], [ 76.0181855, 32.6560275 ] ] } },
{ "type": "Feature", "properties": { "osm_id": 1348084601, "osm_type": "way", "name": null, "tags": { "bridge": "yes", "highway": "unclassified", "layer": "1" } }, "geometry": { "type": "LineString", "coordinates": [ [ 76.0347032, 32.66311 ], [ 76.0348427, 32.663092 ] ] } },
{ "type": "Feature", "properties": { "osm_id": 126611208, "osm_type": "way", "name": null, "tags": { "bridge": "yes", "highway": "primary", "ref": "SH33" } }, "geometry": { "type": "LineString", "coordinates": [ [ 76.0331091, 32.6646483 ], [ 76.0322249, 32.6652687 ] ] } },
{ "type": "Feature", "properties": { "osm_id": 1060158996, "osm_type": "way", "name": null, "tags": { "bridge": "yes", "highway": "primary", "layer": "1", "ref": "SH35" } }, "geometry": { "type": "LineString", "coordinates": [ [ 76.0408831, 32.673002 ], [ 76.0410815, 32.6733722 ] ] } },
{ "type": "Feature", "properties": { "osm_id": 1056117091, "osm_type": "way", "name": null, "tags": { "bridge": "yes", "highway": "primary", "layer": "1", "ref": "SH35" } }, "geometry": { "type": "LineString", "coordinates": [ [ 76.0458434, 32.6818857 ], [ 76.0463216, 32.6821986 ] ] } },
{ "type": "Feature", "properties": { "osm_id": 1348074279, "osm_type": "way", "name": null, "tags": { "bridge": "yes", "highway": "tertiary", "layer": "1" } }, "geometry": { "type": "LineString", "coordinates": [ [ 76.0083815, 32.7527515 ], [ 76.0083761, 32.7523748 ] ] } },
{ "type": "Feature", "properties": { "osm_id": 513736774, "osm_type": "way", "name": null, "tags": { "bridge": "yes", "highway": "primary", "layer": "1", "ref": "SH35" } }, "geometry": { "type": "LineString", "coordinates": [ [ 76.0027485, 32.7537067 ], [ 76.0024067, 32.7537462 ] ] } },
{ "type": "Feature", "properties": { "osm_id": 1348082505, "osm_type": "way", "name": null, "tags": { "bridge": "yes", "highway": "unclassified", "layer": "1" } }, "geometry": { "type": "LineString", "coordinates": [ [ 76.0448943, 32.7647712 ], [ 76.0450029, 32.7648422 ] ] } },
{ "type": "Feature", "properties": { "osm_id": 1348073013, "osm_type": "way", "name": null, "tags": { "bridge": "yes", "highway": "unclassified", "layer": "1" } }, "geometry": { "type": "LineString", "coordinates": [ [ 76.0139537, 32.7698515 ], [ 76.0140167, 32.7698278 ] ] } },
{ "type": "Feature", "properties": { "osm_id": 1117935213, "osm_type": "way", "name": null, "tags": { "bridge": "yes", "highway": "primary", "layer": "1", "surface": "asphalt" } }, "geometry": { "type": "LineString", "coordinates": [ [ 76.0905472, 32.7061255 ], [ 76.0905316, 32.7062095 ] ] } },
{ "type": "Feature", "properties": { "osm_id": 1332743203, "osm_type": "way", "name": null, "tags": { "bridge": "yes", "highway": "unclassified", "layer": "1" } }, "geometry": { "type": "LineString", "coordinates": [ [ 76.1355543, 32.7249002 ], [ 76.135793, 32.7249002 ] ] } },
{ "type": "Feature", "properties": { "osm_id": 272343277, "osm_type": "way", "name": null, "tags": { "bridge": "yes", "highway": "tertiary", "surface": "asphalt" } }, "geometry": { "type": "LineString", "coordinates": [ [ 76.1017423, 32.7329057 ], [ 76.1009967, 32.7332215 ] ] } },
{ "type": "Feature", "properties": { "osm_id": 1348074278, "osm_type": "way", "name": null, "tags": { "bridge": "yes", "highway": "tertiary", "layer": "1" } }, "geometry": { "type": "LineString", "coordinates": [ [ 76.0571775, 32.749973 ], [ 76.0575289, 32.7498105 ] ] } },
{ "type": "Feature", "properties": { "osm_id": 1348081841, "osm_type": "way", "name": null, "tags": { "bridge": "yes", "highway": "tertiary", "layer": "1" } }, "geometry": { "type": "LineString", "coordinates": [ [ 76.0785411, 32.7572863 ], [ 76.0787492, 32.7573848 ] ] } },
{ "type": "Feature", "properties": { "osm_id": 1348081839, "osm_type": "way", "name": null, "tags": { "bridge": "yes", "highway": "tertiary", "layer": "1" } }, "geometry": { "type": "LineString", "coordinates": [ [ 76.0927141, 32.7687537 ], [ 76.092883, 32.7687464 ] ] } },
{ "type": "Feature", "properties": { "osm_id": 1348081837, "osm_type": "way", "name": null, "tags": { "bridge": "yes", "highway": "tertiary", "layer": "1" } }, "geometry": { "type": "LineString", "coordinates": [ [ 76.0971934, 32.7798285 ], [ 76.0972121, 32.7799751 ] ] } },
{ "type": "Feature", "properties": { "osm_id": 1348081833, "osm_type": "way", "name": null, "tags": { "bridge": "yes", "highway": "tertiary", "layer": "1" } }, "geometry": { "type": "LineString", "coordinates": [ [ 76.1196998, 32.7887492 ], [ 76.1196408, 32.7885959 ] ] } },
{ "type": "Feature", "properties": { "osm_id": 1348081835, "osm_type": "way", "name": null, "tags": { "bridge": "yes", "highway": "tertiary", "layer": "1" } }, "geometry": { "type": "LineString", "coordinates": [ [ 76.1159353, 32.7914663 ], [ 76.1159286, 32.7915632 ] ] } },
{ "type": "Feature", "properties": { "osm_id": 513690646, "osm_type": "way", "name": null, "tags": { "bridge": "yes", "highway": "track", "layer": "1" } }, "geometry": { "type": "LineString", "coordinates": [ [ 76.1415248, 32.8118899 ], [ 76.1417027, 32.811703 ] ] } },
{ "type": "Feature", "properties": { "osm_id": 62097432, "osm_type": "way", "name": null, "tags": { "bridge": "yes", "highway": "unclassified", "layer": "1", "maxspeed": "20", "surface": "iron", "width": "5" } }, "geometry": { "type": "LineString", "coordinates": [ [ 76.2576151, 32.7460006 ], [ 76.2572947, 32.7460706 ] ] } },
{ "type": "Feature", "properties": { "osm_id": 62097652, "osm_type": "way", "name": "Bagheigarh Link Road", "tags": { "bridge": "yes", "highway": "unclassified", "layer": "1", "maxspeed": "30", "name": "Bagheigarh Link Road", "surface": "asphalt", "width": "5" } }, "geometry": { "type": "LineString", "coordinates": [ [ 76.2180339, 32.7629509 ], [ 76.2180025, 32.7630676 ] ] } },
{ "type": "Feature", "properties": { "osm_id": 544884254, "osm_type": "way", "name": null, "tags": { "bridge": "yes", "highway": "primary", "layer": "1", "surface": "asphalt" } }, "geometry": { "type": "LineString", "coordinates": [ [ 76.1741643, 32.7728898 ], [ 76.1742827, 32.7732705 ] ] } },
{ "type": "Feature", "properties": { "osm_id": 62097654, "osm_type": "way", "name": "Bagheigarh Link Road", "tags": { "bridge": "yes", "highway": "unclassified", "layer": "1", "maxspeed": "30", "name": "Bagheigarh Link Road", "surface": "asphalt", "width": "5" } }, "geometry": { "type": "LineString", "coordinates": [ [ 76.1911006, 32.7804445 ], [ 76.1912736, 32.7806089 ], [ 76.191251, 32.7807291 ] ] } },
{ "type": "Feature", "properties": { "osm_id": 1117935211, "osm_type": "way", "name": "Chamba Kilar Road", "tags": { "bridge": "yes", "highway": "primary", "lanes": "2", "layer": "1", "maxspeed": "40", "name": "Chamba Kilar Road", "ref": "SH33" } }, "geometry": { "type": "LineString", "coordinates": [ [ 76.1620436, 32.7810108 ], [ 76.1618442, 32.7811206 ] ] } },
{ "type": "Feature", "properties": { "osm_id": 544884255, "osm_type": "way", "name": null, "tags": { "bridge": "yes", "highway": "primary", "lanes": "2", "layer": "1", "maxspeed": "40", "ref": "SH33", "surface": "asphalt" } }, "geometry": { "type": "LineString", "coordinates": [ [ 76.1583933, 32.829057 ], [ 76.1582619, 32.829368 ] ] } },
{ "type": "Feature", "properties": { "osm_id": 1346389521, "osm_type": "way", "name": null, "tags": { "bridge": "yes", "highway": "unclassified", "layer": "1", "maxspeed": "20", "surface": "asphalt", "width": "5" } }, "geometry": { "type": "LineString", "coordinates": [ [ 76.188654, 32.8499476 ], [ 76.1890456, 32.8499386 ] ] } },
{ "type": "Feature", "properties": { "osm_id": 1117935209, "osm_type": "way", "name": "Chamba Kilar Road", "tags": { "bridge": "yes", "highway": "primary", "lanes": "2", "layer": "1", "maxspeed": "40", "name": "Chamba Kilar Road", "ref": "SH33", "surface": "asphalt" } }, "geometry": { "type": "LineString", "coordinates": [ [ 76.1589231, 32.8770123 ], [ 76.1593058, 32.8772065 ] ] } },
{ "type": "Feature", "properties": { "osm_id": 62098529, "osm_type": "way", "name": "Chamba Kilar Road", "tags": { "bridge": "yes", "highway": "primary", "lanes": "2", "layer": "0", "level": "1", "maxspeed": "40", "name": "Chamba Kilar Road", "ref": "SH33" } }, "geometry": { "type": "LineString", "coordinates": [ [ 76.1751513, 32.8888087 ], [ 76.1751054, 32.8891065 ] ] } },
{ "type": "Feature", "properties": { "osm_id": 548692733, "osm_type": "way", "name": null, "tags": { "bridge": "yes", "highway": "unclassified", "layer": "1" } }, "geometry": { "type": "LineString", "coordinates": [ [ 76.1478656, 32.9134681 ], [ 76.1473399, 32.9135672 ] ] } },
{ "type": "Feature", "properties": { "osm_id": 1057773061, "osm_type": "way", "name": null, "tags": { "bridge": "yes", "highway": "track", "layer": "1" } }, "geometry": { "type": "LineString", "coordinates": [ [ 76.134012, 32.8149716 ], [ 76.1346826, 32.8150641 ] ] } },
{ "type": "Feature", "properties": { "osm_id": 548692704, "osm_type": "way", "name": null, "tags": { "bridge": "yes", "highway": "unclassified", "layer": "1" } }, "geometry": { "type": "LineString", "coordinates": [ [ 76.1420506, 32.8689905 ], [ 76.1417851, 32.8691865 ] ] } },
{ "type": "Feature", "properties": { "osm_id": 62098659, "osm_type": "way", "name": "Trela Path", "tags": { "bridge": "yes", "highway": "path", "layer": "1", "name": "Trela Path", "surface": "wood", "width": "1" } }, "geometry": { "type": "LineString", "coordinates": [ [ 76.1530432, 32.9196387 ], [ 76.1526711, 32.9197187 ] ] } },
{ "type": "Feature", "properties": { "osm_id": 62098661, "osm_type": "way", "name": "Trela Alwas Path", "tags": { "bicycle": "no", "bridge": "yes", "foot": "yes", "highway": "path", "horse": "yes", "layer": "0", "name": "Trela Alwas Path", "ski": "no", "snowmobile": "no", "surface": "wood", "width": "1" } }, "geometry": { "type": "LineString", "coordinates": [ [ 76.1656669, 32.9556133 ], [ 76.165887, 32.9556242 ] ] } },
{ "type": "Feature", "properties": { "osm_id": 1516252663, "osm_type": "way", "name": null, "tags": { "bridge": "yes", "highway": "unclassified", "layer": "1", "oneway": "no" } }, "geometry": { "type": "LineString", "coordinates": [ [ 76.3854857, 32.4281928 ], [ 76.3854561, 32.4278776 ] ] } },
{ "type": "Feature", "properties": { "osm_id": 733841874, "osm_type": "way", "name": "Bharmour Ghararu Road", "tags": { "bridge": "yes", "highway": "unclassified", "layer": "1", "maxspeed": "20", "name": "Bharmour Ghararu Road", "oneway": "no", "surface": "ground", "width": "5" } }, "geometry": { "type": "LineString", "coordinates": [ [ 76.5328757, 32.4405132 ], [ 76.5326584, 32.4405361 ] ] } },
{ "type": "Feature", "properties": { "osm_id": 755368144, "osm_type": "way", "name": null, "tags": { "bridge": "yes", "highway": "unclassified", "layer": "1", "oneway": "no" } }, "geometry": { "type": "LineString", "coordinates": [ [ 76.391693, 32.4405052 ], [ 76.3912793, 32.4407892 ] ] } },
{ "type": "Feature", "properties": { "osm_id": 733841876, "osm_type": "way", "name": "Chamba Bharmour Road", "tags": { "bridge": "yes", "highway": "trunk", "lanes": "1", "layer": "1", "maxspeed": "30", "name": "Chamba Bharmour Road", "oneway": "no", "ref": "NH154A", "ref:old": "MDR52" } }, "geometry": { "type": "LineString", "coordinates": [ [ 76.5330454, 32.4408213 ], [ 76.532867, 32.4408689 ] ] } },
{ "type": "Feature", "properties": { "osm_id": 627745752, "osm_type": "way", "name": null, "tags": { "bridge": "yes", "highway": "unclassified", "layer": "1", "oneway": "no" } }, "geometry": { "type": "LineString", "coordinates": [ [ 76.3871413, 32.4520917 ], [ 76.3871178, 32.451624 ] ] } },
{ "type": "Feature", "properties": { "osm_id": 57766627, "osm_type": "way", "name": "Bharmour Bada Gran Link Road", "tags": { "bridge": "yes", "highway": "unclassified", "maxspeed": "20", "name": "Bharmour Bada Gran Link Road", "oneway": "no", "surface": "asphalt", "width": "4" } }, "geometry": { "type": "LineString", "coordinates": [ [ 76.5296034, 32.4551737 ], [ 76.5295827, 32.4547957 ] ] } },
{ "type": "Feature", "properties": { "osm_id": 1347875403, "osm_type": "way", "name": null, "tags": { "bridge": "yes", "highway": "unclassified", "layer": "1" } }, "geometry": { "type": "LineString", "coordinates": [ [ 76.5324596, 32.4574336 ], [ 76.5326889, 32.4574381 ] ] } },
{ "type": "Feature", "properties": { "osm_id": 1075624182, "osm_type": "way", "name": null, "tags": { "bridge": "yes", "highway": "unclassified", "layer": "1" } }, "geometry": { "type": "LineString", "coordinates": [ [ 76.4605403, 32.4596096 ], [ 76.4610891, 32.4597373 ] ] } },
{ "type": "Feature", "properties": { "osm_id": 57765920, "osm_type": "way", "name": "Dhakog Tundah Road", "tags": { "bridge": "yes", "highway": "unclassified", "maxspeed": "20", "name": "Dhakog Tundah Road", "surface": "unpaved", "width": "3" } }, "geometry": { "type": "LineString", "coordinates": [ [ 76.4214563, 32.4642135 ], [ 76.4208847, 32.4646095 ] ] } },
{ "type": "Feature", "properties": { "osm_id": 57765809, "osm_type": "way", "name": "Chamba Bharmour Road", "tags": { "bridge": "yes", "highway": "trunk", "layer": "1", "maxspeed": "30", "name": "Chamba Bharmour Road", "ref": "NH154A", "ref:old": "MDR52" } }, "geometry": { "type": "LineString", "coordinates": [ [ 76.4504927, 32.4666114 ], [ 76.4496902, 32.4662747 ] ] } },
{ "type": "Feature", "properties": { "osm_id": 732589868, "osm_type": "way", "name": "Bharmour - Kugti Road", "tags": { "bridge": "yes", "highway": "unclassified", "layer": "1", "name": "Bharmour - Kugti Road", "oneway": "no", "surface": "concrete" } }, "geometry": { "type": "LineString", "coordinates": [ [ 76.641658, 32.4575709 ], [ 76.6418526, 32.4576225 ] ] } },
{ "type": "Feature", "properties": { "osm_id": 732614577, "osm_type": "way", "name": "Bharmour - Kugti Road", "tags": { "bridge": "yes", "highway": "unclassified", "layer": "1", "name": "Bharmour - Kugti Road", "surface": "concrete" } }, "geometry": { "type": "LineString", "coordinates": [ [ 76.6554622, 32.4671773 ], [ 76.6555981, 32.4673149 ], [ 76.6557944, 32.4673811 ] ] } },
{ "type": "Feature", "properties": { "osm_id": 732614610, "osm_type": "way", "name": null, "tags": { "bridge": "yes", "highway": "path", "layer": "1" } }, "geometry": { "type": "LineString", "coordinates": [ [ 76.6970002, 32.4687012 ], [ 76.6968453, 32.4685051 ] ] } },
{ "type": "Feature", "properties": { "osm_id": 727977200, "osm_type": "way", "name": null, "tags": { "bridge": "yes", "highway": "path", "layer": "1" } }, "geometry": { "type": "LineString", "coordinates": [ [ 76.7176203, 32.4689306 ], [ 76.717724, 32.4687661 ] ] } },
{ "type": "Feature", "properties": { "osm_id": 1392061375, "osm_type": "way", "name": "Kugti ManiMahesh Parikrma Path", "tags": { "bridge": "yes", "highway": "path", "layer": "1", "name": "Kugti ManiMahesh Parikrma Path" } }, "geometry": { "type": "LineString", "coordinates": [ [ 76.70661, 32.4686436 ], [ 76.7066347, 32.4691895 ] ] } },
{ "type": "Feature", "properties": { "osm_id": 683058942, "osm_type": "way", "name": "Trail to Kugti pass", "tags": { "bridge": "yes", "highway": "path", "layer": "1", "name": "Trail to Kugti pass", "surface": "dirt" } }, "geometry": { "type": "LineString", "coordinates": [ [ 76.705938, 32.4704435 ], [ 76.7060904, 32.4703952 ] ] } },
{ "type": "Feature", "properties": { "osm_id": 732614605, "osm_type": "way", "name": null, "tags": { "bridge": "yes", "highway": "path", "layer": "1", "surface": "wood" } }, "geometry": { "type": "LineString", "coordinates": [ [ 76.6900301, 32.4726903 ], [ 76.6900725, 32.4727044 ], [ 76.6901462, 32.4726394 ] ] } },
{ "type": "Feature", "properties": { "osm_id": 732589900, "osm_type": "way", "name": "Bharmour - Kugti Road", "tags": { "bridge": "yes", "highway": "unclassified", "layer": "1", "maxspeed": "30", "name": "Bharmour - Kugti Road", "oneway": "no", "surface": "concrete" } }, "geometry": { "type": "LineString", "coordinates": [ [ 76.6903293, 32.4731303 ], [ 76.6905417, 32.4730151 ] ] } },
{ "type": "Feature", "properties": { "osm_id": 741172177, "osm_type": "way", "name": null, "tags": { "bridge": "yes", "highway": "unclassified", "layer": "1", "oneway": "no" } }, "geometry": { "type": "LineString", "coordinates": [ [ 76.581162, 32.4738715 ], [ 76.5812366, 32.4739157 ], [ 76.58133, 32.4739273 ] ] } },
{ "type": "Feature", "properties": { "osm_id": 741172178, "osm_type": "way", "name": null, "tags": { "bridge": "yes", "highway": "unclassified", "layer": "1", "oneway": "no" } }, "geometry": { "type": "LineString", "coordinates": [ [ 76.5832008, 32.4792744 ], [ 76.5834269, 32.4793937 ] ] } },
{ "type": "Feature", "properties": { "osm_id": 57765835, "osm_type": "way", "name": "Chamba Bharmour Road", "tags": { "bridge": "yes", "highway": "trunk", "layer": "1", "maxspeed": "30", "name": "Chamba Bharmour Road", "oneway": "no", "ref": "NH154A", "ref:old": "MDR52" } }, "geometry": { "type": "LineString", "coordinates": [ [ 76.3364606, 32.4455288 ], [ 76.3362597, 32.4454984 ], [ 76.3360717, 32.4455292 ], [ 76.3358879, 32.445621 ] ] } },
{ "type": "Feature", "properties": { "osm_id": 342457144, "osm_type": "way", "name": null, "tags": { "bridge": "yes", "highway": "footway", "layer": "1" } }, "geometry": { "type": "LineString", "coordinates": [ [ 76.337185, 32.4463528 ], [ 76.3373585, 32.4471459 ] ] } },
{ "type": "Feature", "properties": { "osm_id": 899712070, "osm_type": "way", "name": null, "tags": { "bridge": "yes", "highway": "unclassified", "layer": "1" } }, "geometry": { "type": "LineString", "coordinates": [ [ 76.3579845, 32.4503105 ], [ 76.3577753, 32.4512113 ] ] } },
{ "type": "Feature", "properties": { "osm_id": 57765837, "osm_type": "way", "name": "Chamba Bharmour Road", "tags": { "bridge": "yes", "highway": "trunk", "layer": "1", "maxspeed": "30", "name": "Chamba Bharmour Road", "ref": "NH154A", "ref:old": "MDR52" } }, "geometry": { "type": "LineString", "coordinates": [ [ 76.3242498, 32.4747937 ], [ 76.324001, 32.4748711 ] ] } },
{ "type": "Feature", "properties": { "osm_id": 316835820, "osm_type": "way", "name": null, "tags": { "bridge": "yes", "highway": "tertiary", "oneway": "no" } }, "geometry": { "type": "LineString", "coordinates": [ [ 76.3261522, 32.4746116 ], [ 76.3264219, 32.4750784 ] ] } },
{ "type": "Feature", "properties": { "osm_id": 316835849, "osm_type": "way", "name": null, "tags": { "bridge": "yes", "highway": "unclassified" } }, "geometry": { "type": "LineString", "coordinates": [ [ 76.3229555, 32.4794169 ], [ 76.3229342, 32.4795138 ] ] } },
{ "type": "Feature", "properties": { "osm_id": 62073677, "osm_type": "way", "name": "Raili Dhar Datuin Path", "tags": { "bicycle": "no", "bridge": "yes", "foot": "yes", "highway": "path", "horse": "yes", "layer": "0", "name": "Raili Dhar Datuin Path", "ski": "no", "snowmobile": "no", "surface": "wood", "width": "1" } }, "geometry": { "type": "LineString", "coordinates": [ [ 76.349485, 32.7012159 ], [ 76.3493063, 32.7013952 ] ] } },
{ "type": "Feature", "properties": { "osm_id": 1389841800, "osm_type": "way", "name": "Chamba Kilar Road", "tags": { "bridge": "yes", "highway": "primary", "lanes": "1", "layer": "1", "maxspeed": "20", "name": "Chamba Kilar Road", "oneway": "no", "ref": "SH33", "surface": "ground" } }, "geometry": { "type": "LineString", "coordinates": [ [ 76.326616, 33.0495358 ], [ 76.3266189, 33.0496226 ] ] } },
{ "type": "Feature", "properties": { "osm_id": 57766353, "osm_type": "way", "name": "Bharmour Bada Gran Link Road", "tags": { "bridge": "yes", "highway": "unclassified", "layer": "0", "maxspeed": "20", "name": "Bharmour Bada Gran Link Road", "surface": "wood", "width": "3" } }, "geometry": { "type": "LineString", "coordinates": [ [ 76.4948606, 32.5046137 ], [ 76.4951399, 32.5044112 ] ] } },
{ "type": "Feature", "properties": { "osm_id": 57765978, "osm_type": "way", "name": "Tundah Banni Trail", "tags": { "bicycle": "no", "bridge": "yes", "foot": "yes", "highway": "path", "horse": "no", "layer": "0", "name": "Tundah Banni Trail", "ski": "no", "snowmobile": "no", "surface": "wood", "width": "1" } }, "geometry": { "type": "LineString", "coordinates": [ [ 76.4599116, 32.5161833 ], [ 76.4596548, 32.5162505 ] ] } },
{ "type": "Feature", "properties": { "osm_id": 57766278, "osm_type": "way", "name": null, "tags": { "bicycle": "no", "bridge": "yes", "foot": "yes", "highway": "unclassified", "horse": "no", "ski": "no", "snowmobile": "no", "surface": "iron", "width": "1" } }, "geometry": { "type": "LineString", "coordinates": [ [ 76.4839081, 32.5497185 ], [ 76.4840002, 32.5497215 ] ] } },
{ "type": "Feature", "properties": { "osm_id": 62073676, "osm_type": "way", "name": "Raili Dhar Datuin Path", "tags": { "bicycle": "no", "bridge": "yes", "foot": "yes", "highway": "path", "horse": "yes", "name": "Raili Dhar Datuin Path", "ski": "no", "snowmobile": "no", "surface": "wood", "width": "1" } }, "geometry": { "type": "LineString", "coordinates": [ [ 76.3754332, 32.6677021 ], [ 76.3753291, 32.6680132 ] ] } },
{ "type": "Feature", "properties": { "osm_id": 65395919, "osm_type": "way", "name": "Kilar Tandi Road", "tags": { "bridge": "yes", "highway": "primary", "layer": "1", "maxspeed": "20", "name": "Kilar Tandi Road", "ref": "SH 26" } }, "geometry": { "type": "LineString", "coordinates": [ [ 76.4432738, 32.8559551 ], [ 76.4432853, 32.855842 ] ] } },
{ "type": "Feature", "properties": { "osm_id": 819908939, "osm_type": "way", "name": null, "tags": { "bridge": "yes" } }, "geometry": { "type": "LineString", "coordinates": [ [ 76.5609956, 32.9863884 ], [ 76.5614676, 32.9861004 ] ] } },
{ "type": "Feature", "properties": { "osm_id": 819908941, "osm_type": "way", "name": null, "tags": { "bridge": "yes" } }, "geometry": { "type": "LineString", "coordinates": [ [ 76.6159889, 33.0291699 ], [ 76.6155785, 33.0293184 ] ] } },
{ "type": "Feature", "properties": { "osm_id": 514074547, "osm_type": "way", "name": null, "tags": { "bridge": "yes", "highway": "primary", "layer": "1", "maxspeed": "20", "ref": "SH 26" } }, "geometry": { "type": "LineString", "coordinates": [ [ 76.4724178, 32.8813136 ], [ 76.4727103, 32.8809825 ] ] } },
{ "type": "Feature", "properties": { "osm_id": 534180218, "osm_type": "way", "name": null, "tags": { "bridge": "yes", "highway": "path", "layer": "1" } }, "geometry": { "type": "LineString", "coordinates": [ [ 76.4634061, 32.8858446 ], [ 76.4642268, 32.8861869 ] ] } },
{ "type": "Feature", "properties": { "osm_id": 1117014412, "osm_type": "way", "name": "Kilar Tandi Road", "tags": { "bridge": "yes", "highway": "primary", "layer": "1", "maxspeed": "20", "name": "Kilar Tandi Road", "ref": "SH 26" } }, "geometry": { "type": "LineString", "coordinates": [ [ 76.4701228, 32.8921285 ], [ 76.4701357, 32.8920587 ] ] } },
{ "type": "Feature", "properties": { "osm_id": 513444445, "osm_type": "way", "name": null, "tags": { "bridge": "yes", "highway": "track", "layer": "1" } }, "geometry": { "type": "LineString", "coordinates": [ [ 76.4576246, 32.9241203 ], [ 76.4571606, 32.923742 ] ] } },
{ "type": "Feature", "properties": { "osm_id": 65392164, "osm_type": "way", "name": null, "tags": { "bridge": "yes", "highway": "primary", "layer": "1", "maxspeed": "20", "ref": "SH 26" } }, "geometry": { "type": "LineString", "coordinates": [ [ 76.4606177, 32.9242948 ], [ 76.4606757, 32.9240967 ] ] } },
{ "type": "Feature", "properties": { "osm_id": 1037164665, "osm_type": "way", "name": null, "tags": { "bridge": "yes", "highway": "unclassified", "layer": "1" } }, "geometry": { "type": "LineString", "coordinates": [ [ 76.4290255, 32.9871489 ], [ 76.4286876, 32.9875943 ] ] } },
{ "type": "Feature", "properties": { "osm_id": 65388657, "osm_type": "way", "name": null, "tags": { "bridge": "yes", "highway": "primary", "layer": "1", "maxspeed": "20", "ref": "SH 26" } }, "geometry": { "type": "LineString", "coordinates": [ [ 76.4361668, 32.994457 ], [ 76.4358875, 32.9942552 ] ] } },
{ "type": "Feature", "properties": { "osm_id": 65388655, "osm_type": "way", "name": null, "tags": { "bridge": "yes", "highway": "primary", "layer": "1", "maxspeed": "20", "ref": "SH 26" } }, "geometry": { "type": "LineString", "coordinates": [ [ 76.4348775, 33.0022869 ], [ 76.4349314, 33.0021216 ] ] } },
{ "type": "Feature", "properties": { "osm_id": 532320507, "osm_type": "way", "name": null, "tags": { "bridge": "yes", "highway": "unclassified", "layer": "1" } }, "geometry": { "type": "LineString", "coordinates": [ [ 76.4287882, 33.0276487 ], [ 76.4297135, 33.0275149 ] ] } },
{ "type": "Feature", "properties": { "osm_id": 62152007, "osm_type": "way", "name": null, "tags": { "bridge": "yes", "highway": "primary", "layer": "1", "maxspeed": "20", "ref": "SH 26" } }, "geometry": { "type": "LineString", "coordinates": [ [ 76.4160347, 33.0772449 ], [ 76.4159698, 33.0770491 ] ] } },
{ "type": "Feature", "properties": { "osm_id": 62102226, "osm_type": "way", "name": "Chamba Kilar Road", "tags": { "bridge": "yes", "highway": "primary", "lanes": "2", "layer": "1", "maxspeed": "30", "name": "Chamba Kilar Road", "ref": "SH33" } }, "geometry": { "type": "LineString", "coordinates": [ [ 76.3648588, 33.0936042 ], [ 76.3651427, 33.093887 ] ] } },
{ "type": "Feature", "properties": { "osm_id": 302416182, "osm_type": "way", "name": null, "tags": { "bridge": "yes", "highway": "footway", "layer": "1" } }, "geometry": { "type": "LineString", "coordinates": [ [ 76.3651616, 33.0939958 ], [ 76.3647757, 33.0936332 ] ] } },
{ "type": "Feature", "properties": { "osm_id": 527824094, "osm_type": "way", "name": null, "tags": { "bridge": "yes", "highway": "unclassified", "layer": "1" } }, "geometry": { "type": "LineString", "coordinates": [ [ 75.9533611, 32.4261512 ], [ 75.9532358, 32.4260468 ] ] } },
{ "type": "Feature", "properties": { "osm_id": 527824105, "osm_type": "way", "name": null, "tags": { "bridge": "yes", "highway": "unclassified", "layer": "1" } }, "geometry": { "type": "LineString", "coordinates": [ [ 75.9534463, 32.4289985 ], [ 75.9533123, 32.4289719 ] ] } },
{ "type": "Feature", "properties": { "osm_id": 692968881, "osm_type": "way", "name": null, "tags": { "bridge": "yes", "highway": "path", "layer": "1", "surface": "concrete" } }, "geometry": { "type": "LineString", "coordinates": [ [ 75.9523219, 32.4325848 ], [ 75.9522122, 32.4326183 ] ] } },
{ "type": "Feature", "properties": { "osm_id": 526455208, "osm_type": "way", "name": null, "tags": { "bridge": "yes", "highway": "path", "layer": "1" } }, "geometry": { "type": "LineString", "coordinates": [ [ 75.9432515, 32.4592078 ], [ 75.9435604, 32.4593828 ] ] } },
{ "type": "Feature", "properties": { "osm_id": 689120480, "osm_type": "way", "name": "Kakira to Ghatasani", "tags": { "bridge": "yes", "highway": "tertiary", "layer": "1", "maxspeed": "20", "name": "Kakira to Ghatasani" } }, "geometry": { "type": "LineString", "coordinates": [ [ 75.931642, 32.4665139 ], [ 75.9316036, 32.4666492 ] ] } },
{ "type": "Feature", "properties": { "osm_id": 526453032, "osm_type": "way", "name": "Kakira to Ghatasani", "tags": { "bridge": "yes", "highway": "tertiary", "layer": "1", "name": "Kakira to Ghatasani", "oneway": "no" } }, "geometry": { "type": "LineString", "coordinates": [ [ 75.9297589, 32.4701276 ], [ 75.9298554, 32.4699466 ] ] } },
{ "type": "Feature", "properties": { "osm_id": 689114654, "osm_type": "way", "name": "Chilama Ghatasani Road", "tags": { "bridge": "yes", "highway": "unclassified", "layer": "1", "maxspeed": "20", "name": "Chilama Ghatasani Road", "oneway": "no", "surface": "asphalt" } }, "geometry": { "type": "LineString", "coordinates": [ [ 75.9215005, 32.4787639 ], [ 75.9215656, 32.4788188 ] ] } },
{ "type": "Feature", "properties": { "osm_id": 1080136991, "osm_type": "way", "name": null, "tags": { "bridge": "yes", "highway": "unclassified", "layer": "1" } }, "geometry": { "type": "LineString", "coordinates": [ [ 75.9286863, 32.4875358 ], [ 75.9287801, 32.4873729 ] ] } },
{ "type": "Feature", "properties": { "osm_id": 640914787, "osm_type": "way", "name": "SH 35 - Chamba Highway", "tags": { "bridge": "yes", "highway": "trunk", "lanes": "2", "layer": "1", "maxspeed": "50", "name": "SH 35 - Chamba Highway", "ref": "NH154A", "ref:old": "SH35" } }, "geometry": { "type": "LineString", "coordinates": [ [ 75.9300354, 32.4893932 ], [ 75.9299053, 32.4892722 ] ] } },
{ "type": "Feature", "properties": { "osm_id": 640914781, "osm_type": "way", "name": "SH 35 - Chamba Highway", "tags": { "bridge": "yes", "highway": "trunk", "lanes": "2", "layer": "1", "maxspeed": "50", "name": "SH 35 - Chamba Highway", "ref": "NH154A", "ref:old": "SH35" } }, "geometry": { "type": "LineString", "coordinates": [ [ 75.9359701, 32.4904469 ], [ 75.9359363, 32.4903774 ], [ 75.9358826, 32.4903106 ], [ 75.9358236, 32.4902631 ], [ 75.9357351, 32.4902213 ], [ 75.9356225, 32.4901952 ] ] } },
{ "type": "Feature", "properties": { "osm_id": 1460199179, "osm_type": "way", "name": null, "tags": { "bridge": "yes", "highway": "unclassified", "layer": "1", "oneway": "no", "surface": "unpaved" } }, "geometry": { "type": "LineString", "coordinates": [ [ 76.0131401, 32.4795525 ], [ 76.0132418, 32.4796169 ] ] } },
{ "type": "Feature", "properties": { "osm_id": 1460199180, "osm_type": "way", "name": null, "tags": { "bicycle": "no", "bridge": "yes", "highway": "path", "layer": "1" } }, "geometry": { "type": "LineString", "coordinates": [ [ 76.0143761, 32.4817648 ], [ 76.0145209, 32.4817431 ], [ 76.014661, 32.4817136 ] ] } },
{ "type": "Feature", "properties": { "osm_id": 693314122, "osm_type": "way", "name": "Ghatasani - Dalhousie Road", "tags": { "bridge": "yes", "highway": "unclassified", "layer": "1", "name": "Ghatasani - Dalhousie Road", "oneway": "no" } }, "geometry": { "type": "LineString", "coordinates": [ [ 75.9645929, 32.4902171 ], [ 75.9636932, 32.4901807 ] ] } },
{ "type": "Feature", "properties": { "osm_id": 1421744453, "osm_type": "way", "name": null, "tags": { "bridge": "yes", "highway": "path", "layer": "1", "surface": "concrete" } }, "geometry": { "type": "LineString", "coordinates": [ [ 76.0195131, 32.5147316 ], [ 76.0195733, 32.5146764 ] ] } },
{ "type": "Feature", "properties": { "osm_id": 526468760, "osm_type": "way", "name": null, "tags": { "bridge": "yes", "highway": "unclassified", "layer": "1" } }, "geometry": { "type": "LineString", "coordinates": [ [ 75.9581081, 32.5219335 ], [ 75.9582389, 32.5220044 ] ] } },
{ "type": "Feature", "properties": { "osm_id": 1529203467, "osm_type": "way", "name": null, "tags": { "bridge": "yes", "highway": "unclassified" } }, "geometry": { "type": "LineString", "coordinates": [ [ 75.9773214, 32.5400493 ], [ 75.9771806, 32.540047 ] ] } },
{ "type": "Feature", "properties": { "osm_id": 1529203475, "osm_type": "way", "name": null, "tags": { "bridge": "yes", "highway": "path" } }, "geometry": { "type": "LineString", "coordinates": [ [ 75.9768678, 32.5433875 ], [ 75.9766519, 32.543288 ] ] } },
{ "type": "Feature", "properties": { "osm_id": 1529203445, "osm_type": "way", "name": null, "tags": { "bridge": "yes", "highway": "tertiary" } }, "geometry": { "type": "LineString", "coordinates": [ [ 75.9768345, 32.5447629 ], [ 75.977041, 32.5447057 ] ] } },
{ "type": "Feature", "properties": { "osm_id": 1529203478, "osm_type": "way", "name": null, "tags": { "bridge": "yes", "highway": "tertiary" } }, "geometry": { "type": "LineString", "coordinates": [ [ 75.9744108, 32.5477968 ], [ 75.974505, 32.5477031 ] ] } },
{ "type": "Feature", "properties": { "osm_id": 1529203453, "osm_type": "way", "name": null, "tags": { "bridge": "yes", "highway": "tertiary" } }, "geometry": { "type": "LineString", "coordinates": [ [ 75.9741945, 32.5489555 ], [ 75.9741655, 32.5488457 ] ] } },
{ "type": "Feature", "properties": { "osm_id": 693314124, "osm_type": "way", "name": "Ghatasani - Dalhousie Road", "tags": { "bridge": "yes", "highway": "unclassified", "layer": "1", "name": "Ghatasani - Dalhousie Road", "oneway": "no" } }, "geometry": { "type": "LineString", "coordinates": [ [ 75.9561101, 32.4933068 ], [ 75.9559473, 32.4931844 ] ] } },
{ "type": "Feature", "properties": { "osm_id": 693314126, "osm_type": "way", "name": "Ghatasani - Dalhousie Road", "tags": { "bridge": "yes", "highway": "unclassified", "layer": "1", "name": "Ghatasani - Dalhousie Road", "oneway": "no" } }, "geometry": { "type": "LineString", "coordinates": [ [ 75.9564711, 32.4977374 ], [ 75.9563749, 32.4977909 ] ] } },
{ "type": "Feature", "properties": { "osm_id": 640914779, "osm_type": "way", "name": "SH 35 - Chamba Highway", "tags": { "bridge": "yes", "highway": "trunk", "lanes": "2", "layer": "1", "maxspeed": "50", "name": "SH 35 - Chamba Highway", "ref": "NH154A", "ref:old": "SH35" } }, "geometry": { "type": "LineString", "coordinates": [ [ 75.9452517, 32.5087205 ], [ 75.9454029, 32.508671 ], [ 75.9454659, 32.5085683 ] ] } },
{ "type": "Feature", "properties": { "osm_id": 526471158, "osm_type": "way", "name": null, "tags": { "bridge": "yes", "highway": "unclassified", "layer": "1", "maxspeed": "15" } }, "geometry": { "type": "LineString", "coordinates": [ [ 75.9137601, 32.5089093 ], [ 75.9139442, 32.5093152 ] ] } },
{ "type": "Feature", "properties": { "osm_id": 526472389, "osm_type": "way", "name": null, "tags": { "bridge": "yes", "highway": "unclassified", "layer": "1" } }, "geometry": { "type": "LineString", "coordinates": [ [ 75.9075993, 32.5115539 ], [ 75.9071433, 32.5114291 ] ] } },
{ "type": "Feature", "properties": { "osm_id": 526468756, "osm_type": "way", "name": null, "tags": { "bridge": "yes", "highway": "unclassified", "layer": "1" } }, "geometry": { "type": "LineString", "coordinates": [ [ 75.9517099, 32.5201434 ], [ 75.9518725, 32.520164 ] ] } },
{ "type": "Feature", "properties": { "osm_id": 526468758, "osm_type": "way", "name": null, "tags": { "bridge": "yes", "highway": "unclassified", "layer": "1" } }, "geometry": { "type": "LineString", "coordinates": [ [ 75.9530515, 32.5202223 ], [ 75.9531897, 32.5202703 ] ] } },
{ "type": "Feature", "properties": { "osm_id": 526468460, "osm_type": "way", "name": null, "tags": { "bridge": "yes", "highway": "unclassified", "layer": "1", "oneway": "no" } }, "geometry": { "type": "LineString", "coordinates": [ [ 75.9493885, 32.5204319 ], [ 75.9494893, 32.5205376 ] ] } },
{ "type": "Feature", "properties": { "osm_id": 1348086464, "osm_type": "way", "name": "Bhaderwah Basohli Road", "tags": { "bridge": "yes", "highway": "secondary", "layer": "1", "name": "Bhaderwah Basohli Road", "surface": "asphalt" } }, "geometry": { "type": "LineString", "coordinates": [ [ 75.9387864, 32.5409625 ], [ 75.9389671, 32.5408555 ] ] } },
{ "type": "Feature", "properties": { "osm_id": 1529269669, "osm_type": "way", "name": "SH 35 - Chamba Highway", "tags": { "bridge": "yes", "highway": "trunk", "lanes": "2", "maxspeed": "50", "name": "SH 35 - Chamba Highway", "oneway": "no", "ref": "NH154A", "ref:old": "SH35", "surface": "asphalt" } }, "geometry": { "type": "LineString", "coordinates": [ [ 75.9450506, 32.5469396 ], [ 75.9450316, 32.5468874 ], [ 75.9449984, 32.5467707 ] ] } },
{ "type": "Feature", "properties": { "osm_id": 1529203449, "osm_type": "way", "name": null, "tags": { "bridge": "yes", "highway": "tertiary" } }, "geometry": { "type": "LineString", "coordinates": [ [ 75.9732794, 32.5511388 ], [ 75.9733887, 32.551105 ] ] } },
{ "type": "Feature", "properties": { "osm_id": 1529203466, "osm_type": "way", "name": null, "tags": { "bridge": "yes", "highway": "tertiary" } }, "geometry": { "type": "LineString", "coordinates": [ [ 75.9743236, 32.5596616 ], [ 75.9742294, 32.559618 ] ] } },
{ "type": "Feature", "properties": { "osm_id": 1060164909, "osm_type": "way", "name": "SH 35 - Chamba Highway", "tags": { "bridge": "yes", "highway": "trunk", "lanes": "2", "layer": "1", "maxspeed": "50", "name": "SH 35 - Chamba Highway", "ref": "NH154A", "ref:old": "SH35" } }, "geometry": { "type": "LineString", "coordinates": [ [ 75.9920556, 32.5673613 ], [ 75.9915961, 32.5664883 ] ] } },
{ "type": "Feature", "properties": { "osm_id": 1529203458, "osm_type": "way", "name": "SH 35 - Chamba Highway", "tags": { "bridge": "yes", "highway": "trunk", "lanes": "2", "maxspeed": "50", "name": "SH 35 - Chamba Highway", "ref": "NH154A", "ref:old": "SH35" } }, "geometry": { "type": "LineString", "coordinates": [ [ 75.9752534, 32.568826 ], [ 75.9751971, 32.5689674 ] ] } },
{ "type": "Feature", "properties": { "osm_id": 1529203439, "osm_type": "way", "name": "SH 35 - Chamba Highway", "tags": { "bridge": "yes", "highway": "trunk", "lanes": "2", "maxspeed": "50", "name": "SH 35 - Chamba Highway", "ref": "NH154A", "ref:old": "SH35" } }, "geometry": { "type": "LineString", "coordinates": [ [ 75.9819093, 32.5692123 ], [ 75.9818596, 32.5692026 ], [ 75.9818012, 32.5692013 ], [ 75.9814236, 32.5692253 ] ] } },
{ "type": "Feature", "properties": { "osm_id": 526522046, "osm_type": "way", "name": null, "tags": { "bridge": "yes", "highway": "tertiary", "layer": "1" } }, "geometry": { "type": "LineString", "coordinates": [ [ 75.9678383, 32.5871541 ], [ 75.9677521, 32.5867907 ] ] } },
{ "type": "Feature", "properties": { "osm_id": 526525056, "osm_type": "way", "name": null, "tags": { "bridge": "yes", "highway": "path", "layer": "1" } }, "geometry": { "type": "LineString", "coordinates": [ [ 75.9610026, 32.590904 ], [ 75.961023, 32.5903954 ], [ 75.9610348, 32.590235 ], [ 75.9610884, 32.5898463 ] ] } },
{ "type": "Feature", "properties": { "osm_id": 526524393, "osm_type": "way", "name": null, "tags": { "bridge": "yes", "highway": "unclassified", "layer": "1" } }, "geometry": { "type": "LineString", "coordinates": [ [ 75.9823968, 32.5937036 ], [ 75.9820429, 32.5936559 ] ] } },
{ "type": "Feature", "properties": { "osm_id": 526522237, "osm_type": "way", "name": null, "tags": { "access": "private", "bridge": "yes", "highway": "unclassified", "layer": "1", "oneway": "no" } }, "geometry": { "type": "LineString", "coordinates": [ [ 75.9866363, 32.5981501 ], [ 75.9864826, 32.597505 ], [ 75.9861229, 32.5969006 ], [ 75.9854944, 32.5959558 ], [ 75.9852479, 32.5957793 ] ] } },
{ "type": "Feature", "properties": { "osm_id": 526521670, "osm_type": "way", "name": null, "tags": { "bridge": "yes", "highway": "unclassified", "layer": "1" } }, "geometry": { "type": "LineString", "coordinates": [ [ 75.9734254, 32.598731 ], [ 75.9744195, 32.598337 ] ] } },
{ "type": "Feature", "properties": { "osm_id": 1060893132, "osm_type": "way", "name": null, "tags": { "bridge": "yes", "highway": "unclassified", "layer": "1", "surface": "unpaved" } }, "geometry": { "type": "LineString", "coordinates": [ [ 75.901207, 32.5631314 ], [ 75.9009871, 32.5629053 ] ] } },
{ "type": "Feature", "properties": { "osm_id": 526518143, "osm_type": "way", "name": null, "tags": { "bridge": "yes", "highway": "tertiary", "layer": "1" } }, "geometry": { "type": "LineString", "coordinates": [ [ 75.9344218, 32.5638884 ], [ 75.9341999, 32.5639144 ] ] } },
{ "type": "Feature", "properties": { "osm_id": 526518145, "osm_type": "way", "name": null, "tags": { "bridge": "yes", "highway": "tertiary", "layer": "1" } }, "geometry": { "type": "LineString", "coordinates": [ [ 75.932302, 32.5658048 ], [ 75.9324437, 32.5656645 ] ] } },
{ "type": "Feature", "properties": { "osm_id": 526518147, "osm_type": "way", "name": null, "tags": { "bridge": "yes", "highway": "tertiary", "layer": "1", "oneway": "no" } }, "geometry": { "type": "LineString", "coordinates": [ [ 75.9333248, 32.5695329 ], [ 75.9333528, 32.5693755 ] ] } },
{ "type": "Feature", "properties": { "osm_id": 1347874125, "osm_type": "way", "name": null, "tags": { "bridge": "yes", "highway": "unclassified", "layer": "1", "source": "maxar" } }, "geometry": { "type": "LineString", "coordinates": [ [ 75.9519957, 32.6851149 ], [ 75.9518508, 32.6850201 ] ] } },
{ "type": "Feature", "properties": { "osm_id": 1348084316, "osm_type": "way", "name": null, "tags": { "bridge": "yes", "highway": "unclassified", "layer": "1" } }, "geometry": { "type": "LineString", "coordinates": [ [ 75.9442079, 32.7309549 ], [ 75.9443962, 32.7312257 ] ] } },
{ "type": "Feature", "properties": { "osm_id": 271847466, "osm_type": "way", "name": null, "tags": { "bridge": "yes", "highway": "track", "layer": "1", "tracktype": "grade4" } }, "geometry": { "type": "LineString", "coordinates": [ [ 75.8537293, 32.8761091 ], [ 75.8538908, 32.8759924 ] ] } },
{ "type": "Feature", "properties": { "osm_id": 1348074373, "osm_type": "way", "name": null, "tags": { "bridge": "yes", "highway": "unclassified", "layer": "1" } }, "geometry": { "type": "LineString", "coordinates": [ [ 76.0468939, 32.7898744 ], [ 76.0471031, 32.7900345 ] ] } },
{ "type": "Feature", "properties": { "osm_id": 886358696, "osm_type": "way", "name": null, "tags": { "bridge": "yes", "highway": "footway", "layer": "1" } }, "geometry": { "type": "LineString", "coordinates": [ [ 76.3926253, 33.0794758 ], [ 76.3921049, 33.0793904 ] ] } },
{ "type": "Feature", "properties": { "osm_id": 1358754823, "osm_type": "way", "name": "Kishtwar- Killar Road", "tags": { "bridge": "yes", "highway": "tertiary", "layer": "1", "name": "Kishtwar- Killar Road" } }, "geometry": { "type": "LineString", "coordinates": [ [ 76.3743744, 33.1161475 ], [ 76.3742421, 33.1159079 ] ] } }
]
}
