{
"type": "FeatureCollection",
"name": "chamba_Schools_cleaned",
"crs": { "type": "name", "properties": { "name": "urn:ogc:def:crs:OGC:1.3:CRS84" } },
"features": [
{ "type": "Feature", "properties": { "osm_id": 627729871, "osm_type": "way", "name": null, "tags": { "amenity": "school" } }, "geometry": { "type": "Polygon", "coordinates": [ [ [ 76.0921621, 32.3213426 ], [ 76.0913203, 32.320508 ], [ 76.0911482, 32.3203246 ], [ 76.0906582, 32.3206629 ], [ 76.0906956, 32.3208905 ], [ 76.0908864, 32.3210992 ], [ 76.0910285, 32.3212256 ], [ 76.0911931, 32.3213142 ], [ 76.0912754, 32.3212636 ], [ 76.0914251, 32.3213616 ], [ 76.0915186, 32.3213711 ], [ 76.0915934, 32.3214722 ], [ 76.0917131, 32.3215544 ], [ 76.0918216, 32.3215639 ], [ 76.0921621, 32.3213426 ] ] ] } },
{ "type": "Feature", "properties": { "osm_id": 773398583, "osm_type": "node", "name": "Adarsh Adhunik School", "tags": { "amenity": "school", "name": "Adarsh Adhunik School" } }, "geometry": { "type": "Point", "coordinates": [ 76.5459635, 32.3354768 ] } },
{ "type": "Feature", "properties": { "osm_id": 773398582, "osm_type": "node", "name": "Himalayan Public School", "tags": { "amenity": "school", "name": "Himalayan Public School" } }, "geometry": { "type": "Point", "coordinates": [ 76.5434688, 32.3365412 ] } },
{ "type": "Feature", "properties": { "osm_id": 540021089, "osm_type": "node", "name": "Government Primary School, Hilling", "tags": { "amenity": "school", "name": "Government Primary School, Hilling" } }, "geometry": { "type": "Point", "coordinates": [ 76.489426, 32.3598212 ] } },
{ "type": "Feature", "properties": { "osm_id": 527810757, "osm_type": "way", "name": "Govt Middle School", "tags": { "addr:city": "Berian", "addr:postcode": "176301", "addr:street": "SH 28", "amenity": "school", "name": "Govt Middle School" } }, "geometry": { "type": "Polygon", "coordinates": [ [ [ 75.9540278, 32.4328235 ], [ 75.9543162, 32.4326458 ], [ 75.9543144, 32.4326099 ], [ 75.954233, 32.432586 ], [ 75.9541481, 32.4326144 ], [ 75.9540968, 32.432598 ], [ 75.9539411, 32.4326294 ], [ 75.9538632, 32.4326637 ], [ 75.953826, 32.4327011 ], [ 75.9537765, 32.4327623 ], [ 75.9537853, 32.4327937 ], [ 75.9538543, 32.4328325 ], [ 75.9539729, 32.4328429 ], [ 75.9540278, 32.4328235 ] ] ] } },
{ "type": "Feature", "properties": { "osm_id": 527520768, "osm_type": "way", "name": "Govt Primary School Kalaphaat", "tags": { "amenity": "school", "name": "Govt Primary School Kalaphaat" } }, "geometry": { "type": "Polygon", "coordinates": [ [ [ 75.9357447, 32.4334245 ], [ 75.9359081, 32.4334698 ], [ 75.9359525, 32.4334126 ], [ 75.9358684, 32.43332 ], [ 75.9357353, 32.4332865 ], [ 75.93567, 32.433255 ], [ 75.9356233, 32.4332254 ], [ 75.9355485, 32.4332432 ], [ 75.9355088, 32.4332983 ], [ 75.9355042, 32.4333673 ], [ 75.9355018, 32.4334107 ], [ 75.9356956, 32.4334934 ], [ 75.9357447, 32.4334245 ] ] ] } },
{ "type": "Feature", "properties": { "osm_id": 526449957, "osm_type": "way", "name": "Govt Senior Secondary School, Kakira", "tags": { "addr:city": "Kakira", "addr:postcode": "176101", "addr:street": "Kakira School Road", "amenity": "school", "name": "Govt Senior Secondary School, Kakira", "operator": "HPSEB" } }, "geometry": { "type": "Polygon", "coordinates": [ [ [ 75.9370192, 32.4551021 ], [ 75.937136, 32.4549366 ], [ 75.9370052, 32.4548262 ], [ 75.9369258, 32.4548105 ], [ 75.9368791, 32.4546095 ], [ 75.9367203, 32.4544479 ], [ 75.9366363, 32.4544794 ], [ 75.9364308, 32.4543021 ], [ 75.9363187, 32.4543652 ], [ 75.9361491, 32.4544486 ], [ 75.9361027, 32.4544714 ], [ 75.9356763, 32.454681 ], [ 75.9356135, 32.4547119 ], [ 75.9357303, 32.454838 ], [ 75.9357163, 32.454905 ], [ 75.9357396, 32.4550075 ], [ 75.9357957, 32.4550114 ], [ 75.9357443, 32.4550705 ], [ 75.9357817, 32.4551474 ], [ 75.935763, 32.45524 ], [ 75.9358377, 32.4553621 ], [ 75.9370192, 32.4551021 ] ] ] } },
{ "type": "Feature", "properties": { "osm_id": 5119390994, "osm_type": "node", "name": "Govt Primary School", "tags": { "addr:city": "Kakira", "addr:postcode": "176101", "addr:street": "Kakira School Road", "amenity": "school", "name": "Govt Primary School" } }, "geometry": { "type": "Point", "coordinates": [ 75.9358937, 32.4552794 ] } },
{ "type": "Feature", "properties": { "osm_id": 526447675, "osm_type": "way", "name": "Govt Girls Middle School Polni", "tags": { "amenity": "school", "name": "Govt Girls Middle School Polni" } }, "geometry": { "type": "Polygon", "coordinates": [ [ [ 75.9368955, 32.4593548 ], [ 75.9372603, 32.4594001 ], [ 75.9372656, 32.4592145 ], [ 75.9371959, 32.4590742 ], [ 75.9370749, 32.4590083 ], [ 75.9370296, 32.4589836 ], [ 75.9369223, 32.4589203 ], [ 75.9367399, 32.4591375 ], [ 75.936756, 32.4592824 ], [ 75.9368955, 32.4593548 ] ] ] } },
{ "type": "Feature", "properties": { "osm_id": 526439506, "osm_type": "way", "name": "Kendriya Vidyalaya", "tags": { "amenity": "school", "name": "Kendriya Vidyalaya" } }, "geometry": { "type": "Polygon", "coordinates": [ [ [ 75.9285177, 32.4648087 ], [ 75.9285458, 32.4646944 ], [ 75.9282469, 32.4645368 ], [ 75.927976, 32.4646668 ], [ 75.9278499, 32.4648638 ], [ 75.927957, 32.4649488 ], [ 75.9280834, 32.465049 ], [ 75.9283169, 32.4650451 ], [ 75.9285177, 32.4648087 ] ] ] } },
{ "type": "Feature", "properties": { "osm_id": 526439436, "osm_type": "way", "name": "Kendriya Vidyalaya", "tags": { "addr:city": "Bakloh", "addr:postcode": "176301", "amenity": "school", "name": "Kendriya Vidyalaya" } }, "geometry": { "type": "Polygon", "coordinates": [ [ [ 75.928924, 32.4651948 ], [ 75.9289988, 32.4650057 ], [ 75.9289287, 32.4648284 ], [ 75.9287372, 32.4647141 ], [ 75.9286111, 32.4647811 ], [ 75.9285107, 32.464986 ], [ 75.9283351, 32.4651142 ], [ 75.9280706, 32.4653071 ], [ 75.928091, 32.4654834 ], [ 75.928176, 32.4656149 ], [ 75.9286532, 32.4653445 ], [ 75.928924, 32.4651948 ] ] ] } },
{ "type": "Feature", "properties": { "osm_id": 716227329, "osm_type": "node", "name": "Government High School, Barehi", "tags": { "amenity": "school", "name": "Government High School, Barehi" } }, "geometry": { "type": "Point", "coordinates": [ 76.301634, 32.4445305 ] } },
{ "type": "Feature", "properties": { "osm_id": 716227331, "osm_type": "node", "name": "Government Primary School, Barehi", "tags": { "amenity": "school", "name": "Government Primary School, Barehi" } }, "geometry": { "type": "Point", "coordinates": [ 76.3018802, 32.4452521 ] } },
{ "type": "Feature", "properties": { "osm_id": 773389898, "osm_type": "node", "name": "Government Primary School, Tur", "tags": { "amenity": "school", "name": "Government Primary School, Tur" } }, "geometry": { "type": "Point", "coordinates": [ 76.2987328, 32.4585925 ] } },
{ "type": "Feature", "properties": { "osm_id": 773394107, "osm_type": "node", "name": "Government Primary School, Kundi", "tags": { "amenity": "school", "name": "Government Primary School, Kundi" } }, "geometry": { "type": "Point", "coordinates": [ 76.2871686, 32.4621367 ] } },
{ "type": "Feature", "properties": { "osm_id": 774228961, "osm_type": "node", "name": "Government Primary School, Kalprai", "tags": { "amenity": "school", "name": "Government Primary School, Kalprai" } }, "geometry": { "type": "Point", "coordinates": [ 76.3153341, 32.7081136 ] } },
{ "type": "Feature", "properties": { "osm_id": 1489796967, "osm_type": "way", "name": "Government High School, Lamu", "tags": { "amenity": "school", "name": "Government High School, Lamu" } }, "geometry": { "type": "Polygon", "coordinates": [ [ [ 76.5124436, 32.3691922 ], [ 76.5128821, 32.3688762 ], [ 76.5126984, 32.3687119 ], [ 76.512292, 32.3690529 ], [ 76.5124436, 32.3691922 ] ] ] } },
{ "type": "Feature", "properties": { "osm_id": 716314238, "osm_type": "node", "name": "DAV Public School Bharmour", "tags": { "amenity": "school", "name": "DAV Public School Bharmour" } }, "geometry": { "type": "Point", "coordinates": [ 76.5379928, 32.4424815 ] } },
{ "type": "Feature", "properties": { "osm_id": 716314239, "osm_type": "node", "name": "Hill Modern Public School, Bharmour", "tags": { "amenity": "school", "name": "Hill Modern Public School, Bharmour" } }, "geometry": { "type": "Point", "coordinates": [ 76.5380749, 32.4425231 ] } },
{ "type": "Feature", "properties": { "osm_id": 732589890, "osm_type": "way", "name": "Kugti Middle School", "tags": { "amenity": "school", "name": "Kugti Middle School" } }, "geometry": { "type": "Polygon", "coordinates": [ [ [ 76.6907771, 32.4720549 ], [ 76.6909488, 32.4720066 ], [ 76.6912038, 32.4718135 ], [ 76.6913287, 32.4716115 ], [ 76.6912142, 32.4713701 ], [ 76.6910737, 32.4713218 ], [ 76.6903868, 32.4713613 ], [ 76.6901787, 32.4713833 ], [ 76.6900122, 32.4716071 ], [ 76.6900434, 32.4718047 ], [ 76.6901641, 32.4720803 ], [ 76.6902203, 32.4722086 ], [ 76.6903608, 32.4721735 ], [ 76.6907771, 32.4720549 ] ] ] } },
{ "type": "Feature", "properties": { "osm_id": 716343588, "osm_type": "node", "name": "Government High School, Mandah", "tags": { "amenity": "school", "name": "Government High School, Mandah" } }, "geometry": { "type": "Point", "coordinates": [ 76.4520472, 32.530361 ] } },
{ "type": "Feature", "properties": { "osm_id": 6082304685, "osm_type": "node", "name": "Govt school Tundru", "tags": { "amenity": "school", "name": "Govt school Tundru" } }, "geometry": { "type": "Point", "coordinates": [ 76.4562131, 33.0871896 ] } },
{ "type": "Feature", "properties": { "osm_id": 692968873, "osm_type": "way", "name": "Govt Senior Sec School", "tags": { "addr:city": "Bakloh", "addr:housenumber": "Kamladi", "addr:postcode": "176301", "addr:street": "Link Road 1/4 to SH28", "amenity": "school", "name": "Govt Senior Sec School", "operator": "State Govt" } }, "geometry": { "type": "Polygon", "coordinates": [ [ [ 75.9180805, 32.4695185 ], [ 75.918139, 32.4694431 ], [ 75.9182191, 32.4694626 ], [ 75.9184749, 32.4690519 ], [ 75.918253, 32.4689921 ], [ 75.9178925, 32.4694405 ], [ 75.9180805, 32.4695185 ] ] ] } },
{ "type": "Feature", "properties": { "osm_id": 627745749, "osm_type": "way", "name": null, "tags": { "amenity": "school" } }, "geometry": { "type": "Polygon", "coordinates": [ [ [ 76.2130873, 32.4721979 ], [ 76.213083, 32.4721218 ], [ 76.2130787, 32.4720638 ], [ 76.2131088, 32.4719478 ], [ 76.2131646, 32.471839 ], [ 76.2132119, 32.471781 ], [ 76.2132549, 32.471694 ], [ 76.2133365, 32.4715526 ], [ 76.213315, 32.4714474 ], [ 76.2131947, 32.4713931 ], [ 76.212924, 32.4713641 ], [ 76.2128724, 32.4714184 ], [ 76.2128294, 32.4715671 ], [ 76.2128166, 32.472158 ], [ 76.2129369, 32.4721979 ], [ 76.2130873, 32.4721979 ] ] ] } },
{ "type": "Feature", "properties": { "osm_id": 689122616, "osm_type": "way", "name": null, "tags": { "amenity": "school", "building": "yes" } }, "geometry": { "type": "Polygon", "coordinates": [ [ [ 75.932083, 32.4774383 ], [ 75.9320967, 32.4773746 ], [ 75.9321413, 32.4772863 ], [ 75.9321757, 32.4772283 ], [ 75.9321534, 32.4771892 ], [ 75.9321104, 32.4771892 ], [ 75.9319061, 32.4772544 ], [ 75.9318838, 32.4772848 ], [ 75.9319302, 32.4773355 ], [ 75.9320315, 32.4774094 ], [ 75.932083, 32.4774383 ] ] ] } },
{ "type": "Feature", "properties": { "osm_id": 693314114, "osm_type": "way", "name": "Govt Primary School, Bharari", "tags": { "amenity": "school", "name": "Govt Primary School, Bharari", "operator": "State Govt" } }, "geometry": { "type": "Polygon", "coordinates": [ [ [ 75.9608419, 32.483207 ], [ 75.9608634, 32.4831391 ], [ 75.96085, 32.482992 ], [ 75.9608419, 32.4829513 ], [ 75.9608098, 32.4829354 ], [ 75.9607588, 32.4829309 ], [ 75.9606408, 32.4829581 ], [ 75.9605308, 32.482992 ], [ 75.9604772, 32.4830689 ], [ 75.9604638, 32.4831504 ], [ 75.9605228, 32.4831708 ], [ 75.960571, 32.4832183 ], [ 75.9606622, 32.483216 ], [ 75.9608017, 32.4832296 ], [ 75.9608419, 32.483207 ] ] ] } },
{ "type": "Feature", "properties": { "osm_id": 1419386715, "osm_type": "way", "name": null, "tags": { "amenity": "school" } }, "geometry": { "type": "Polygon", "coordinates": [ [ [ 75.9843997, 32.4928089 ], [ 75.9845351, 32.4927716 ], [ 75.9845811, 32.4927231 ], [ 75.9844519, 32.4926134 ], [ 75.9844453, 32.4926067 ], [ 75.9843776, 32.4925619 ], [ 75.9843413, 32.492541 ], [ 75.984282, 32.4927425 ], [ 75.9842466, 32.492847 ], [ 75.9842709, 32.4928761 ], [ 75.9843077, 32.4928888 ], [ 75.9843997, 32.4928089 ] ] ] } },
{ "type": "Feature", "properties": { "osm_id": 594696124, "osm_type": "way", "name": "Central school for Tibetans", "tags": { "addr:city": "Dalhousie", "addr:postcode": "176304", "addr:street": "middle bakrota", "amenity": "school", "name": "Central school for Tibetans" } }, "geometry": { "type": "Polygon", "coordinates": [ [ [ 75.9824855, 32.5387753 ], [ 75.9829715, 32.5385422 ], [ 75.9830359, 32.5381442 ], [ 75.9829152, 32.538099 ], [ 75.9831749, 32.5377031 ], [ 75.9827328, 32.5374387 ], [ 75.9824893, 32.5374558 ], [ 75.9822848, 32.5375246 ], [ 75.9818879, 32.537805 ], [ 75.9815691, 32.5381775 ], [ 75.9824855, 32.5387753 ] ] ] } },
{ "type": "Feature", "properties": { "osm_id": 12082178391, "osm_type": "node", "name": "Government Central Primary School", "tags": { "amenity": "school", "name": "Government Central Primary School" } }, "geometry": { "type": "Point", "coordinates": [ 76.0564203, 32.5465083 ] } },
{ "type": "Feature", "properties": { "osm_id": 774318305, "osm_type": "node", "name": "Government Senior Secondary School, Teesa", "tags": { "amenity": "school", "name": "Government Senior Secondary School, Teesa" } }, "geometry": { "type": "Point", "coordinates": [ 76.1484187, 32.8352151 ] } },
{ "type": "Feature", "properties": { "osm_id": 1428300044, "osm_type": "way", "name": "Government Senior Secondary School, Sanwal", "tags": { "addr:district": "Chamba", "addr:village": "Sanwal", "alt_name": "Govt Senior Secondary School, Sanwal", "amenity": "school", "name": "Government Senior Secondary School, Sanwal", "short_name": "GSSS Sanwal" } }, "geometry": { "type": "Polygon", "coordinates": [ [ [ 76.0274835, 32.8526931 ], [ 76.0277708, 32.852092 ], [ 76.0276762, 32.8520396 ], [ 76.0274917, 32.8522941 ], [ 76.0273193, 32.8526182 ], [ 76.0274835, 32.8526931 ] ] ] } }
]
}
