{
"type": "FeatureCollection",
"name": "chamba_Hospitals_cleaned",
"crs": { "type": "name", "properties": { "name": "urn:ogc:def:crs:OGC:1.3:CRS84" } },
"features": [
{ "type": "Feature", "properties": { "osm_id": 7165541952, "osm_type": "node", "name": "Government Hospital, Holi", "tags": { "addr:block": "Bharmaur", "addr:district": "Chamba", "addr:full": "Near HPSEB Sub Station, Kuleth, Hinsa", "addr:postcode": "176309", "addr:state": "Himachal Pradesh", "addr:subdistrict": "Brahmaur", "amenity": "hospital", "name": "Government Hospital, Holi", "source": "OpenGovernmentData" } }, "geometry": { "type": "Point", "coordinates": [ 76.5577852, 32.3261529 ] } },
{ "type": "Feature", "properties": { "osm_id": 6988130931, "osm_type": "node", "name": "Civil Hospital, Chowari", "tags": { "addr:block": "Samote", "addr:district": "Chamba", "addr:full": "Shahpur-Chowari Road, Near Radha Krishna Temple, Chowari", "addr:postcode": "176302", "addr:state": "Himachal Pradesh", "amenity": "hospital", "description": "Civil Hospital", "name": "Civil Hospital, Chowari", "operator:type": "government", "pincode": "176302", "source": "OpenGovernmentData" } }, "geometry": { "type": "Point", "coordinates": [ 76.0132335, 32.4294899 ] } },
{ "type": "Feature", "properties": { "osm_id": 7165542027, "osm_type": "node", "name": "Hospital, Churi", "tags": { "addr:block": "Choori", "addr:district": "Chamba", "addr:full": "MDR52, Dharwala, Churi", "addr:postcode": "176311", "addr:state": "Himachal Pradesh", "amenity": "hospital", "name": "Hospital, Churi", "source": "OpenGovernmentData" } }, "geometry": { "type": "Point", "coordinates": [ 76.2916356, 32.4786262 ] } },
{ "type": "Feature", "properties": { "osm_id": 6988234519, "osm_type": "node", "name": "Civil Hospital, Dalhousi", "tags": { "addr:block": "Samote", "addr:district": "Chamba", "addr:full": "Subhash Chowk Road, Opp. SDM Court, Dalhousie", "addr:postcode": "176304", "addr:state": "Himachal Pradesh", "amenity": "hospital", "contact:phone": "1899242125", "description": "Civil Hospital", "name": "Civil Hospital, Dalhousi", "operator:type": "government", "source": "OpenGovernmentData" } }, "geometry": { "type": "Point", "coordinates": [ 75.9639291, 32.5312043 ] } },
{ "type": "Feature", "properties": { "osm_id": 7637726864, "osm_type": "node", "name": "Arpana Charitable Hospital", "tags": { "addr:district": "Chamba", "addr:full": "Dhupguri, Dalhousie", "addr:postcode": "176304", "addr:state": "Himachal Pradesh", "amenity": "hospital", "name": "Arpana Charitable Hospital", "source": "Local Knowledge" } }, "geometry": { "type": "Point", "coordinates": [ 75.987786, 32.538906 ] } },
{ "type": "Feature", "properties": { "osm_id": 7637726857, "osm_type": "node", "name": "Ashirwad Hospital", "tags": { "addr:district": "Chamba", "addr:full": "Vaikunth Nagar, Banikhet", "addr:postcode": "176303", "addr:state": "Himachal Pradesh", "amenity": "hospital", "name": "Ashirwad Hospital", "source": "Local Knowledge" } }, "geometry": { "type": "Point", "coordinates": [ 75.950009, 32.554153 ] } },
{ "type": "Feature", "properties": { "osm_id": 6986550290, "osm_type": "node", "name": "Sukhmani Hospital, Chamba", "tags": { "addr:district": "Chamba", "addr:full": "Near Bus Stand", "addr:postcode": "176310", "addr:state": "Himachal Pradesh", "amenity": "hospital", "name": "Sukhmani Hospital, Chamba", "source": "OpenGovernmentData" } }, "geometry": { "type": "Point", "coordinates": [ 76.1232698, 32.554941 ] } },
{ "type": "Feature", "properties": { "osm_id": 7007152171, "osm_type": "node", "name": "Regional Hospital, Chamba", "tags": { "addr:district": "Chamba", "addr:full": "Chamba", "addr:state": "Himachal Pradesh", "amenity": "hospital", "name": "Regional Hospital, Chamba", "operator:type": "government", "source": "OpenGovernmentData" } }, "geometry": { "type": "Point", "coordinates": [ 76.1221057, 32.558687 ] } },
{ "type": "Feature", "properties": { "osm_id": 7165541996, "osm_type": "node", "name": "Government Hospital, Kakira", "tags": { "addr:block": "Samote", "addr:district": "Chamba", "addr:full": "Kakira School Road, Near Post Office, Kakira", "addr:postcode": "176313", "addr:state": "Himachal Pradesh", "amenity": "hospital", "name": "Government Hospital, Kakira", "source": "OpenGovernmentData" } }, "geometry": { "type": "Point", "coordinates": [ 75.9345389, 32.4557696 ] } },
{ "type": "Feature", "properties": { "osm_id": 526446602, "osm_type": "way", "name": "Military Hospital", "tags": { "addr:city": "Bakloh", "addr:postcode": "176301", "addr:street": "Kakira to Bakloh via Kaluganj", "amenity": "hospital", "name": "Military Hospital", "operator": "Military" } }, "geometry": { "type": "Polygon", "coordinates": [ [ [ 75.931728, 32.4622835 ], [ 75.9319109, 32.4624104 ], [ 75.9318093, 32.4625545 ], [ 75.931915, 32.4626334 ], [ 75.9321264, 32.4625648 ], [ 75.9324679, 32.4624002 ], [ 75.9325736, 32.4622973 ], [ 75.9328704, 32.4623384 ], [ 75.9329111, 32.4621943 ], [ 75.9328704, 32.4621086 ], [ 75.9328257, 32.4620057 ], [ 75.9326468, 32.4619096 ], [ 75.9324029, 32.4618548 ], [ 75.9321549, 32.4618548 ], [ 75.9320817, 32.4617518 ], [ 75.9320085, 32.4617073 ], [ 75.9318662, 32.4616352 ], [ 75.9317239, 32.4616421 ], [ 75.9315491, 32.4621429 ], [ 75.931728, 32.4622835 ] ] ] } },
{ "type": "Feature", "properties": { "osm_id": 6990737720, "osm_type": "node", "name": "Swami Shri Hari Giri Hospital", "tags": { "addr:district": "Chamba", "addr:full": "Kakira Kamlari", "addr:postcode": "176313", "addr:state": "Himachal Pradesh", "amenity": "hospital", "name": "Swami Shri Hari Giri Hospital", "source": "OpenGovernmentData" } }, "geometry": { "type": "Point", "coordinates": [ 75.922831, 32.4647815 ] } },
{ "type": "Feature", "properties": { "osm_id": 526478601, "osm_type": "way", "name": "Shree Swami Harigiri Charitable Hospital", "tags": { "addr:city": "Karira", "addr:postcode": "176101", "addr:street": "Link Road 1/4 to SH28", "amenity": "hospital", "name": "Shree Swami Harigiri Charitable Hospital" } }, "geometry": { "type": "Polygon", "coordinates": [ [ [ 75.9224463, 32.4650762 ], [ 75.922618, 32.4650581 ], [ 75.9228004, 32.4648317 ], [ 75.9226931, 32.4647141 ], [ 75.9224678, 32.4649223 ], [ 75.9222318, 32.4653025 ], [ 75.9223712, 32.4653387 ], [ 75.9224463, 32.4650762 ] ] ] } },
{ "type": "Feature", "properties": { "osm_id": 7165541964, "osm_type": "node", "name": "Civil Hospital, Banikhet", "tags": { "addr:block": "Samote", "addr:district": "Chamba", "addr:full": "Pathankot-Chamba Road, Near NHPC Ed Office, Dalhousie, Banikhet", "addr:postcode": "176303", "addr:state": "Himachal Pradesh", "amenity": "hospital", "description": "Civil Hospital", "name": "Civil Hospital, Banikhet", "source": "OpenGovernmentData" } }, "geometry": { "type": "Point", "coordinates": [ 75.9405768, 32.545323 ] } },
{ "type": "Feature", "properties": { "osm_id": 7016099611, "osm_type": "node", "name": "Civil Hospital, Bharmour", "tags": { "addr:block": "Bharmaur", "addr:district": "Chamba", "addr:full": "Main Bazaar, Beside SBI, Bharmour", "addr:postcode": "176315", "addr:state": "Himachal Pradesh", "addr:subdistrict": "Brahmaur", "amenity": "hospital", "contact:phone": "1899225044", "description": "Civil Hospital", "name": "Civil Hospital, Bharmour", "operator:type": "government", "pincode": "176315", "source": "OpenGovernmentData" } }, "geometry": { "type": "Point", "coordinates": [ 76.5378052, 32.4416926 ] } },
{ "type": "Feature", "properties": { "osm_id": 773641430, "osm_type": "node", "name": "Ayurvedic Hospital, Bharmour", "tags": { "amenity": "hospital", "name": "Ayurvedic Hospital, Bharmour" } }, "geometry": { "type": "Point", "coordinates": [ 76.5409532, 32.443286 ] } },
{ "type": "Feature", "properties": { "osm_id": 767444918, "osm_type": "way", "name": "Civil Hospital, Killar", "tags": { "addr:block": "Killar", "addr:district": "Chamba", "addr:full": "Killar-Tehsil Pangi", "addr:postcode": "176323", "addr:state": "Himachal Pradesh", "amenity": "hospital", "building": "yes", "description": "Civil Hospital", "healthcare": "hospital", "name": "Civil Hospital, Killar", "source": "OpenGovernmentData" } }, "geometry": { "type": "Polygon", "coordinates": [ [ [ 76.4070688, 33.0812334 ], [ 76.407056, 33.0810545 ], [ 76.4068868, 33.081063 ], [ 76.4068936, 33.0811584 ], [ 76.4067435, 33.0811659 ], [ 76.4067495, 33.0812494 ], [ 76.4070688, 33.0812334 ] ] ] } },
{ "type": "Feature", "properties": { "osm_id": 775411497, "osm_type": "node", "name": "Ayurvedic Health Centre, Kilar", "tags": { "amenity": "hospital", "name": "Ayurvedic Health Centre, Kilar" } }, "geometry": { "type": "Point", "coordinates": [ 76.4071944, 33.0811597 ] } },
{ "type": "Feature", "properties": { "osm_id": 302432572, "osm_type": "way", "name": "District Civil Hosptial", "tags": { "amenity": "hospital", "name": "District Civil Hosptial" } }, "geometry": { "type": "Polygon", "coordinates": [ [ [ 76.1225834, 32.559301 ], [ 76.1233397, 32.5586454 ], [ 76.1228326, 32.5582905 ], [ 76.1222224, 32.5590004 ], [ 76.1225834, 32.559301 ] ] ] } },
{ "type": "Feature", "properties": { "osm_id": 3045063823, "osm_type": "node", "name": "T B Hosptial", "tags": { "amenity": "hospital", "name": "T B Hosptial" } }, "geometry": { "type": "Point", "coordinates": [ 76.1304628, 32.5617529 ] } },
{ "type": "Feature", "properties": { "osm_id": 7637726853, "osm_type": "node", "name": "Rana Hospital", "tags": { "addr:district": "Chamba", "addr:full": "Sultanpur - Sarol Road, Chowgan Mohalla, Chamba", "addr:postcode": "176312", "addr:state": "Himachal Pradesh", "amenity": "hospital", "name": "Rana Hospital", "source": "Local Knowledge" } }, "geometry": { "type": "Point", "coordinates": [ 76.1137162, 32.5642672 ] } },
{ "type": "Feature", "properties": { "osm_id": 6988324616, "osm_type": "node", "name": "District Ayurvedic Hospital, Chamba", "tags": { "addr:block": "Pukhari", "addr:district": "Chamba", "addr:full": "Sultanpur-Sarol Road, Near New Balu Bridge, Chamba", "addr:postcode": "176312", "addr:state": "Himachal Pradesh", "amenity": "hospital", "contact:phone": "1899225170", "description": "District Hospital", "health_facility:type": "Ayurveda", "name": "District Ayurvedic Hospital, Chamba", "operator:type": "government", "source": "OpenGovernmentData" } }, "geometry": { "type": "Point", "coordinates": [ 76.1206493, 32.568204 ] } },
{ "type": "Feature", "properties": { "osm_id": 7637726862, "osm_type": "node", "name": "NHPC Hospital", "tags": { "addr:district": "Chamba", "addr:full": "Surangani", "addr:postcode": "176317", "addr:state": "Himachal Pradesh", "amenity": "hospital", "name": "NHPC Hospital", "source": "Local Knowledge" } }, "geometry": { "type": "Point", "coordinates": [ 76.090667, 32.7253958 ] } },
{ "type": "Feature", "properties": { "osm_id": 6990660867, "osm_type": "node", "name": "Civil Hospital, Tissa", "tags": { "addr:block": "Tissa", "addr:district": "Chamba", "addr:full": "Tissa", "addr:postcode": "176316", "addr:state": "Himachal Pradesh", "amenity": "hospital", "description": "Civil Hospital", "name": "Civil Hospital, Tissa", "operator:type": "government", "source": "OpenGovernmentData" } }, "geometry": { "type": "Point", "coordinates": [ 76.1564219, 32.833684 ] } }
]
}
