{
"type": "FeatureCollection",
"name": "kullu_Government_Offices_cleaned",
"crs": { "type": "name", "properties": { "name": "urn:ogc:def:crs:OGC:1.3:CRS84" } },
"features": [
{ "type": "Feature", "properties": { "osm_id": 6712309193, "osm_type": "node", "name": "Panchayat Bhawan Dinghidhar", "tags": { "government": "office", "name": "Panchayat Bhawan Dinghidhar", "office": "government" } }, "geometry": { "type": "Point", "coordinates": [ 77.4130115, 31.3816167 ] } },
{ "type": "Feature", "properties": { "osm_id": 6712309194, "osm_type": "node", "name": "Panchayat Bhawan Dalash", "tags": { "government": "office", "name": "Panchayat Bhawan Dalash", "office": "government" } }, "geometry": { "type": "Point", "coordinates": [ 77.4343, 31.3876197 ] } },
{ "type": "Feature", "properties": { "osm_id": 6712309196, "osm_type": "node", "name": "Panchayat Bhawan Taluna", "tags": { "government": "office", "name": "Panchayat Bhawan Taluna", "office": "government" } }, "geometry": { "type": "Point", "coordinates": [ 77.3974645, 31.392553 ] } },
{ "type": "Feature", "properties": { "osm_id": 6712322213, "osm_type": "node", "name": "Panchayat Bhawan Namhong", "tags": { "government": "office", "name": "Panchayat Bhawan Namhong", "office": "government" } }, "geometry": { "type": "Point", "coordinates": [ 77.42611, 31.4157125 ] } },
{ "type": "Feature", "properties": { "osm_id": 6712250972, "osm_type": "node", "name": "Panchayat Bhawan Anni", "tags": { "addr:city": "Anni", "government": "office", "name": "Panchayat Bhawan Anni", "office": "government" } }, "geometry": { "type": "Point", "coordinates": [ 77.4170607, 31.4331306 ] } },
{ "type": "Feature", "properties": { "osm_id": 6712322216, "osm_type": "node", "name": "Panchayat Bhawan Kungash", "tags": { "government": "office", "name": "Panchayat Bhawan Kungash", "office": "government" } }, "geometry": { "type": "Point", "coordinates": [ 77.3949444, 31.441004 ] } },
{ "type": "Feature", "properties": { "osm_id": 6712250976, "osm_type": "node", "name": "Panchayat Bhawan Karana", "tags": { "government": "office", "name": "Panchayat Bhawan Karana", "office": "government" } }, "geometry": { "type": "Point", "coordinates": [ 77.4085796, 31.4610267 ] } },
{ "type": "Feature", "properties": { "osm_id": 6712309189, "osm_type": "node", "name": "Panchayat Bhawan Pokhari", "tags": { "government": "office", "name": "Panchayat Bhawan Pokhari", "office": "government" } }, "geometry": { "type": "Point", "coordinates": [ 77.3795259, 31.4769606 ] } },
{ "type": "Feature", "properties": { "osm_id": 6712309190, "osm_type": "node", "name": "Panchayat Bhawan Muhan", "tags": { "government": "office", "name": "Panchayat Bhawan Muhan", "office": "government" } }, "geometry": { "type": "Point", "coordinates": [ 77.3675847, 31.4868331 ] } },
{ "type": "Feature", "properties": { "osm_id": 6712322210, "osm_type": "node", "name": "Panchayat Bhawan Palethi", "tags": { "government": "office", "name": "Panchayat Bhawan Palethi", "office": "government" } }, "geometry": { "type": "Point", "coordinates": [ 77.4762785, 31.3724438 ] } },
{ "type": "Feature", "properties": { "osm_id": 6712309195, "osm_type": "node", "name": "Panchayat Bhawan Biungal", "tags": { "government": "office", "name": "Panchayat Bhawan Biungal", "office": "government" } }, "geometry": { "type": "Point", "coordinates": [ 77.4406051, 31.392434 ] } },
{ "type": "Feature", "properties": { "osm_id": 6712322211, "osm_type": "node", "name": "Panchayat Bhawan Kuther", "tags": { "government": "office", "name": "Panchayat Bhawan Kuther", "office": "government" } }, "geometry": { "type": "Point", "coordinates": [ 77.4766164, 31.3969077 ] } },
{ "type": "Feature", "properties": { "osm_id": 6712322212, "osm_type": "node", "name": "Panchayat Bhawan Jaban", "tags": { "government": "office", "name": "Panchayat Bhawan Jaban", "office": "government" } }, "geometry": { "type": "Point", "coordinates": [ 77.4428765, 31.4141556 ] } },
{ "type": "Feature", "properties": { "osm_id": 6712250973, "osm_type": "node", "name": "Panchayat Bhawan Bakhnow", "tags": { "government": "office", "name": "Panchayat Bhawan Bakhnow", "office": "government" } }, "geometry": { "type": "Point", "coordinates": [ 77.4380088, 31.4356892 ] } },
{ "type": "Feature", "properties": { "osm_id": 6712250974, "osm_type": "node", "name": "Panchayat Bhawan Chowai", "tags": { "government": "office", "name": "Panchayat Bhawan Chowai", "office": "government" } }, "geometry": { "type": "Point", "coordinates": [ 77.4422869, 31.4456713 ] } },
{ "type": "Feature", "properties": { "osm_id": 6712250975, "osm_type": "node", "name": "Panchayat Bhawan Shilli", "tags": { "government": "office", "name": "Panchayat Bhawan Shilli", "office": "government" } }, "geometry": { "type": "Point", "coordinates": [ 77.4496603, 31.45268 ] } },
{ "type": "Feature", "properties": { "osm_id": 6712250977, "osm_type": "node", "name": "Panchayat Bhawan Kamand", "tags": { "government": "office", "name": "Panchayat Bhawan Kamand", "office": "government" } }, "geometry": { "type": "Point", "coordinates": [ 77.4367106, 31.4656436 ] } },
{ "type": "Feature", "properties": { "osm_id": 6712250978, "osm_type": "node", "name": "Panchayat Bhawan Deothi", "tags": { "government": "office", "name": "Panchayat Bhawan Deothi", "office": "government" } }, "geometry": { "type": "Point", "coordinates": [ 77.4571866, 31.4693406 ] } },
{ "type": "Feature", "properties": { "osm_id": 6712250979, "osm_type": "node", "name": "Panchayat Bhawan Kohila", "tags": { "government": "office", "name": "Panchayat Bhawan Kohila", "office": "government" } }, "geometry": { "type": "Point", "coordinates": [ 77.4479973, 31.4825489 ] } },
{ "type": "Feature", "properties": { "osm_id": 6712250980, "osm_type": "node", "name": "Panchayat Bhawan Khani", "tags": { "government": "office", "name": "Panchayat Bhawan Khani", "office": "government" } }, "geometry": { "type": "Point", "coordinates": [ 77.4260408, 31.4951607 ] } },
{ "type": "Feature", "properties": { "osm_id": 6712309191, "osm_type": "node", "name": "Panchayat Bhawan Karad", "tags": { "government": "office", "name": "Panchayat Bhawan Karad", "office": "government" } }, "geometry": { "type": "Point", "coordinates": [ 77.3769993, 31.4974089 ] } },
{ "type": "Feature", "properties": { "osm_id": 6712250982, "osm_type": "node", "name": "Panchayat Bhawan Khanag", "tags": { "government": "office", "name": "Panchayat Bhawan Khanag", "office": "government" } }, "geometry": { "type": "Point", "coordinates": [ 77.4020457, 31.5191033 ] } },
{ "type": "Feature", "properties": { "osm_id": 6712250983, "osm_type": "node", "name": "Panchayat Bhawan Lajheri", "tags": { "government": "office", "name": "Panchayat Bhawan Lajheri", "office": "government" } }, "geometry": { "type": "Point", "coordinates": [ 77.4029899, 31.5222472 ] } },
{ "type": "Feature", "properties": { "osm_id": 9734008622, "osm_type": "node", "name": "Panchayat headquarter Gada Parli", "tags": { "government": "administrative", "name": "Panchayat headquarter Gada Parli", "office": "government" } }, "geometry": { "type": "Point", "coordinates": [ 77.4118325, 31.7816131 ] } },
{ "type": "Feature", "properties": { "osm_id": 6712322214, "osm_type": "node", "name": "Panchayat Bhawan Munddal", "tags": { "name": "Panchayat Bhawan Munddal", "office": "government" } }, "geometry": { "type": "Point", "coordinates": [ 77.3631602, 31.4450406 ] } },
{ "type": "Feature", "properties": { "osm_id": 6712322215, "osm_type": "node", "name": "Panchayat Bhawan Ropa", "tags": { "government": "office", "name": "Panchayat Bhawan Ropa", "office": "government" } }, "geometry": { "type": "Point", "coordinates": [ 77.3668992, 31.4519098 ] } },
{ "type": "Feature", "properties": { "osm_id": 6712309188, "osm_type": "node", "name": "Panchayat Bhawan Bishladhar", "tags": { "government": "office", "name": "Panchayat Bhawan Bishladhar", "office": "government" } }, "geometry": { "type": "Point", "coordinates": [ 77.3466206, 31.4661172 ] } },
{ "type": "Feature", "properties": { "osm_id": 6712309187, "osm_type": "node", "name": "Panchayat Bhawan Takrasi", "tags": { "government": "office", "name": "Panchayat Bhawan Takrasi", "office": "government" } }, "geometry": { "type": "Point", "coordinates": [ 77.3315787, 31.4781181 ] } },
{ "type": "Feature", "properties": { "osm_id": 6712309186, "osm_type": "node", "name": "Panchayat Bhawan Lagauti", "tags": { "name": "Panchayat Bhawan Lagauti", "office": "government" } }, "geometry": { "type": "Point", "coordinates": [ 77.3347545, 31.4995861 ] } },
{ "type": "Feature", "properties": { "osm_id": 6712309185, "osm_type": "node", "name": "Panchayat Bhawan Karshaigaad", "tags": { "government": "office", "name": "Panchayat Bhawan Karshaigaad", "office": "government" } }, "geometry": { "type": "Point", "coordinates": [ 77.3310745, 31.5023121 ] } },
{ "type": "Feature", "properties": { "osm_id": 6712250984, "osm_type": "node", "name": "Panchayat Bhawan Fanauti", "tags": { "government": "office", "name": "Panchayat Bhawan Fanauti", "office": "government" } }, "geometry": { "type": "Point", "coordinates": [ 77.338016, 31.5165539 ] } },
{ "type": "Feature", "properties": { "osm_id": 2837335241, "osm_type": "node", "name": "PWD Office", "tags": { "addr:city": "Kullu", "addr:housenumber": "Office of the Superintending Engineer, 6th Circle", "addr:postcode": "175101", "addr:street": "Kullu - Telang Road", "name": "PWD Office", "office": "government" } }, "geometry": { "type": "Point", "coordinates": [ 77.1078686, 31.9592426 ] } },
{ "type": "Feature", "properties": { "osm_id": 6712250981, "osm_type": "node", "name": "Panchayat Bhawan Buchher", "tags": { "government": "office", "name": "Panchayat Bhawan Buchher", "office": "government" } }, "geometry": { "type": "Point", "coordinates": [ 77.4730599, 31.4998811 ] } },
{ "type": "Feature", "properties": { "osm_id": 4252285796, "osm_type": "node", "name": "Great Himalayan National Park Office", "tags": { "name": "Great Himalayan National Park Office", "office": "government", "phone": "01902265320" } }, "geometry": { "type": "Point", "coordinates": [ 77.4731826, 31.6679645 ] } },
{ "type": "Feature", "properties": { "osm_id": 6495346587, "osm_type": "node", "name": "Himachal Pradesh Forest Department Checkpoint", "tags": { "name": "Himachal Pradesh Forest Department Checkpoint", "office": "government" } }, "geometry": { "type": "Point", "coordinates": [ 77.4933028, 31.9976653 ] } },
{ "type": "Feature", "properties": { "osm_id": 12786557172, "osm_type": "node", "name": "Anganwadi center", "tags": { "name": "Anganwadi center", "office": "government" } }, "geometry": { "type": "Point", "coordinates": [ 77.156822, 32.059262 ] } },
{ "type": "Feature", "properties": { "osm_id": 12737286751, "osm_type": "node", "name": "Panchayat Office", "tags": { "name": "Panchayat Office", "office": "government" } }, "geometry": { "type": "Point", "coordinates": [ 77.1239299, 32.0673645 ] } },
{ "type": "Feature", "properties": { "osm_id": 12780633143, "osm_type": "node", "name": "Mandal Bhavan", "tags": { "name": "Mandal Bhavan", "office": "government" } }, "geometry": { "type": "Point", "coordinates": [ 77.1187467, 32.0879303 ] } },
{ "type": "Feature", "properties": { "osm_id": 10948347912, "osm_type": "node", "name": "GP Mandalgarh", "tags": { "government": "panchayath_office", "name": "GP Mandalgarh", "office": "government" } }, "geometry": { "type": "Point", "coordinates": [ 77.1223488, 32.0924756 ] } },
{ "type": "Feature", "properties": { "osm_id": 4258123891, "osm_type": "node", "name": "International Roerich Memorial Trust", "tags": { "name": "International Roerich Memorial Trust", "office": "government" } }, "geometry": { "type": "Point", "coordinates": [ 77.1677782, 32.1161524 ] } }
]
}
