{
"type": "FeatureCollection",
"name": "kullu_Bus_Stops_cleaned",
"crs": { "type": "name", "properties": { "name": "urn:ogc:def:crs:OGC:1.3:CRS84" } },
"features": [
{ "type": "Feature", "properties": { "osm_id": 49397576, "osm_type": "way", "name": "Old Bus S tand Rampur", "tags": { "amenity": "bus_station", "check_date": "2026-06-08", "name": "Old Bus S tand Rampur" } }, "geometry": { "type": "Polygon", "coordinates": [ [ [ 77.6314811, 31.450403 ], [ 77.6315431, 31.4503624 ], [ 77.6315616, 31.4503814 ], [ 77.6316197, 31.4503401 ], [ 77.6314231, 31.4501109 ], [ 77.6312951, 31.4501875 ], [ 77.6314811, 31.450403 ] ] ] } },
{ "type": "Feature", "properties": { "osm_id": 4857140823, "osm_type": "node", "name": "Jalori Pass", "tags": { "bus": "yes", "ele": "3132", "highway": "bus_stop", "name": "Jalori Pass", "name:en": "Jalori Pass", "public_transport": "platform" } }, "geometry": { "type": "Point", "coordinates": [ 77.3728916, 31.5371527 ] } },
{ "type": "Feature", "properties": { "osm_id": 4252324391, "osm_type": "node", "name": "Banjar", "tags": { "amenity": "bus_station", "name": "Banjar" } }, "geometry": { "type": "Point", "coordinates": [ 77.344267, 31.6441301 ] } },
{ "type": "Feature", "properties": { "osm_id": 10955930665, "osm_type": "node", "name": null, "tags": { "highway": "bus_stop" } }, "geometry": { "type": "Point", "coordinates": [ 77.3085115, 31.6634602 ] } },
{ "type": "Feature", "properties": { "osm_id": 10955970655, "osm_type": "node", "name": "Manglor", "tags": { "highway": "bus_stop", "name": "Manglor" } }, "geometry": { "type": "Point", "coordinates": [ 77.3034071, 31.6664581 ] } },
{ "type": "Feature", "properties": { "osm_id": 10955958462, "osm_type": "node", "name": "Larji", "tags": { "highway": "bus_stop", "name": "Larji" } }, "geometry": { "type": "Point", "coordinates": [ 77.2257165, 31.7264477 ] } },
{ "type": "Feature", "properties": { "osm_id": 540736201, "osm_type": "node", "name": "Chhingra", "tags": { "highway": "bus_stop", "name": "Chhingra" } }, "geometry": { "type": "Point", "coordinates": [ 77.2186107, 31.9789643 ] } },
{ "type": "Feature", "properties": { "osm_id": 2386691358, "osm_type": "node", "name": "Volvo bus stop", "tags": { "highway": "bus_stop", "name": "Volvo bus stop" } }, "geometry": { "type": "Point", "coordinates": [ 77.1511334, 31.8793874 ] } },
{ "type": "Feature", "properties": { "osm_id": 2386691364, "osm_type": "node", "name": null, "tags": { "highway": "bus_stop" } }, "geometry": { "type": "Point", "coordinates": [ 77.1498779, 31.8811308 ] } },
{ "type": "Feature", "properties": { "osm_id": 4530661193, "osm_type": "node", "name": "Sharabai", "tags": { "highway": "bus_stop", "name": "Sharabai", "name:en": "Sharabai" } }, "geometry": { "type": "Point", "coordinates": [ 77.1567518, 31.8655863 ] } },
{ "type": "Feature", "properties": { "osm_id": 540754174, "osm_type": "node", "name": null, "tags": { "highway": "bus_stop" } }, "geometry": { "type": "Point", "coordinates": [ 77.1804402, 31.9154932 ] } },
{ "type": "Feature", "properties": { "osm_id": 540749947, "osm_type": "node", "name": "Cheelaage", "tags": { "highway": "bus_stop", "name": "Cheelaage" } }, "geometry": { "type": "Point", "coordinates": [ 77.1809938, 31.9279059 ] } },
{ "type": "Feature", "properties": { "osm_id": 540744123, "osm_type": "node", "name": "Chhanikkhod", "tags": { "highway": "bus_stop", "name": "Chhanikkhod" } }, "geometry": { "type": "Point", "coordinates": [ 77.1863286, 31.9574519 ] } },
{ "type": "Feature", "properties": { "osm_id": 540744006, "osm_type": "node", "name": "Sharni", "tags": { "highway": "bus_stop", "name": "Sharni" } }, "geometry": { "type": "Point", "coordinates": [ 77.2024543, 31.9695067 ] } },
{ "type": "Feature", "properties": { "osm_id": 540736199, "osm_type": "node", "name": "Shat", "tags": { "highway": "bus_stop", "name": "Shat" } }, "geometry": { "type": "Point", "coordinates": [ 77.2148383, 31.9717044 ] } },
{ "type": "Feature", "properties": { "osm_id": 4258089605, "osm_type": "node", "name": null, "tags": { "highway": "bus_stop" } }, "geometry": { "type": "Point", "coordinates": [ 77.162989, 32.1106946 ] } },
{ "type": "Feature", "properties": { "osm_id": 6447492688, "osm_type": "node", "name": "15 Mile", "tags": { "highway": "bus_stop", "name": "15 Mile" } }, "geometry": { "type": "Point", "coordinates": [ 77.1545014, 32.1380455 ] } },
{ "type": "Feature", "properties": { "osm_id": 1208679036, "osm_type": "node", "name": "Bhuntar Bus Stand", "tags": { "amenity": "bus_station", "name": "Bhuntar Bus Stand" } }, "geometry": { "type": "Point", "coordinates": [ 77.1505773, 31.8812045 ] } },
{ "type": "Feature", "properties": { "osm_id": 4258020092, "osm_type": "node", "name": null, "tags": { "highway": "bus_stop" } }, "geometry": { "type": "Point", "coordinates": [ 77.1478556, 31.8831524 ] } },
{ "type": "Feature", "properties": { "osm_id": 540758666, "osm_type": "node", "name": "Hathithan", "tags": { "highway": "bus_stop", "name": "Hathithan" } }, "geometry": { "type": "Point", "coordinates": [ 77.1505122, 31.897649 ] } },
{ "type": "Feature", "properties": { "osm_id": 1599961252, "osm_type": "node", "name": null, "tags": { "bus": "yes", "highway": "bus_stop", "public_transport": "platform" } }, "geometry": { "type": "Point", "coordinates": [ 77.1350738, 31.9399088 ] } },
{ "type": "Feature", "properties": { "osm_id": 1599968859, "osm_type": "node", "name": null, "tags": { "highway": "bus_stop" } }, "geometry": { "type": "Point", "coordinates": [ 77.1391395, 31.9402256 ] } },
{ "type": "Feature", "properties": { "osm_id": 230141925, "osm_type": "way", "name": "Kullu Bus Station", "tags": { "amenity": "bus_station", "name": "Kullu Bus Station", "operator": "Himachal Pradesh Road Transport Corporation" } }, "geometry": { "type": "Polygon", "coordinates": [ [ [ 77.1108813, 31.9609479 ], [ 77.1105192, 31.9612454 ], [ 77.1102133, 31.961989 ], [ 77.1105856, 31.9619223 ], [ 77.1107048, 31.9618833 ], [ 77.1109076, 31.9617091 ], [ 77.1115141, 31.9611596 ], [ 77.1114451, 31.9610845 ], [ 77.1116382, 31.960775 ], [ 77.1119936, 31.9603099 ], [ 77.111789, 31.9600922 ], [ 77.1108146, 31.9608584 ], [ 77.1108813, 31.9609479 ] ] ] } },
{ "type": "Feature", "properties": { "osm_id": 699828742, "osm_type": "node", "name": "Kalang", "tags": { "highway": "bus_stop", "name": "Kalang" } }, "geometry": { "type": "Point", "coordinates": [ 77.0171511, 32.0109076 ] } },
{ "type": "Feature", "properties": { "osm_id": 10937052394, "osm_type": "node", "name": "Raison Bus Stop", "tags": { "bench": "yes", "highway": "bus_stop", "name": "Raison Bus Stop", "shelter": "yes" } }, "geometry": { "type": "Point", "coordinates": [ 77.13461, 32.0591032 ] } },
{ "type": "Feature", "properties": { "osm_id": 13898699217, "osm_type": "node", "name": "Himri Bus Stop", "tags": { "bus": "yes", "highway": "bus_stop", "name": "Himri Bus Stop", "public_transport": "platform" } }, "geometry": { "type": "Point", "coordinates": [ 77.0734851, 32.0617036 ] } },
{ "type": "Feature", "properties": { "osm_id": 540736203, "osm_type": "node", "name": "Jaan", "tags": { "highway": "bus_stop", "name": "Jaan" } }, "geometry": { "type": "Point", "coordinates": [ 77.2262052, 31.9863179 ] } },
{ "type": "Feature", "properties": { "osm_id": 540736205, "osm_type": "node", "name": "Bagiyanda", "tags": { "highway": "bus_stop", "name": "Bagiyanda" } }, "geometry": { "type": "Point", "coordinates": [ 77.2338766, 31.99458 ] } },
{ "type": "Feature", "properties": { "osm_id": 540736208, "osm_type": "node", "name": "Jari", "tags": { "highway": "bus_stop", "name": "Jari", "shelter": "no", "tactile_paving": "no" } }, "geometry": { "type": "Point", "coordinates": [ 77.2449163, 31.9964505 ] } },
{ "type": "Feature", "properties": { "osm_id": 4345397993, "osm_type": "node", "name": "Barshani", "tags": { "amenity": "bus_station", "bus": "yes", "name": "Barshani", "public_transport": "station" } }, "geometry": { "type": "Point", "coordinates": [ 77.4417351, 32.0007959 ] } },
{ "type": "Feature", "properties": { "osm_id": 773601560, "osm_type": "node", "name": "Barshaini", "tags": { "highway": "bus_stop", "name": "Barshaini" } }, "geometry": { "type": "Point", "coordinates": [ 77.4402444, 32.0009996 ] } },
{ "type": "Feature", "properties": { "osm_id": 7184090067, "osm_type": "node", "name": null, "tags": { "highway": "bus_stop" } }, "geometry": { "type": "Point", "coordinates": [ 77.2539418, 32.0023909 ] } },
{ "type": "Feature", "properties": { "osm_id": 3718071730, "osm_type": "node", "name": "Kasol", "tags": { "highway": "bus_stop", "name": "Kasol", "shelter": "yes" } }, "geometry": { "type": "Point", "coordinates": [ 77.3150565, 32.0101937 ] } },
{ "type": "Feature", "properties": { "osm_id": 540736213, "osm_type": "node", "name": "Kasol", "tags": { "bus": "yes", "highway": "bus_stop", "name": "Kasol", "public_transport": "stop_position", "shelter": "no" } }, "geometry": { "type": "Point", "coordinates": [ 77.3159401, 32.010561 ] } },
{ "type": "Feature", "properties": { "osm_id": 11990484635, "osm_type": "node", "name": "Kasol private bus stand", "tags": { "amenity": "bus_station", "name": "Kasol private bus stand" } }, "geometry": { "type": "Point", "coordinates": [ 77.3183387, 32.0113276 ] } },
{ "type": "Feature", "properties": { "osm_id": 4045250513, "osm_type": "node", "name": "Shared taxi stand", "tags": { "highway": "bus_stop", "name": "Shared taxi stand" } }, "geometry": { "type": "Point", "coordinates": [ 77.1607186, 32.1558524 ] } },
{ "type": "Feature", "properties": { "osm_id": 12918572670, "osm_type": "node", "name": "Manali Volvo Bus stand", "tags": { "bench": "yes", "bin": "yes", "bus": "yes", "highway": "bus_stop", "lit": "yes", "name": "Manali Volvo Bus stand", "public_transport": "platform", "shelter": "yes" } }, "geometry": { "type": "Point", "coordinates": [ 77.1878193, 32.2325528 ] } },
{ "type": "Feature", "properties": { "osm_id": 9852154217, "osm_type": "node", "name": "ISBT", "tags": { "bench": "yes", "bin": "yes", "highway": "bus_stop", "lit": "yes", "name": "ISBT", "name:en": "ISBT Manali", "shelter": "yes" } }, "geometry": { "type": "Point", "coordinates": [ 77.1898184, 32.2440615 ] } },
{ "type": "Feature", "properties": { "osm_id": 75891465, "osm_type": "way", "name": "Manali Inter State Bus Terminus", "tags": { "amenity": "bus_station", "bus": "yes", "internet_access": "yes", "internet_access:fee": "yes", "name": "Manali Inter State Bus Terminus", "public_transport": "station", "wheelchair": "no" } }, "geometry": { "type": "Polygon", "coordinates": [ [ [ 77.1897046, 32.2442076 ], [ 77.1899215, 32.2442412 ], [ 77.1901192, 32.24431 ], [ 77.1902443, 32.2441211 ], [ 77.1900423, 32.2440309 ], [ 77.1899774, 32.2439705 ], [ 77.1898678, 32.2439303 ], [ 77.189671, 32.2439325 ], [ 77.1894876, 32.2439169 ], [ 77.189507, 32.2440733 ], [ 77.1895402, 32.2441888 ], [ 77.1897046, 32.2442076 ] ] ] } },
{ "type": "Feature", "properties": { "osm_id": 12944854803, "osm_type": "node", "name": "Private Shared Taxi to Leh", "tags": { "amenity": "bus_station", "name": "Private Shared Taxi to Leh" } }, "geometry": { "type": "Point", "coordinates": [ 77.1900373, 32.2443476 ] } },
{ "type": "Feature", "properties": { "osm_id": 6839394790, "osm_type": "node", "name": "Tuk tuk to old Manali (150 Rs)", "tags": { "bus": "yes", "check_date": "2022-08-01", "highway": "bus_stop", "name": "Tuk tuk to old Manali (150 Rs)", "name:en": "Tuk tuk to old Manali. 150 Rs (08-2022)", "public_transport": "platform" } }, "geometry": { "type": "Point", "coordinates": [ 77.1898616, 32.2457645 ] } },
{ "type": "Feature", "properties": { "osm_id": 12942042709, "osm_type": "node", "name": "Auto Rickshaw Stand Manali", "tags": { "bench": "no", "bin": "no", "bus": "yes", "highway": "bus_stop", "lit": "yes", "name": "Auto Rickshaw Stand Manali", "public_transport": "platform", "shelter": "no", "tram": "yes" } }, "geometry": { "type": "Point", "coordinates": [ 77.1902194, 32.2461929 ] } },
{ "type": "Feature", "properties": { "osm_id": 12948685302, "osm_type": "node", "name": "Shared Taxi Bus Stop", "tags": { "highway": "bus_stop", "name": "Shared Taxi Bus Stop" } }, "geometry": { "type": "Point", "coordinates": [ 77.1800833, 32.2526584 ] } },
{ "type": "Feature", "properties": { "osm_id": 4409043192, "osm_type": "node", "name": null, "tags": { "highway": "bus_stop", "operator": "HRTCHP" } }, "geometry": { "type": "Point", "coordinates": [ 77.15809, 32.3150918 ] } }
]
}
