{
"type": "FeatureCollection",
"name": "mandi_Bus_Stops_cleaned",
"crs": { "type": "name", "properties": { "name": "urn:ogc:def:crs:OGC:1.3:CRS84" } },
"features": [
{ "type": "Feature", "properties": { "osm_id": 5770208553, "osm_type": "node", "name": "Kangu", "tags": { "bench": "yes", "bus": "yes", "highway": "bus_stop", "name": "Kangu", "public_transport": "platform", "shelter": "yes" } }, "geometry": { "type": "Point", "coordinates": [ 76.8441574, 31.4303398 ] } },
{ "type": "Feature", "properties": { "osm_id": 5763478810, "osm_type": "node", "name": null, "tags": { "bench": "yes", "bus": "yes", "highway": "bus_stop", "public_transport": "platform", "shelter": "yes" } }, "geometry": { "type": "Point", "coordinates": [ 76.8845372, 31.5174006 ] } },
{ "type": "Feature", "properties": { "osm_id": 5763458283, "osm_type": "node", "name": null, "tags": { "bench": "yes", "bus": "yes", "highway": "bus_stop", "public_transport": "platform", "shelter": "yes" } }, "geometry": { "type": "Point", "coordinates": [ 76.8841681, 31.5174533 ] } },
{ "type": "Feature", "properties": { "osm_id": 583220817, "osm_type": "node", "name": "BBMB Colony Bus Stop", "tags": { "highway": "bus_stop", "name": "BBMB Colony Bus Stop", "shelter": "yes" } }, "geometry": { "type": "Point", "coordinates": [ 76.9083737, 31.5282244 ] } },
{ "type": "Feature", "properties": { "osm_id": 583228553, "osm_type": "node", "name": "BBMB Colony Bus Station", "tags": { "amenity": "bus_station", "name": "BBMB Colony Bus Station" } }, "geometry": { "type": "Point", "coordinates": [ 76.904732, 31.533723 ] } },
{ "type": "Feature", "properties": { "osm_id": 11126807527, "osm_type": "node", "name": null, "tags": { "highway": "bus_stop" } }, "geometry": { "type": "Point", "coordinates": [ 76.8705924, 31.5340124 ] } },
{ "type": "Feature", "properties": { "osm_id": 45852248, "osm_type": "way", "name": "Sundernagar Bus Station", "tags": { "amenity": "bus_station", "name": "Sundernagar Bus Station" } }, "geometry": { "type": "Polygon", "coordinates": [ [ [ 76.8923815, 31.5373918 ], [ 76.8924326, 31.5372124 ], [ 76.8924867, 31.5369895 ], [ 76.8925775, 31.5364463 ], [ 76.8921012, 31.5363921 ], [ 76.8919936, 31.5366794 ], [ 76.8919666, 31.5367614 ], [ 76.8919215, 31.5368972 ], [ 76.8918884, 31.53701 ], [ 76.8918523, 31.5371509 ], [ 76.8918162, 31.5373123 ], [ 76.8923815, 31.5373918 ] ] ] } },
{ "type": "Feature", "properties": { "osm_id": 11126772757, "osm_type": "node", "name": null, "tags": { "highway": "bus_stop" } }, "geometry": { "type": "Point", "coordinates": [ 76.8518798, 31.5400712 ] } },
{ "type": "Feature", "properties": { "osm_id": 8688492570, "osm_type": "node", "name": "Shildi Bus Stop", "tags": { "bus": "yes", "highway": "bus_stop", "name": "Shildi Bus Stop", "public_transport": "platform" } }, "geometry": { "type": "Point", "coordinates": [ 76.778585, 31.5349723 ] } },
{ "type": "Feature", "properties": { "osm_id": 2380803095, "osm_type": "node", "name": null, "tags": { "amenity": "bus_station" } }, "geometry": { "type": "Point", "coordinates": [ 76.7355566, 31.6980804 ] } },
{ "type": "Feature", "properties": { "osm_id": 1083320251, "osm_type": "way", "name": null, "tags": { "amenity": "bus_station" } }, "geometry": { "type": "Polygon", "coordinates": [ [ [ 76.6534583, 31.8548738 ], [ 76.6538928, 31.8546915 ], [ 76.6538054, 31.8545412 ], [ 76.6533709, 31.8547234 ], [ 76.6534583, 31.8548738 ] ] ] } },
{ "type": "Feature", "properties": { "osm_id": 493705083, "osm_type": "way", "name": "Joginder Nagar Bus Depot", "tags": { "amenity": "bus_station", "internet_access": "wlan", "name": "Joginder Nagar Bus Depot", "name:en": "Joginder Nagar ISBT", "name:hi": "जोगेंदर नगर बस अड्डा" } }, "geometry": { "type": "Polygon", "coordinates": [ [ [ 76.7891014, 31.9902426 ], [ 76.7892784, 31.9904883 ], [ 76.7898336, 31.9903563 ], [ 76.7896485, 31.9901857 ], [ 76.7892596, 31.9900288 ], [ 76.7891014, 31.9902426 ] ] ] } },
{ "type": "Feature", "properties": { "osm_id": 11126804282, "osm_type": "node", "name": null, "tags": { "highway": "bus_stop" } }, "geometry": { "type": "Point", "coordinates": [ 76.8382231, 31.5402792 ] } },
{ "type": "Feature", "properties": { "osm_id": 5770208462, "osm_type": "node", "name": "Naresh Chowk", "tags": { "bench": "yes", "bus": "yes", "highway": "bus_stop", "name": "Naresh Chowk", "public_transport": "platform", "shelter": "yes" } }, "geometry": { "type": "Point", "coordinates": [ 76.8976917, 31.544242 ] } },
{ "type": "Feature", "properties": { "osm_id": 11126805846, "osm_type": "node", "name": "Leda", "tags": { "highway": "bus_stop", "name": "Leda" } }, "geometry": { "type": "Point", "coordinates": [ 76.8253652, 31.5550487 ] } },
{ "type": "Feature", "properties": { "osm_id": 11126761670, "osm_type": "node", "name": null, "tags": { "highway": "bus_stop" } }, "geometry": { "type": "Point", "coordinates": [ 76.8223389, 31.5876257 ] } },
{ "type": "Feature", "properties": { "osm_id": 11126799259, "osm_type": "node", "name": null, "tags": { "highway": "bus_stop" } }, "geometry": { "type": "Point", "coordinates": [ 76.8210917, 31.5962018 ] } },
{ "type": "Feature", "properties": { "osm_id": 11126808278, "osm_type": "node", "name": null, "tags": { "highway": "bus_stop" } }, "geometry": { "type": "Point", "coordinates": [ 76.8269138, 31.601407 ] } },
{ "type": "Feature", "properties": { "osm_id": 561088471, "osm_type": "node", "name": "Galma", "tags": { "highway": "bus_stop", "name": "Galma", "shelter": "yes" } }, "geometry": { "type": "Point", "coordinates": [ 76.8747614, 31.6030526 ] } },
{ "type": "Feature", "properties": { "osm_id": 1187612642, "osm_type": "node", "name": "Bus Stand", "tags": { "amenity": "bus_station", "name": "Bus Stand" } }, "geometry": { "type": "Point", "coordinates": [ 76.834244, 31.6329543 ] } },
{ "type": "Feature", "properties": { "osm_id": 4143915086, "osm_type": "node", "name": "Naina Devi Bus Stop", "tags": { "highway": "bus_stop", "name": "Naina Devi Bus Stop" } }, "geometry": { "type": "Point", "coordinates": [ 76.8174385, 31.6409868 ] } },
{ "type": "Feature", "properties": { "osm_id": 5768020731, "osm_type": "node", "name": null, "tags": { "bench": "yes", "bus": "yes", "highway": "bus_stop", "public_transport": "platform", "shelter": "yes" } }, "geometry": { "type": "Point", "coordinates": [ 76.9332164, 31.7070069 ] } },
{ "type": "Feature", "properties": { "osm_id": 5122376439, "osm_type": "node", "name": null, "tags": { "highway": "bus_stop" } }, "geometry": { "type": "Point", "coordinates": [ 76.9342561, 31.7131681 ] } },
{ "type": "Feature", "properties": { "osm_id": 748563785, "osm_type": "way", "name": "HRTC Bus Stand Kotli", "tags": { "addr:city": "Kotli", "addr:housenumber": "Kotli", "addr:postcode": "175003", "addr:street": "Kotli", "amenity": "bus_station", "building": "yes", "bus": "yes", "internet_access": "yes", "name": "HRTC Bus Stand Kotli", "name:hi": "बस स्टेंड कोटली", "operator": "HRTC", "public_transport": "station" } }, "geometry": { "type": "Polygon", "coordinates": [ [ [ 76.8757512, 31.7540114 ], [ 76.8758075, 31.7536477 ], [ 76.8752295, 31.7537834 ], [ 76.8753797, 31.754203 ], [ 76.8754213, 31.7540605 ], [ 76.8755607, 31.753967 ], [ 76.8757512, 31.7540114 ] ] ] } },
{ "type": "Feature", "properties": { "osm_id": 540540805, "osm_type": "node", "name": "Barot", "tags": { "highway": "bus_stop", "name": "Barot" } }, "geometry": { "type": "Point", "coordinates": [ 76.8459261, 32.0382678 ] } },
{ "type": "Feature", "properties": { "osm_id": 6228833846, "osm_type": "node", "name": "Sukhbagh", "tags": { "amenity": "shelter", "highway": "bus_stop", "name": "Sukhbagh" } }, "geometry": { "type": "Point", "coordinates": [ 76.7223224, 32.0203981 ] } },
{ "type": "Feature", "properties": { "osm_id": 11293205370, "osm_type": "node", "name": null, "tags": { "bus": "yes", "highway": "bus_stop", "public_transport": "platform" } }, "geometry": { "type": "Point", "coordinates": [ 76.7099315, 32.0239608 ] } },
{ "type": "Feature", "properties": { "osm_id": 11458527912, "osm_type": "node", "name": null, "tags": { "bus": "yes", "highway": "bus_stop", "public_transport": "platform" } }, "geometry": { "type": "Point", "coordinates": [ 76.7213278, 32.0324956 ] } },
{ "type": "Feature", "properties": { "osm_id": 626982308, "osm_type": "node", "name": "Tattapani", "tags": { "highway": "bus_stop", "name": "Tattapani" } }, "geometry": { "type": "Point", "coordinates": [ 77.0888846, 31.2473786 ] } },
{ "type": "Feature", "properties": { "osm_id": 626949106, "osm_type": "node", "name": "Kalda", "tags": { "highway": "bus_stop", "name": "Kalda" } }, "geometry": { "type": "Point", "coordinates": [ 76.9543211, 31.3341897 ] } },
{ "type": "Feature", "properties": { "osm_id": 5142391671, "osm_type": "node", "name": "Thunagala Bus Stop", "tags": { "highway": "bus_stop", "name": "Thunagala Bus Stop" } }, "geometry": { "type": "Point", "coordinates": [ 77.0973338, 31.4839022 ] } },
{ "type": "Feature", "properties": { "osm_id": 5142523691, "osm_type": "node", "name": "Jahal Bus Stop", "tags": { "highway": "bus_stop", "name": "Jahal Bus Stop" } }, "geometry": { "type": "Point", "coordinates": [ 77.0952013, 31.4916458 ] } },
{ "type": "Feature", "properties": { "osm_id": 5142523692, "osm_type": "node", "name": "Jachh Bus Stop", "tags": { "highway": "bus_stop", "name": "Jachh Bus Stop" } }, "geometry": { "type": "Point", "coordinates": [ 77.0752163, 31.5184353 ] } },
{ "type": "Feature", "properties": { "osm_id": 5142975950, "osm_type": "node", "name": "Tuna Bus Stop", "tags": { "highway": "bus_stop", "name": "Tuna Bus Stop" } }, "geometry": { "type": "Point", "coordinates": [ 77.0562221, 31.5291762 ] } },
{ "type": "Feature", "properties": { "osm_id": 5142523718, "osm_type": "node", "name": "Shala Bus Stop", "tags": { "highway": "bus_stop", "name": "Shala Bus Stop" } }, "geometry": { "type": "Point", "coordinates": [ 77.0386275, 31.5393813 ] } },
{ "type": "Feature", "properties": { "osm_id": 5768020430, "osm_type": "node", "name": "Nalsar;Baggi", "tags": { "bench": "yes", "bus": "yes", "highway": "bus_stop", "name": "Nalsar;Baggi", "name:hi": "नलसर;बग्गी", "public_transport": "platform", "shelter": "yes" } }, "geometry": { "type": "Point", "coordinates": [ 76.9586403, 31.582373 ] } },
{ "type": "Feature", "properties": { "osm_id": 5764482284, "osm_type": "node", "name": null, "tags": { "bus": "yes", "highway": "bus_stop", "public_transport": "platform" } }, "geometry": { "type": "Point", "coordinates": [ 76.9353952, 31.7043192 ] } },
{ "type": "Feature", "properties": { "osm_id": 10736507577, "osm_type": "node", "name": "Thachi Bus Stop", "tags": { "highway": "bus_stop", "name": "Thachi Bus Stop" } }, "geometry": { "type": "Point", "coordinates": [ 77.209421, 31.6677793 ] } },
{ "type": "Feature", "properties": { "osm_id": 9848013204, "osm_type": "node", "name": "Tachi", "tags": { "amenity": "bus_station", "name": "Tachi" } }, "geometry": { "type": "Point", "coordinates": [ 77.2064953, 31.6816141 ] } },
{ "type": "Feature", "properties": { "osm_id": 5578032576, "osm_type": "node", "name": "Mandi Bus Station", "tags": { "amenity": "bus_station", "bus": "yes", "name": "Mandi Bus Station", "operator": "HRTC", "public_transport": "station" } }, "geometry": { "type": "Point", "coordinates": [ 76.9394439, 31.7047242 ] } },
{ "type": "Feature", "properties": { "osm_id": 172518437, "osm_type": "way", "name": "ISBT Mandi", "tags": { "amenity": "bus_station", "name": "ISBT Mandi", "wheelchair": "yes" } }, "geometry": { "type": "Polygon", "coordinates": [ [ [ 76.9358401, 31.7051743 ], [ 76.9359483, 31.7055078 ], [ 76.9363029, 31.7053903 ], [ 76.937575, 31.705061 ], [ 76.9377494, 31.7050383 ], [ 76.9376984, 31.70481 ], [ 76.9375214, 31.7048352 ], [ 76.9371619, 31.7048466 ], [ 76.9367247, 31.7047758 ], [ 76.9363278, 31.7048853 ], [ 76.9361374, 31.7050451 ], [ 76.9358401, 31.7051743 ] ] ] } },
{ "type": "Feature", "properties": { "osm_id": 5768341822, "osm_type": "node", "name": null, "tags": { "bench": "no", "bus": "yes", "highway": "bus_stop", "public_transport": "platform", "shelter": "no" } }, "geometry": { "type": "Point", "coordinates": [ 76.9393531, 31.7095125 ] } },
{ "type": "Feature", "properties": { "osm_id": 5768342684, "osm_type": "node", "name": null, "tags": { "bench": "yes", "bus": "yes", "highway": "bus_stop", "public_transport": "platform", "shelter": "yes" } }, "geometry": { "type": "Point", "coordinates": [ 76.9449077, 31.7426592 ] } },
{ "type": "Feature", "properties": { "osm_id": 11655843493, "osm_type": "node", "name": null, "tags": { "highway": "bus_stop" } }, "geometry": { "type": "Point", "coordinates": [ 77.0947546, 31.7577113 ] } }
]
}
