{
"type": "FeatureCollection",
"name": "mandi_Power_Substations_cleaned",
"crs": { "type": "name", "properties": { "name": "urn:ogc:def:crs:OGC:1.3:CRS84" } },
"features": [
{ "type": "Feature", "properties": { "osm_id": 330412391, "osm_type": "way", "name": "Larji", "tags": { "name": "Larji", "power": "substation" } }, "geometry": { "type": "Polygon", "coordinates": [ [ [ 77.1664435, 31.6997914 ], [ 77.1664498, 31.6996126 ], [ 77.1658675, 31.6996161 ], [ 77.1658339, 31.6997825 ], [ 77.1664435, 31.6997914 ] ] ] } },
{ "type": "Feature", "properties": { "osm_id": 418309783, "osm_type": "way", "name": "Banala", "tags": { "name": "Banala", "power": "substation", "voltage": "400000" } }, "geometry": { "type": "Polygon", "coordinates": [ [ [ 77.2011825, 31.7643242 ], [ 77.2010592, 31.763786 ], [ 77.2007685, 31.7634181 ], [ 77.1999774, 31.7638272 ], [ 77.198867, 31.7642879 ], [ 77.1989214, 31.7645887 ], [ 77.1992218, 31.7653048 ], [ 77.1996725, 31.7651497 ], [ 77.1996408, 31.7650804 ], [ 77.2000753, 31.7649104 ], [ 77.2005849, 31.7652616 ], [ 77.2015308, 31.7648055 ], [ 77.2011825, 31.7643242 ] ] ] } },
{ "type": "Feature", "properties": { "osm_id": 330267956, "osm_type": "way", "name": "Kangoo", "tags": { "name": "Kangoo", "power": "substation", "voltage": "220000;132000" } }, "geometry": { "type": "Polygon", "coordinates": [ [ [ 76.8324761, 31.4239669 ], [ 76.8335523, 31.4241985 ], [ 76.834031, 31.4242451 ], [ 76.836513, 31.4244574 ], [ 76.8368183, 31.4244928 ], [ 76.837035, 31.4243818 ], [ 76.8362548, 31.4236002 ], [ 76.8359665, 31.4222847 ], [ 76.83506, 31.4223635 ], [ 76.8324234, 31.4231049 ], [ 76.8320785, 31.4236822 ], [ 76.8324761, 31.4239669 ] ] ] } },
{ "type": "Feature", "properties": { "osm_id": 1122151870, "osm_type": "way", "name": null, "tags": { "power": "substation" } }, "geometry": { "type": "Polygon", "coordinates": [ [ [ 76.7921552, 31.6685265 ], [ 76.7923172, 31.6682719 ], [ 76.7920544, 31.6681507 ], [ 76.7918923, 31.6684053 ], [ 76.7921552, 31.6685265 ] ] ] } },
{ "type": "Feature", "properties": { "osm_id": 1467684041, "osm_type": "way", "name": null, "tags": { "power": "substation" } }, "geometry": { "type": "Polygon", "coordinates": [ [ [ 76.6674927, 31.8686583 ], [ 76.667498, 31.8683599 ], [ 76.6669697, 31.868369 ], [ 76.6669375, 31.8686424 ], [ 76.6674927, 31.8686583 ] ] ] } },
{ "type": "Feature", "properties": { "osm_id": 505623523, "osm_type": "way", "name": "UHL 3", "tags": { "name": "UHL 3", "power": "substation", "voltage": "132000" } }, "geometry": { "type": "Polygon", "coordinates": [ [ [ 76.7223925, 31.8737584 ], [ 76.7230084, 31.8730475 ], [ 76.722546, 31.8727585 ], [ 76.7219301, 31.8734694 ], [ 76.7223925, 31.8737584 ] ] ] } },
{ "type": "Feature", "properties": { "osm_id": 1467684038, "osm_type": "way", "name": null, "tags": { "power": "substation" } }, "geometry": { "type": "Polygon", "coordinates": [ [ [ 76.8092743, 31.9131258 ], [ 76.8094701, 31.9129687 ], [ 76.8095022, 31.9128992 ], [ 76.809525, 31.9125509 ], [ 76.8094781, 31.9124655 ], [ 76.8091938, 31.9126579 ], [ 76.809175, 31.9131337 ], [ 76.8092743, 31.9131258 ] ] ] } },
{ "type": "Feature", "properties": { "osm_id": 505623528, "osm_type": "way", "name": "Bassi", "tags": { "name": "Bassi", "power": "substation", "voltage": "132000" } }, "geometry": { "type": "Polygon", "coordinates": [ [ [ 76.7979594, 31.9544164 ], [ 76.7979674, 31.9544688 ], [ 76.7984395, 31.9546531 ], [ 76.7988499, 31.9539362 ], [ 76.7984636, 31.9535858 ], [ 76.7979325, 31.9533991 ], [ 76.7976804, 31.9539499 ], [ 76.7979594, 31.9544164 ] ] ] } },
{ "type": "Feature", "properties": { "osm_id": 1467684042, "osm_type": "way", "name": null, "tags": { "power": "substation" } }, "geometry": { "type": "Polygon", "coordinates": [ [ [ 76.8920754, 31.9657354 ], [ 76.8921693, 31.9656296 ], [ 76.8918595, 31.9654783 ], [ 76.891775, 31.9655841 ], [ 76.8920754, 31.9657354 ] ] ] } },
{ "type": "Feature", "properties": { "osm_id": 493723418, "osm_type": "way", "name": "Joginder Nagar", "tags": { "name": "Joginder Nagar", "plant:source": "hydro", "power": "substation", "voltage": "132000" } }, "geometry": { "type": "Polygon", "coordinates": [ [ [ 76.8082668, 31.9913877 ], [ 76.8085028, 31.9900183 ], [ 76.8077803, 31.9899287 ], [ 76.8075442, 31.9912981 ], [ 76.8082668, 31.9913877 ] ] ] } },
{ "type": "Feature", "properties": { "osm_id": 1374540227, "osm_type": "way", "name": null, "tags": { "power": "substation", "substation": "generation" } }, "geometry": { "type": "Polygon", "coordinates": [ [ [ 76.8456665, 32.0422681 ], [ 76.8452507, 32.0416497 ], [ 76.8449315, 32.041802 ], [ 76.8453419, 32.0424227 ], [ 76.8456665, 32.0422681 ] ] ] } }
]
}
