{
"type": "FeatureCollection",
"name": "mandi_Fire_Stations_cleaned",
"crs": { "type": "name", "properties": { "name": "urn:ogc:def:crs:OGC:1.3:CRS84" } },
"features": [
{ "type": "Feature", "properties": { "osm_id": 10911277208, "osm_type": "node", "name": "Mandi fire station", "tags": { "amenity": "fire_station", "name": "Mandi fire station" } }, "geometry": { "type": "Point", "coordinates": [ 76.9449796, 31.6829077 ] } },
{ "type": "Feature", "properties": { "osm_id": 5577800978, "osm_type": "node", "name": "Fire Station Mandi", "tags": { "amenity": "fire_station", "name": "Fire Station Mandi", "name:hi": "दमकल केन्द्र मण्डी" } }, "geometry": { "type": "Point", "coordinates": [ 76.9444758, 31.70198 ] } }
]
}
