{
"type": "FeatureCollection",
"name": "mandi_Government_Offices_cleaned",
"crs": { "type": "name", "properties": { "name": "urn:ogc:def:crs:OGC:1.3:CRS84" } },
"features": [
{ "type": "Feature", "properties": { "osm_id": 6712309192, "osm_type": "node", "name": "Panchayat Bhawan Behna", "tags": { "government": "office", "name": "Panchayat Bhawan Behna", "office": "government" } }, "geometry": { "type": "Point", "coordinates": [ 77.3873963, 31.3617038 ] } },
{ "type": "Feature", "properties": { "osm_id": 9838795113, "osm_type": "node", "name": "Tehsil office Tachi", "tags": { "name": "Tehsil office Tachi", "office": "government" } }, "geometry": { "type": "Point", "coordinates": [ 77.2080508, 31.6800404 ] } },
{ "type": "Feature", "properties": { "osm_id": 5577786687, "osm_type": "node", "name": "H.P. Housing and Urban Planning Development Authority- Office of Executive Engineer", "tags": { "government": "administrative", "name": "H.P. Housing and Urban Planning Development Authority- Office of Executive Engineer", "office": "government" } }, "geometry": { "type": "Point", "coordinates": [ 76.9439027, 31.7033096 ] } },
{ "type": "Feature", "properties": { "osm_id": 5580159028, "osm_type": "node", "name": "National Informatics Center", "tags": { "name": "National Informatics Center", "office": "government", "wheelchair": "limited" } }, "geometry": { "type": "Point", "coordinates": [ 76.9324343, 31.7088354 ] } },
{ "type": "Feature", "properties": { "osm_id": 5580159030, "osm_type": "node", "name": "Deputy Commissioner Office", "tags": { "name": "Deputy Commissioner Office", "office": "government", "wheelchair": "yes" } }, "geometry": { "type": "Point", "coordinates": [ 76.9327814, 31.709164 ] } },
{ "type": "Feature", "properties": { "osm_id": 5580159031, "osm_type": "node", "name": "Integrates Community Service Centre", "tags": { "name": "Integrates Community Service Centre", "office": "government", "wheelchair": "limited" } }, "geometry": { "type": "Point", "coordinates": [ 76.9330589, 31.709168 ] } },
{ "type": "Feature", "properties": { "osm_id": 748563791, "osm_type": "way", "name": "BSNL Office Kotli", "tags": { "addr:city": "Kotli", "addr:housenumber": "Kotli", "addr:postcode": "175003", "addr:street": "Hospital Road Kotli", "building": "yes", "name": "BSNL Office Kotli", "office": "government" } }, "geometry": { "type": "Polygon", "coordinates": [ [ [ 76.871448, 31.7599713 ], [ 76.8714968, 31.7599678 ], [ 76.8715761, 31.7599592 ], [ 76.8715801, 31.7598027 ], [ 76.8713728, 31.7597768 ], [ 76.8713677, 31.7599739 ], [ 76.871448, 31.7599713 ] ] ] } },
{ "type": "Feature", "properties": { "osm_id": 748563792, "osm_type": "way", "name": "HPPWD Sub Division Kotli", "tags": { "addr:city": "Kotli", "addr:housenumber": "Kotli", "addr:postcode": "175003", "addr:street": "Hospital Road Kotli", "building": "yes", "name": "HPPWD Sub Division Kotli", "office": "government" } }, "geometry": { "type": "Polygon", "coordinates": [ [ [ 76.8716094, 31.7601783 ], [ 76.8715921, 31.7600434 ], [ 76.8715698, 31.7600447 ], [ 76.8715021, 31.7600488 ], [ 76.8714325, 31.760053 ], [ 76.8714358, 31.7601417 ], [ 76.8714376, 31.7601921 ], [ 76.8716094, 31.7601783 ] ] ] } },
{ "type": "Feature", "properties": { "osm_id": 748563787, "osm_type": "way", "name": "Tehsil Office Kotli", "tags": { "addr:city": "Kotli", "addr:housenumber": "Kotli", "addr:postcode": "175003", "addr:street": "Kotli", "building": "yes", "government": "administrative", "name": "Tehsil Office Kotli", "office": "government" } }, "geometry": { "type": "Polygon", "coordinates": [ [ [ 76.8698349, 31.7613642 ], [ 76.8698442, 31.7613245 ], [ 76.8698512, 31.7612927 ], [ 76.8698302, 31.7612867 ], [ 76.8697765, 31.7612709 ], [ 76.8697181, 31.7612609 ], [ 76.8697298, 31.7611974 ], [ 76.869494, 31.7611279 ], [ 76.8694893, 31.7613304 ], [ 76.8698349, 31.7613642 ] ] ] } }
]
}
