{
"type": "FeatureCollection",
"name": "mandi_Villages_cleaned",
"crs": { "type": "name", "properties": { "name": "urn:ogc:def:crs:OGC:1.3:CRS84" } },
"features": [
{ "type": "Feature", "properties": { "osm_id": 8809038101, "osm_type": "node", "name": "Jeora", "tags": { "name": "Jeora", "place": "village" } }, "geometry": { "type": "Point", "coordinates": [ 77.0939398, 31.2485254 ] } },
{ "type": "Feature", "properties": { "osm_id": 626971143, "osm_type": "node", "name": "Bali", "tags": { "name": "Bali", "name:ja": "バリ", "place": "village" } }, "geometry": { "type": "Point", "coordinates": [ 77.0346467, 31.2815041 ] } },
{ "type": "Feature", "properties": { "osm_id": 2972385996, "osm_type": "node", "name": "Behli", "tags": { "ele": "1349", "name": "Behli", "place": "village" } }, "geometry": { "type": "Point", "coordinates": [ 77.0316696, 31.3022327 ] } },
{ "type": "Feature", "properties": { "osm_id": 626971348, "osm_type": "node", "name": "Hada", "tags": { "name": "Hada", "place": "village" } }, "geometry": { "type": "Point", "coordinates": [ 77.0061314, 31.3052844 ] } },
{ "type": "Feature", "properties": { "osm_id": 626971389, "osm_type": "node", "name": "Boi", "tags": { "name": "Boi", "place": "village" } }, "geometry": { "type": "Point", "coordinates": [ 77.0052901, 31.3063391 ] } },
{ "type": "Feature", "properties": { "osm_id": 626961245, "osm_type": "node", "name": "Chalaug", "tags": { "name": "Chalaug", "place": "village" } }, "geometry": { "type": "Point", "coordinates": [ 76.993349, 31.3111427 ] } },
{ "type": "Feature", "properties": { "osm_id": 626949017, "osm_type": "node", "name": "Doghari", "tags": { "name": "Doghari", "place": "village" } }, "geometry": { "type": "Point", "coordinates": [ 76.9803615, 31.3195088 ] } },
{ "type": "Feature", "properties": { "osm_id": 2972388751, "osm_type": "node", "name": "chadog", "tags": { "ele": "1850", "name": "chadog", "place": "village" } }, "geometry": { "type": "Point", "coordinates": [ 77.0298126, 31.3227274 ] } },
{ "type": "Feature", "properties": { "osm_id": 2972363954, "osm_type": "node", "name": "kinder", "tags": { "ele": "1620", "name": "kinder", "place": "village" } }, "geometry": { "type": "Point", "coordinates": [ 77.0352576, 31.3230668 ] } },
{ "type": "Feature", "properties": { "osm_id": 2972385994, "osm_type": "node", "name": "jandrehad", "tags": { "ele": "1905", "name": "jandrehad", "place": "village" } }, "geometry": { "type": "Point", "coordinates": [ 77.0268435, 31.3302258 ] } },
{ "type": "Feature", "properties": { "osm_id": 3098608739, "osm_type": "node", "name": "Niyari", "tags": { "name": "Niyari", "place": "village" } }, "geometry": { "type": "Point", "coordinates": [ 76.9455786, 31.3353791 ] } },
{ "type": "Feature", "properties": { "osm_id": 3066595116, "osm_type": "node", "name": "Ayn", "tags": { "name": "Ayn", "place": "village" } }, "geometry": { "type": "Point", "coordinates": [ 76.8770525, 31.3547167 ] } },
{ "type": "Feature", "properties": { "osm_id": 626948808, "osm_type": "node", "name": "Kalda", "tags": { "name": "Kalda", "place": "village" } }, "geometry": { "type": "Point", "coordinates": [ 76.9564784, 31.3314624 ] } },
{ "type": "Feature", "properties": { "osm_id": 2972388750, "osm_type": "node", "name": "feglu", "tags": { "name": "feglu", "place": "village" } }, "geometry": { "type": "Point", "coordinates": [ 77.0245915, 31.3907685 ] } },
{ "type": "Feature", "properties": { "osm_id": 2972363952, "osm_type": "node", "name": "nehri", "tags": { "ele": "2121", "name": "nehri", "place": "village" } }, "geometry": { "type": "Point", "coordinates": [ 77.0277894, 31.4008022 ] } },
{ "type": "Feature", "properties": { "osm_id": 9326928732, "osm_type": "node", "name": "Badhreda , Khil", "tags": { "name": "Badhreda , Khil", "place": "village" } }, "geometry": { "type": "Point", "coordinates": [ 77.014149, 31.4575636 ] } },
{ "type": "Feature", "properties": { "osm_id": 550207654, "osm_type": "node", "name": "Rohanda", "tags": { "name": "Rohanda", "place": "village" } }, "geometry": { "type": "Point", "coordinates": [ 77.0274536, 31.4615886 ] } },
{ "type": "Feature", "properties": { "osm_id": 2972388748, "osm_type": "node", "name": "Ghidi", "tags": { "ele": "2906", "name": "Ghidi", "place": "village" } }, "geometry": { "type": "Point", "coordinates": [ 76.996994, 31.4776834 ] } },
{ "type": "Feature", "properties": { "osm_id": 550176611, "osm_type": "node", "name": "Jai Devi", "tags": { "name": "Jai Devi", "place": "village" } }, "geometry": { "type": "Point", "coordinates": [ 76.9511815, 31.501425 ] } },
{ "type": "Feature", "properties": { "osm_id": 7932343660, "osm_type": "node", "name": "Luhain", "tags": { "name": "Luhain", "place": "village" } }, "geometry": { "type": "Point", "coordinates": [ 76.9911145, 31.5053491 ] } },
{ "type": "Feature", "properties": { "osm_id": 7932343669, "osm_type": "node", "name": "Barjohru", "tags": { "name": "Barjohru", "place": "village" } }, "geometry": { "type": "Point", "coordinates": [ 77.0286655, 31.54504 ] } },
{ "type": "Feature", "properties": { "osm_id": 7932399385, "osm_type": "node", "name": "Kharans", "tags": { "name": "Kharans", "place": "village" } }, "geometry": { "type": "Point", "coordinates": [ 77.0338154, 31.5543658 ] } },
{ "type": "Feature", "properties": { "osm_id": 7998767529, "osm_type": "node", "name": "Pangna", "tags": { "name": "Pangna", "place": "village" } }, "geometry": { "type": "Point", "coordinates": [ 77.1234226, 31.3855341 ] } },
{ "type": "Feature", "properties": { "osm_id": 2972363951, "osm_type": "node", "name": "pandar", "tags": { "ele": "2218", "name": "pandar", "place": "village" } }, "geometry": { "type": "Point", "coordinates": [ 77.0443954, 31.4179611 ] } },
{ "type": "Feature", "properties": { "osm_id": 2972385993, "osm_type": "node", "name": "bada", "tags": { "ele": "2218", "name": "bada", "place": "village" } }, "geometry": { "type": "Point", "coordinates": [ 77.0407486, 31.4236641 ] } },
{ "type": "Feature", "properties": { "osm_id": 2972388749, "osm_type": "node", "name": "pandar", "tags": { "name": "pandar", "place": "village" } }, "geometry": { "type": "Point", "coordinates": [ 77.0534883, 31.4353543 ] } },
{ "type": "Feature", "properties": { "osm_id": 2972363950, "osm_type": "node", "name": "chowki", "tags": { "ele": "2227", "name": "chowki", "place": "village" } }, "geometry": { "type": "Point", "coordinates": [ 77.0496456, 31.4436007 ] } },
{ "type": "Feature", "properties": { "osm_id": 7932343666, "osm_type": "node", "name": "Shala", "tags": { "name": "Shala", "place": "village" } }, "geometry": { "type": "Point", "coordinates": [ 77.0392442, 31.5394806 ] } },
{ "type": "Feature", "properties": { "osm_id": 7934496963, "osm_type": "node", "name": "Baksaid", "tags": { "name": "Baksaid", "place": "village" } }, "geometry": { "type": "Point", "coordinates": [ 77.1192169, 31.5613138 ] } },
{ "type": "Feature", "properties": { "osm_id": 7926325955, "osm_type": "node", "name": "Sandoa", "tags": { "name": "Sandoa", "place": "village" } }, "geometry": { "type": "Point", "coordinates": [ 77.0521831, 31.5718629 ] } },
{ "type": "Feature", "properties": { "osm_id": 7926325954, "osm_type": "node", "name": "Dan", "tags": { "name": "Dan", "place": "village" } }, "geometry": { "type": "Point", "coordinates": [ 77.0515501, 31.5780693 ] } },
{ "type": "Feature", "properties": { "osm_id": 7926325940, "osm_type": "node", "name": "Mandap", "tags": { "name": "Mandap", "place": "village" } }, "geometry": { "type": "Point", "coordinates": [ 77.0863652, 31.578115 ] } },
{ "type": "Feature", "properties": { "osm_id": 9000043757, "osm_type": "node", "name": "Khatarwai", "tags": { "name": "Khatarwai", "place": "village" } }, "geometry": { "type": "Point", "coordinates": [ 76.9197571, 31.5350914 ] } },
{ "type": "Feature", "properties": { "osm_id": 9000043759, "osm_type": "node", "name": "Tunahi", "tags": { "name": "Tunahi", "place": "village" } }, "geometry": { "type": "Point", "coordinates": [ 76.9083953, 31.5400658 ] } },
{ "type": "Feature", "properties": { "osm_id": 9000043805, "osm_type": "node", "name": "Ropa", "tags": { "name": "Ropa", "place": "village" } }, "geometry": { "type": "Point", "coordinates": [ 76.8945765, 31.5405961 ] } },
{ "type": "Feature", "properties": { "osm_id": 9000043758, "osm_type": "node", "name": "Samkal", "tags": { "name": "Samkal", "place": "village" } }, "geometry": { "type": "Point", "coordinates": [ 76.9198966, 31.5426626 ] } },
{ "type": "Feature", "properties": { "osm_id": 1805513459, "osm_type": "node", "name": "Hatgarh", "tags": { "name": "Hatgarh", "place": "village" } }, "geometry": { "type": "Point", "coordinates": [ 76.942064, 31.5447503 ] } },
{ "type": "Feature", "properties": { "osm_id": 245772107, "osm_type": "node", "name": "Dhanotu", "tags": { "AND_a_nosr_p": "10010062", "name": "Dhanotu", "place": "village", "postal_code": "174401", "source": "AND" } }, "geometry": { "type": "Point", "coordinates": [ 76.9006319, 31.5514395 ] } },
{ "type": "Feature", "properties": { "osm_id": 9000043810, "osm_type": "node", "name": "Dugrain", "tags": { "name": "Dugrain", "place": "village" } }, "geometry": { "type": "Point", "coordinates": [ 76.9198108, 31.5739653 ] } },
{ "type": "Feature", "properties": { "osm_id": 9000043809, "osm_type": "node", "name": "Tarot", "tags": { "name": "Tarot", "place": "village" } }, "geometry": { "type": "Point", "coordinates": [ 76.9103265, 31.574011 ] } },
{ "type": "Feature", "properties": { "osm_id": 9000026021, "osm_type": "node", "name": "Balt", "tags": { "name": "Balt", "place": "village" } }, "geometry": { "type": "Point", "coordinates": [ 76.8777752, 31.5836172 ] } },
{ "type": "Feature", "properties": { "osm_id": 9000026020, "osm_type": "node", "name": "Tanda", "tags": { "name": "Tanda", "place": "village" } }, "geometry": { "type": "Point", "coordinates": [ 76.8823671, 31.5872182 ] } },
{ "type": "Feature", "properties": { "osm_id": 3210242503, "osm_type": "node", "name": "Chachiot", "tags": { "name": "Chachiot", "place": "village", "postal_code": "175028" } }, "geometry": { "type": "Point", "coordinates": [ 77.0156561, 31.5563013 ] } },
{ "type": "Feature", "properties": { "osm_id": 7930545753, "osm_type": "node", "name": "Naun", "tags": { "name": "Naun", "place": "village" } }, "geometry": { "type": "Point", "coordinates": [ 77.0284617, 31.5587815 ] } },
{ "type": "Feature", "properties": { "osm_id": 7930545754, "osm_type": "node", "name": "Mahran", "tags": { "name": "Mahran", "place": "village" } }, "geometry": { "type": "Point", "coordinates": [ 77.016027, 31.5615332 ] } },
{ "type": "Feature", "properties": { "osm_id": 7930545750, "osm_type": "node", "name": "Charhi", "tags": { "name": "Charhi", "place": "village" } }, "geometry": { "type": "Point", "coordinates": [ 77.0199966, 31.5640563 ] } },
{ "type": "Feature", "properties": { "osm_id": 7930545751, "osm_type": "node", "name": "Behri", "tags": { "name": "Behri", "place": "village" } }, "geometry": { "type": "Point", "coordinates": [ 77.0266807, 31.5646505 ] } },
{ "type": "Feature", "properties": { "osm_id": 3210242504, "osm_type": "node", "name": "Chailchowk", "tags": { "name": "Chailchowk", "place": "village", "postal_code": "175028" } }, "geometry": { "type": "Point", "coordinates": [ 76.9985902, 31.5670531 ] } },
{ "type": "Feature", "properties": { "osm_id": 7930545752, "osm_type": "node", "name": "Badhu", "tags": { "name": "Badhu", "place": "village" } }, "geometry": { "type": "Point", "coordinates": [ 77.0238912, 31.5685904 ] } },
{ "type": "Feature", "properties": { "osm_id": 7926325979, "osm_type": "node", "name": "Dari", "tags": { "name": "Dari", "place": "village" } }, "geometry": { "type": "Point", "coordinates": [ 77.0156515, 31.5708848 ] } },
{ "type": "Feature", "properties": { "osm_id": 7926325981, "osm_type": "node", "name": "Kathla", "tags": { "name": "Kathla", "place": "village" } }, "geometry": { "type": "Point", "coordinates": [ 76.9985818, 31.5713328 ] } },
{ "type": "Feature", "properties": { "osm_id": 7926325978, "osm_type": "node", "name": "Tikri", "tags": { "name": "Tikri", "place": "village" } }, "geometry": { "type": "Point", "coordinates": [ 77.0248031, 31.5757568 ] } },
{ "type": "Feature", "properties": { "osm_id": 6618371014, "osm_type": "node", "name": "Baggi", "tags": { "name": "Baggi", "name:hi": "बग्गी", "place": "village" } }, "geometry": { "type": "Point", "coordinates": [ 76.9669157, 31.5759632 ] } },
{ "type": "Feature", "properties": { "osm_id": 7926325975, "osm_type": "node", "name": "Sapler", "tags": { "name": "Sapler", "place": "village" } }, "geometry": { "type": "Point", "coordinates": [ 77.0326996, 31.5787 ] } },
{ "type": "Feature", "properties": { "osm_id": 8999998199, "osm_type": "node", "name": "Nalsar", "tags": { "name": "Nalsar", "place": "village" } }, "geometry": { "type": "Point", "coordinates": [ 76.9622755, 31.5819904 ] } },
{ "type": "Feature", "properties": { "osm_id": 8999998200, "osm_type": "node", "name": "Khiur", "tags": { "name": "Khiur", "place": "village" } }, "geometry": { "type": "Point", "coordinates": [ 76.9682622, 31.5861397 ] } },
{ "type": "Feature", "properties": { "osm_id": 7926325950, "osm_type": "node", "name": "Nirhali", "tags": { "name": "Nirhali", "place": "village" } }, "geometry": { "type": "Point", "coordinates": [ 77.037549, 31.5869623 ] } },
{ "type": "Feature", "properties": { "osm_id": 7926325969, "osm_type": "node", "name": "Pingla", "tags": { "name": "Pingla", "place": "village" } }, "geometry": { "type": "Point", "coordinates": [ 77.0252752, 31.5880773 ] } },
{ "type": "Feature", "properties": { "osm_id": 7926325949, "osm_type": "node", "name": "Deoli", "tags": { "name": "Deoli", "place": "village" } }, "geometry": { "type": "Point", "coordinates": [ 77.0316267, 31.5918243 ] } },
{ "type": "Feature", "properties": { "osm_id": 7926301962, "osm_type": "node", "name": "Tarai", "tags": { "name": "Tarai", "place": "village" } }, "geometry": { "type": "Point", "coordinates": [ 77.0009422, 31.5926468 ] } },
{ "type": "Feature", "properties": { "osm_id": 7926325964, "osm_type": "node", "name": "Kalthwal", "tags": { "name": "Kalthwal", "place": "village" } }, "geometry": { "type": "Point", "coordinates": [ 77.0357251, 31.6035395 ] } },
{ "type": "Feature", "properties": { "osm_id": 7926301963, "osm_type": "node", "name": "Bahi", "tags": { "name": "Bahi", "place": "village" } }, "geometry": { "type": "Point", "coordinates": [ 77.0024442, 31.6084738 ] } },
{ "type": "Feature", "properties": { "osm_id": 8999998201, "osm_type": "node", "name": "Bhaur", "tags": { "name": "Bhaur", "place": "village" } }, "geometry": { "type": "Point", "coordinates": [ 76.924274, 31.5887353 ] } },
{ "type": "Feature", "properties": { "osm_id": 8999998210, "osm_type": "node", "name": "Kummin", "tags": { "name": "Kummin", "place": "village" } }, "geometry": { "type": "Point", "coordinates": [ 76.9432211, 31.5998295 ] } },
{ "type": "Feature", "properties": { "osm_id": 561083167, "osm_type": "node", "name": "Ratti", "tags": { "name": "Ratti", "place": "village" } }, "geometry": { "type": "Point", "coordinates": [ 76.9011085, 31.6007838 ] } },
{ "type": "Feature", "properties": { "osm_id": 561083444, "osm_type": "node", "name": "Galma", "tags": { "name": "Galma", "place": "village" } }, "geometry": { "type": "Point", "coordinates": [ 76.8808203, 31.6031619 ] } },
{ "type": "Feature", "properties": { "osm_id": 8999998211, "osm_type": "node", "name": "Kuthial", "tags": { "name": "Kuthial", "place": "village" } }, "geometry": { "type": "Point", "coordinates": [ 76.944294, 31.6050746 ] } },
{ "type": "Feature", "properties": { "osm_id": 9000026134, "osm_type": "node", "name": "Ner", "tags": { "name": "Ner", "place": "village" } }, "geometry": { "type": "Point", "coordinates": [ 76.9087815, 31.6072768 ] } },
{ "type": "Feature", "properties": { "osm_id": 9000026130, "osm_type": "node", "name": "Bhangrotu", "tags": { "name": "Bhangrotu", "place": "village" } }, "geometry": { "type": "Point", "coordinates": [ 76.9279218, 31.6107032 ] } },
{ "type": "Feature", "properties": { "osm_id": 9000026132, "osm_type": "node", "name": "Chagwan", "tags": { "name": "Chagwan", "place": "village" } }, "geometry": { "type": "Point", "coordinates": [ 76.9202614, 31.6141021 ] } },
{ "type": "Feature", "properties": { "osm_id": 9000026131, "osm_type": "node", "name": "Gathi", "tags": { "name": "Gathi", "place": "village" } }, "geometry": { "type": "Point", "coordinates": [ 76.9339514, 31.615838 ] } },
{ "type": "Feature", "properties": { "osm_id": 8984490524, "osm_type": "node", "name": "Gati", "tags": { "name": "Gati", "place": "village" } }, "geometry": { "type": "Point", "coordinates": [ 76.9361829, 31.6248827 ] } },
{ "type": "Feature", "properties": { "osm_id": 7926325953, "osm_type": "node", "name": "Kutachi", "tags": { "name": "Kutachi", "place": "village" } }, "geometry": { "type": "Point", "coordinates": [ 77.0418405, 31.5816065 ] } },
{ "type": "Feature", "properties": { "osm_id": 7926325951, "osm_type": "node", "name": "Kandol", "tags": { "name": "Kandol", "place": "village" } }, "geometry": { "type": "Point", "coordinates": [ 77.0503056, 31.5845038 ] } },
{ "type": "Feature", "properties": { "osm_id": 7926325961, "osm_type": "node", "name": "Tilli", "tags": { "name": "Tilli", "place": "village" } }, "geometry": { "type": "Point", "coordinates": [ 77.0488786, 31.5988244 ] } },
{ "type": "Feature", "properties": { "osm_id": 7926325973, "osm_type": "node", "name": "Seri", "tags": { "name": "Seri", "place": "village" } }, "geometry": { "type": "Point", "coordinates": [ 77.083168, 31.6055681 ] } },
{ "type": "Feature", "properties": { "osm_id": 7932079334, "osm_type": "node", "name": "Muratan", "tags": { "name": "Muratan", "place": "village" } }, "geometry": { "type": "Point", "coordinates": [ 77.0757651, 31.6122017 ] } },
{ "type": "Feature", "properties": { "osm_id": 7926325971, "osm_type": "node", "name": "Sianj", "tags": { "name": "Sianj", "place": "village" } }, "geometry": { "type": "Point", "coordinates": [ 77.0693493, 31.6123844 ] } },
{ "type": "Feature", "properties": { "osm_id": 7932079338, "osm_type": "node", "name": "Ropa", "tags": { "name": "Ropa", "place": "village" } }, "geometry": { "type": "Point", "coordinates": [ 77.0704007, 31.6259242 ] } },
{ "type": "Feature", "properties": { "osm_id": 7924187415, "osm_type": "node", "name": "Banerdi", "tags": { "name": "Banerdi", "place": "village" } }, "geometry": { "type": "Point", "coordinates": [ 77.0601868, 31.6267829 ] } },
{ "type": "Feature", "properties": { "osm_id": 7924187416, "osm_type": "node", "name": "Kut", "tags": { "name": "Kut", "place": "village" } }, "geometry": { "type": "Point", "coordinates": [ 77.0473337, 31.6312774 ] } },
{ "type": "Feature", "properties": { "osm_id": 7924187414, "osm_type": "node", "name": "Kandha", "tags": { "name": "Kandha", "place": "village" } }, "geometry": { "type": "Point", "coordinates": [ 77.0640063, 31.6341092 ] } },
{ "type": "Feature", "properties": { "osm_id": 627273736, "osm_type": "node", "name": "Pandoa", "tags": { "name": "Pandoa", "place": "village" } }, "geometry": { "type": "Point", "coordinates": [ 77.3075864, 31.2747743 ] } },
{ "type": "Feature", "properties": { "osm_id": 8058985474, "osm_type": "node", "name": "Belu", "tags": { "name": "Belu", "place": "village" } }, "geometry": { "type": "Point", "coordinates": [ 77.2971868, 31.2954578 ] } },
{ "type": "Feature", "properties": { "osm_id": 8058985473, "osm_type": "node", "name": "Manjka Pash", "tags": { "name": "Manjka Pash", "place": "village" } }, "geometry": { "type": "Point", "coordinates": [ 77.3024654, 31.2967596 ] } },
{ "type": "Feature", "properties": { "osm_id": 627273739, "osm_type": "node", "name": "Nathan", "tags": { "name": "Nathan", "place": "village" } }, "geometry": { "type": "Point", "coordinates": [ 77.3448908, 31.3355141 ] } },
{ "type": "Feature", "properties": { "osm_id": 3210194055, "osm_type": "node", "name": "Nanj", "tags": { "name": "Nanj", "place": "village" } }, "geometry": { "type": "Point", "coordinates": [ 77.3433774, 31.34191 ] } },
{ "type": "Feature", "properties": { "osm_id": 8809038098, "osm_type": "node", "name": "Jeru", "tags": { "name": "Jeru", "place": "village" } }, "geometry": { "type": "Point", "coordinates": [ 77.1463179, 31.2361419 ] } },
{ "type": "Feature", "properties": { "osm_id": 8826006454, "osm_type": "node", "name": "Sakra", "tags": { "name": "Sakra", "place": "village" } }, "geometry": { "type": "Point", "coordinates": [ 77.1574974, 31.2363437 ] } },
{ "type": "Feature", "properties": { "osm_id": 8809038099, "osm_type": "node", "name": "Jarog", "tags": { "name": "Jarog", "place": "village" } }, "geometry": { "type": "Point", "coordinates": [ 77.1307397, 31.2421412 ] } },
{ "type": "Feature", "properties": { "osm_id": 7998765366, "osm_type": "node", "name": "Khil", "tags": { "name": "Khil", "place": "village" } }, "geometry": { "type": "Point", "coordinates": [ 77.1483135, 31.3316086 ] } },
{ "type": "Feature", "properties": { "osm_id": 3210156340, "osm_type": "node", "name": "Churag", "tags": { "name": "Churag", "place": "village" } }, "geometry": { "type": "Point", "coordinates": [ 77.158568, 31.3520026 ] } },
{ "type": "Feature", "properties": { "osm_id": 8005506165, "osm_type": "node", "name": "Banthal", "tags": { "name": "Banthal", "place": "village" } }, "geometry": { "type": "Point", "coordinates": [ 77.2104549, 31.4048393 ] } },
{ "type": "Feature", "properties": { "osm_id": 8002867622, "osm_type": "node", "name": "Sangalwara", "tags": { "name": "Sangalwara", "place": "village" } }, "geometry": { "type": "Point", "coordinates": [ 77.2145963, 31.4971801 ] } },
{ "type": "Feature", "properties": { "osm_id": 7934654978, "osm_type": "node", "name": "Tir", "tags": { "name": "Tir", "place": "village" } }, "geometry": { "type": "Point", "coordinates": [ 77.2158408, 31.4986713 ] } },
{ "type": "Feature", "properties": { "osm_id": 3210305223, "osm_type": "node", "name": "Janjheli", "tags": { "name": "Janjheli", "place": "village", "tourism": "attraction" } }, "geometry": { "type": "Point", "coordinates": [ 77.2214077, 31.5167794 ] } },
{ "type": "Feature", "properties": { "osm_id": 3210194056, "osm_type": "node", "name": "Sainj Bagra", "tags": { "name": "Sainj Bagra", "place": "village" } }, "geometry": { "type": "Point", "coordinates": [ 77.3184894, 31.3448679 ] } },
{ "type": "Feature", "properties": { "osm_id": 3210194054, "osm_type": "node", "name": "Kao", "tags": { "name": "Kao", "place": "village" } }, "geometry": { "type": "Point", "coordinates": [ 77.2292084, 31.3570212 ] } },
{ "type": "Feature", "properties": { "osm_id": 8058948215, "osm_type": "node", "name": "Bhanera", "tags": { "name": "Bhanera", "place": "village" } }, "geometry": { "type": "Point", "coordinates": [ 77.2488749, 31.3687441 ] } },
{ "type": "Feature", "properties": { "osm_id": 3210194053, "osm_type": "node", "name": "Kalodhar", "tags": { "name": "Kalodhar", "place": "village" } }, "geometry": { "type": "Point", "coordinates": [ 77.2439439, 31.3860156 ] } },
{ "type": "Feature", "properties": { "osm_id": 6505321389, "osm_type": "node", "name": "Nigan", "tags": { "name": "Nigan", "place": "village" } }, "geometry": { "type": "Point", "coordinates": [ 77.3845281, 31.4071555 ] } },
{ "type": "Feature", "properties": { "osm_id": 8050321982, "osm_type": "node", "name": "Chhatri", "tags": { "name": "Chhatri", "place": "village" } }, "geometry": { "type": "Point", "coordinates": [ 77.2893977, 31.4664557 ] } },
{ "type": "Feature", "properties": { "osm_id": 13442194240, "osm_type": "node", "name": "Thachadhar", "tags": { "name": "Thachadhar", "place": "village" } }, "geometry": { "type": "Point", "coordinates": [ 77.2950674, 31.5520437 ] } },
{ "type": "Feature", "properties": { "osm_id": 7932400100, "osm_type": "node", "name": "Bhatka", "tags": { "name": "Bhatka", "place": "village" } }, "geometry": { "type": "Point", "coordinates": [ 77.2379207, 31.5619355 ] } },
{ "type": "Feature", "properties": { "osm_id": 9530576904, "osm_type": "node", "name": "Gada Gushaini", "tags": { "name": "Gada Gushaini", "place": "village" } }, "geometry": { "type": "Point", "coordinates": [ 77.3009848, 31.5625388 ] } },
{ "type": "Feature", "properties": { "osm_id": 8626554492, "osm_type": "node", "name": "Mathyani", "tags": { "name": "Mathyani", "place": "village" } }, "geometry": { "type": "Point", "coordinates": [ 77.2739555, 31.5815913 ] } },
{ "type": "Feature", "properties": { "osm_id": 7932407016, "osm_type": "node", "name": "Chet", "tags": { "name": "Chet", "place": "village" } }, "geometry": { "type": "Point", "coordinates": [ 77.2422123, 31.5881869 ] } },
{ "type": "Feature", "properties": { "osm_id": 7926291390, "osm_type": "node", "name": "Damser", "tags": { "name": "Damser", "place": "village" } }, "geometry": { "type": "Point", "coordinates": [ 77.2354369, 31.6460122 ] } },
{ "type": "Feature", "properties": { "osm_id": 3210242505, "osm_type": "node", "name": "Thunag", "tags": { "capital": "5", "name": "Thunag", "place": "village" } }, "geometry": { "type": "Point", "coordinates": [ 77.1665851, 31.5586366 ] } },
{ "type": "Feature", "properties": { "osm_id": 7934496953, "osm_type": "node", "name": "Murahag", "tags": { "name": "Murahag", "place": "village" } }, "geometry": { "type": "Point", "coordinates": [ 77.148174, 31.5772558 ] } },
{ "type": "Feature", "properties": { "osm_id": 7934496946, "osm_type": "node", "name": "Bah", "tags": { "name": "Bah", "place": "village" } }, "geometry": { "type": "Point", "coordinates": [ 77.1630764, 31.5989431 ] } },
{ "type": "Feature", "properties": { "osm_id": 7926291394, "osm_type": "node", "name": "Bung", "tags": { "name": "Bung", "place": "village" } }, "geometry": { "type": "Point", "coordinates": [ 77.2027731, 31.6571806 ] } },
{ "type": "Feature", "properties": { "osm_id": 7926291392, "osm_type": "node", "name": "Bagi", "tags": { "name": "Bagi", "place": "village" } }, "geometry": { "type": "Point", "coordinates": [ 77.2169888, 31.6612445 ] } },
{ "type": "Feature", "properties": { "osm_id": 9838830172, "osm_type": "node", "name": "Batludhar", "tags": { "name": "Batludhar", "place": "village" } }, "geometry": { "type": "Point", "coordinates": [ 77.2089584, 31.6681795 ] } },
{ "type": "Feature", "properties": { "osm_id": 7926291429, "osm_type": "node", "name": "Shegla", "tags": { "name": "Shegla", "place": "village" } }, "geometry": { "type": "Point", "coordinates": [ 77.2166347, 31.673654 ] } },
{ "type": "Feature", "properties": { "osm_id": 7926291432, "osm_type": "node", "name": "Narwagi", "tags": { "name": "Narwagi", "place": "village" } }, "geometry": { "type": "Point", "coordinates": [ 77.1908211, 31.6754436 ] } },
{ "type": "Feature", "properties": { "osm_id": 7926291433, "osm_type": "node", "name": "Marwa", "tags": { "name": "Marwa", "place": "village" } }, "geometry": { "type": "Point", "coordinates": [ 77.1784186, 31.6814697 ] } },
{ "type": "Feature", "properties": { "osm_id": 7926291442, "osm_type": "node", "name": "Ghidha", "tags": { "name": "Ghidha", "place": "village" } }, "geometry": { "type": "Point", "coordinates": [ 77.187581, 31.6900698 ] } },
{ "type": "Feature", "properties": { "osm_id": 7926258882, "osm_type": "node", "name": "Seri", "tags": { "name": "Seri", "place": "village" } }, "geometry": { "type": "Point", "coordinates": [ 77.2221601, 31.6594454 ] } },
{ "type": "Feature", "properties": { "osm_id": 8624705754, "osm_type": "node", "name": "Nalaun", "tags": { "name": "Nalaun", "place": "village" } }, "geometry": { "type": "Point", "coordinates": [ 77.2812913, 31.6875351 ] } },
{ "type": "Feature", "properties": { "osm_id": 5122373892, "osm_type": "node", "name": "Balichowki", "tags": { "name": "Balichowki", "place": "village" } }, "geometry": { "type": "Point", "coordinates": [ 77.2797043, 31.6892002 ] } },
{ "type": "Feature", "properties": { "osm_id": 7926291450, "osm_type": "node", "name": "Gurahan", "tags": { "name": "Gurahan", "place": "village" } }, "geometry": { "type": "Point", "coordinates": [ 77.1776891, 31.6916034 ] } },
{ "type": "Feature", "properties": { "osm_id": 7926291425, "osm_type": "node", "name": "Dani", "tags": { "name": "Dani", "place": "village" } }, "geometry": { "type": "Point", "coordinates": [ 77.2192311, 31.6956384 ] } },
{ "type": "Feature", "properties": { "osm_id": 7926291479, "osm_type": "node", "name": "Thalout", "tags": { "name": "Thalout", "place": "village" } }, "geometry": { "type": "Point", "coordinates": [ 77.2007453, 31.7124792 ] } },
{ "type": "Feature", "properties": { "osm_id": 7924187390, "osm_type": "node", "name": "Bandhi", "tags": { "name": "Bandhi", "place": "village" } }, "geometry": { "type": "Point", "coordinates": [ 77.1259975, 31.7270721 ] } },
{ "type": "Feature", "properties": { "osm_id": 342116543, "osm_type": "node", "name": "Aut", "tags": { "name": "Aut", "name:hi": "औत", "place": "village" } }, "geometry": { "type": "Point", "coordinates": [ 77.2084415, 31.7426582 ] } },
{ "type": "Feature", "properties": { "osm_id": 342116548, "osm_type": "node", "name": "Panarsa", "tags": { "name": "Panarsa", "place": "village" } }, "geometry": { "type": "Point", "coordinates": [ 77.19132, 31.7807 ] } },
{ "type": "Feature", "properties": { "osm_id": 9669614004, "osm_type": "node", "name": "Takoli", "tags": { "name": "Takoli", "place": "village" } }, "geometry": { "type": "Point", "coordinates": [ 77.1882359, 31.7953469 ] } },
{ "type": "Feature", "properties": { "osm_id": 9669614003, "osm_type": "node", "name": "Mashora", "tags": { "name": "Mashora", "place": "village" } }, "geometry": { "type": "Point", "coordinates": [ 77.187746, 31.7983784 ] } },
{ "type": "Feature", "properties": { "osm_id": 9669614000, "osm_type": "node", "name": "Nagwain", "tags": { "name": "Nagwain", "place": "village" } }, "geometry": { "type": "Point", "coordinates": [ 77.1802023, 31.8144521 ] } },
{ "type": "Feature", "properties": { "osm_id": 10669142743, "osm_type": "node", "name": "Balu", "tags": { "name": "Balu", "place": "village" } }, "geometry": { "type": "Point", "coordinates": [ 77.1355326, 31.8198466 ] } },
{ "type": "Feature", "properties": { "osm_id": 1426477088, "osm_type": "node", "name": "Makhnumaraja", "tags": { "name": "Makhnumaraja", "place": "village" } }, "geometry": { "type": "Point", "coordinates": [ 77.1784708, 31.8209622 ] } },
{ "type": "Feature", "properties": { "osm_id": 9669666123, "osm_type": "node", "name": "Jhihri", "tags": { "name": "Jhihri", "place": "village" } }, "geometry": { "type": "Point", "coordinates": [ 77.1713944, 31.8341743 ] } },
{ "type": "Feature", "properties": { "osm_id": 8864341176, "osm_type": "node", "name": "Daswar", "tags": { "name": "Daswar", "place": "village" } }, "geometry": { "type": "Point", "coordinates": [ 76.8515539, 31.4153602 ] } },
{ "type": "Feature", "properties": { "osm_id": 8862778067, "osm_type": "node", "name": "Dahar", "tags": { "name": "Dahar", "place": "village" } }, "geometry": { "type": "Point", "coordinates": [ 76.8156659, 31.4255047 ] } },
{ "type": "Feature", "properties": { "osm_id": 8862778066, "osm_type": "node", "name": "Alsu", "tags": { "name": "Alsu", "place": "village" } }, "geometry": { "type": "Point", "coordinates": [ 76.8257296, 31.4290202 ] } },
{ "type": "Feature", "properties": { "osm_id": 8688505343, "osm_type": "node", "name": "Shildi", "tags": { "name": "Shildi", "name:hi": "शिलड़ी", "place": "village" } }, "geometry": { "type": "Point", "coordinates": [ 76.7756986, 31.5370879 ] } },
{ "type": "Feature", "properties": { "osm_id": 561089220, "osm_type": "node", "name": "Sidhyani", "tags": { "name": "Sidhyani", "place": "village" } }, "geometry": { "type": "Point", "coordinates": [ 76.8460266, 31.5974483 ] } },
{ "type": "Feature", "properties": { "osm_id": 3098608741, "osm_type": "node", "name": "Smaila", "tags": { "name": "Smaila", "place": "village" } }, "geometry": { "type": "Point", "coordinates": [ 76.7635228, 31.5232135 ] } },
{ "type": "Feature", "properties": { "osm_id": 3098608732, "osm_type": "node", "name": "Baldwara", "tags": { "name": "Baldwara", "place": "village" } }, "geometry": { "type": "Point", "coordinates": [ 76.7638694, 31.5578517 ] } },
{ "type": "Feature", "properties": { "osm_id": 8984430669, "osm_type": "node", "name": "Gopalpur", "tags": { "name": "Gopalpur", "place": "village" } }, "geometry": { "type": "Point", "coordinates": [ 76.7504668, 31.647865 ] } },
{ "type": "Feature", "properties": { "osm_id": 8866911278, "osm_type": "node", "name": "Kian", "tags": { "name": "Kian", "place": "village" } }, "geometry": { "type": "Point", "coordinates": [ 76.867733, 31.3788478 ] } },
{ "type": "Feature", "properties": { "osm_id": 342116430, "osm_type": "node", "name": "Slapper", "tags": { "name": "Slapper", "place": "village" } }, "geometry": { "type": "Point", "coordinates": [ 76.8620008, 31.4150054 ] } },
{ "type": "Feature", "properties": { "osm_id": 8864341175, "osm_type": "node", "name": "Beor", "tags": { "name": "Beor", "place": "village" } }, "geometry": { "type": "Point", "coordinates": [ 76.8633985, 31.4184458 ] } },
{ "type": "Feature", "properties": { "osm_id": 8864341207, "osm_type": "node", "name": "Kathwaharn", "tags": { "name": "Kathwaharn", "place": "village" } }, "geometry": { "type": "Point", "coordinates": [ 76.8595362, 31.4576885 ] } },
{ "type": "Feature", "properties": { "osm_id": 8864341208, "osm_type": "node", "name": "Bobri", "tags": { "name": "Bobri", "place": "village" } }, "geometry": { "type": "Point", "coordinates": [ 76.8780756, 31.4616147 ] } },
{ "type": "Feature", "properties": { "osm_id": 9000026057, "osm_type": "node", "name": "Baned", "tags": { "name": "Baned", "place": "village" } }, "geometry": { "type": "Point", "coordinates": [ 76.8841052, 31.5037208 ] } },
{ "type": "Feature", "properties": { "osm_id": 8999998188, "osm_type": "node", "name": "Pungh", "tags": { "name": "Pungh", "place": "village" } }, "geometry": { "type": "Point", "coordinates": [ 76.8821418, 31.5197732 ] } },
{ "type": "Feature", "properties": { "osm_id": 9000043804, "osm_type": "node", "name": "Salah", "tags": { "name": "Salah", "place": "village" } }, "geometry": { "type": "Point", "coordinates": [ 76.8877637, 31.5254618 ] } },
{ "type": "Feature", "properties": { "osm_id": 9000043803, "osm_type": "node", "name": "Banaik", "tags": { "name": "Banaik", "place": "village" } }, "geometry": { "type": "Point", "coordinates": [ 76.8960142, 31.5305922 ] } },
{ "type": "Feature", "properties": { "osm_id": 561090932, "osm_type": "node", "name": "Kalkhar", "tags": { "name": "Kalkhar", "place": "village" } }, "geometry": { "type": "Point", "coordinates": [ 76.8289551, 31.6018013 ] } },
{ "type": "Feature", "properties": { "osm_id": 4143915084, "osm_type": "node", "name": "Doh", "tags": { "name": "Doh", "place": "village" } }, "geometry": { "type": "Point", "coordinates": [ 76.8253588, 31.6370201 ] } },
{ "type": "Feature", "properties": { "osm_id": 7092798223, "osm_type": "node", "name": "Bhadrota", "tags": { "name": "Bhadrota", "place": "village" } }, "geometry": { "type": "Point", "coordinates": [ 76.7918587, 31.6458922 ] } },
{ "type": "Feature", "properties": { "osm_id": 4144993856, "osm_type": "node", "name": "Durgapur", "tags": { "addr:postcode": "175049", "name": "Durgapur", "name:hi": "दुर्गापुर", "name:pa": "ਦੁਰਗਾਪੁਰ", "place": "village" } }, "geometry": { "type": "Point", "coordinates": [ 76.8256984, 31.6583488 ] } },
{ "type": "Feature", "properties": { "osm_id": 8984430715, "osm_type": "node", "name": "Lonhakhri", "tags": { "name": "Lonhakhri", "place": "village" } }, "geometry": { "type": "Point", "coordinates": [ 76.8142605, 31.7110645 ] } },
{ "type": "Feature", "properties": { "osm_id": 8984430716, "osm_type": "node", "name": "Thauna", "tags": { "name": "Thauna", "place": "village" } }, "geometry": { "type": "Point", "coordinates": [ 76.8079304, 31.7155367 ] } },
{ "type": "Feature", "properties": { "osm_id": 8984443144, "osm_type": "node", "name": null, "tags": { "place": "village" } }, "geometry": { "type": "Point", "coordinates": [ 76.8004632, 31.7473833 ] } },
{ "type": "Feature", "properties": { "osm_id": 7952089449, "osm_type": "node", "name": "Beral", "tags": { "name": "Beral", "place": "village" } }, "geometry": { "type": "Point", "coordinates": [ 76.8414259, 31.752985 ] } },
{ "type": "Feature", "properties": { "osm_id": 7948853146, "osm_type": "node", "name": "Janithar", "tags": { "name": "Janithar", "place": "village" } }, "geometry": { "type": "Point", "coordinates": [ 76.8305897, 31.8018714 ] } },
{ "type": "Feature", "properties": { "osm_id": 7948609717, "osm_type": "node", "name": "Banerdhi", "tags": { "name": "Banerdhi", "place": "village" } }, "geometry": { "type": "Point", "coordinates": [ 76.7896271, 31.8064303 ] } },
{ "type": "Feature", "properties": { "osm_id": 8984490521, "osm_type": "node", "name": "Barsu", "tags": { "name": "Barsu", "place": "village" } }, "geometry": { "type": "Point", "coordinates": [ 76.9344663, 31.6402293 ] } },
{ "type": "Feature", "properties": { "osm_id": 7023401820, "osm_type": "node", "name": "Ghor", "tags": { "name": "Ghor", "name:en": "Ghod", "place": "village" } }, "geometry": { "type": "Point", "coordinates": [ 76.8613421, 31.6432596 ] } },
{ "type": "Feature", "properties": { "osm_id": 8984490520, "osm_type": "node", "name": "Chilah", "tags": { "name": "Chilah", "place": "village" } }, "geometry": { "type": "Point", "coordinates": [ 76.9424486, 31.6450885 ] } },
{ "type": "Feature", "properties": { "osm_id": 7053862073, "osm_type": "node", "name": "Talyahar", "tags": { "name": "Talyahar", "place": "village" } }, "geometry": { "type": "Point", "coordinates": [ 76.9154549, 31.6825328 ] } },
{ "type": "Feature", "properties": { "osm_id": 8984490566, "osm_type": "node", "name": "Bhangauli", "tags": { "name": "Bhangauli", "place": "village" } }, "geometry": { "type": "Point", "coordinates": [ 76.9248104, 31.7025576 ] } },
{ "type": "Feature", "properties": { "osm_id": 8984448730, "osm_type": "node", "name": "Baggi", "tags": { "name": "Baggi", "place": "village" } }, "geometry": { "type": "Point", "coordinates": [ 76.8785906, 31.7255207 ] } },
{ "type": "Feature", "properties": { "osm_id": 7023408721, "osm_type": "node", "name": "Bijani", "tags": { "name": "Bijani", "place": "village" } }, "geometry": { "type": "Point", "coordinates": [ 76.939827, 31.7414104 ] } },
{ "type": "Feature", "properties": { "osm_id": 7952089438, "osm_type": "node", "name": "Balahar", "tags": { "name": "Balahar", "place": "village" } }, "geometry": { "type": "Point", "coordinates": [ 76.8683767, 31.7499014 ] } },
{ "type": "Feature", "properties": { "osm_id": 6942530377, "osm_type": "node", "name": "Kotli", "tags": { "addr:country": "IN", "addr:postcode": "175003", "name": "Kotli", "place": "village", "population": "25860", "wikipedia": "en:Kotli, Himachal Pradesh" } }, "geometry": { "type": "Point", "coordinates": [ 76.8726901, 31.7569059 ] } },
{ "type": "Feature", "properties": { "osm_id": 7952089429, "osm_type": "node", "name": "Chanasa", "tags": { "name": "Chanasa", "place": "village" } }, "geometry": { "type": "Point", "coordinates": [ 76.8750715, 31.7836515 ] } },
{ "type": "Feature", "properties": { "osm_id": 7948818967, "osm_type": "node", "name": "Panjiatru", "tags": { "name": "Panjiatru", "place": "village" } }, "geometry": { "type": "Point", "coordinates": [ 76.7504883, 31.7525289 ] } },
{ "type": "Feature", "properties": { "osm_id": 7948818970, "osm_type": "node", "name": "Khamokhar", "tags": { "name": "Khamokhar", "place": "village" } }, "geometry": { "type": "Point", "coordinates": [ 76.7711306, 31.7526019 ] } },
{ "type": "Feature", "properties": { "osm_id": 7948818971, "osm_type": "node", "name": "Morla", "tags": { "name": "Morla", "place": "village" } }, "geometry": { "type": "Point", "coordinates": [ 76.7690921, 31.7601189 ] } },
{ "type": "Feature", "properties": { "osm_id": 7948853118, "osm_type": "node", "name": "Badhar", "tags": { "name": "Badhar", "place": "village" } }, "geometry": { "type": "Point", "coordinates": [ 76.7695749, 31.7705725 ] } },
{ "type": "Feature", "properties": { "osm_id": 7092720312, "osm_type": "node", "name": "Dharmpur", "tags": { "name": "Dharmpur", "place": "village" } }, "geometry": { "type": "Point", "coordinates": [ 76.7589909, 31.8023865 ] } },
{ "type": "Feature", "properties": { "osm_id": 7948518148, "osm_type": "node", "name": "Thathi", "tags": { "name": "Thathi", "place": "village" } }, "geometry": { "type": "Point", "coordinates": [ 76.7539751, 31.8315371 ] } },
{ "type": "Feature", "properties": { "osm_id": 7948535952, "osm_type": "node", "name": "Langna", "tags": { "name": "Langna", "place": "village" } }, "geometry": { "type": "Point", "coordinates": [ 76.7661524, 31.83779 ] } },
{ "type": "Feature", "properties": { "osm_id": 7948535953, "osm_type": "node", "name": "Prain", "tags": { "name": "Prain", "place": "village" } }, "geometry": { "type": "Point", "coordinates": [ 76.7582559, 31.8401051 ] } },
{ "type": "Feature", "properties": { "osm_id": 7948535960, "osm_type": "node", "name": "Dhurli Samon", "tags": { "name": "Dhurli Samon", "place": "village" } }, "geometry": { "type": "Point", "coordinates": [ 76.7712378, 31.8485264 ] } },
{ "type": "Feature", "properties": { "osm_id": 2380810556, "osm_type": "node", "name": "Kandapattan", "tags": { "name": "Kandapattan", "place": "village" } }, "geometry": { "type": "Point", "coordinates": [ 76.7743379, 31.8155192 ] } },
{ "type": "Feature", "properties": { "osm_id": 7948853148, "osm_type": "node", "name": "Kun", "tags": { "name": "Kun", "place": "village" } }, "geometry": { "type": "Point", "coordinates": [ 76.8552661, 31.8164046 ] } },
{ "type": "Feature", "properties": { "osm_id": 7948535949, "osm_type": "node", "name": "Kotla", "tags": { "name": "Kotla", "place": "village" } }, "geometry": { "type": "Point", "coordinates": [ 76.7758512, 31.8259129 ] } },
{ "type": "Feature", "properties": { "osm_id": 2380798539, "osm_type": "node", "name": "Neri", "tags": { "name": "Neri", "place": "village" } }, "geometry": { "type": "Point", "coordinates": [ 76.7777929, 31.830972 ] } },
{ "type": "Feature", "properties": { "osm_id": 7948535951, "osm_type": "node", "name": "Chimnun", "tags": { "name": "Chimnun", "place": "village" } }, "geometry": { "type": "Point", "coordinates": [ 76.7783511, 31.836204 ] } },
{ "type": "Feature", "properties": { "osm_id": 7948535955, "osm_type": "node", "name": "Pabo", "tags": { "name": "Pabo", "place": "village" } }, "geometry": { "type": "Point", "coordinates": [ 76.7941117, 31.8400868 ] } },
{ "type": "Feature", "properties": { "osm_id": 7948535959, "osm_type": "node", "name": "Langara", "tags": { "name": "Langara", "place": "village" } }, "geometry": { "type": "Point", "coordinates": [ 76.772992, 31.8452682 ] } },
{ "type": "Feature", "properties": { "osm_id": 7948535964, "osm_type": "node", "name": null, "tags": { "place": "village" } }, "geometry": { "type": "Point", "coordinates": [ 76.8205476, 31.851789 ] } },
{ "type": "Feature", "properties": { "osm_id": 7948535972, "osm_type": "node", "name": "Jaun", "tags": { "name": "Jaun", "place": "village" } }, "geometry": { "type": "Point", "coordinates": [ 76.8003773, 31.863599 ] } },
{ "type": "Feature", "properties": { "osm_id": 7948535976, "osm_type": "node", "name": "Basahi", "tags": { "name": "Basahi", "place": "village" } }, "geometry": { "type": "Point", "coordinates": [ 76.78334, 31.8637448 ] } },
{ "type": "Feature", "properties": { "osm_id": 7948535958, "osm_type": "node", "name": "Sidhpur", "tags": { "name": "Sidhpur", "place": "village" } }, "geometry": { "type": "Point", "coordinates": [ 76.7496192, 31.8486996 ] } },
{ "type": "Feature", "properties": { "osm_id": 7092720313, "osm_type": "node", "name": "Sandhol", "tags": { "name": "Sandhol", "place": "village" } }, "geometry": { "type": "Point", "coordinates": [ 76.6525126, 31.855744 ] } },
{ "type": "Feature", "properties": { "osm_id": 7948535980, "osm_type": "node", "name": "Thara", "tags": { "name": "Thara", "place": "village" } }, "geometry": { "type": "Point", "coordinates": [ 76.7562818, 31.8674078 ] } },
{ "type": "Feature", "properties": { "osm_id": 7948535981, "osm_type": "node", "name": "Patta", "tags": { "name": "Patta", "place": "village" } }, "geometry": { "type": "Point", "coordinates": [ 76.7504668, 31.8733849 ] } },
{ "type": "Feature", "properties": { "osm_id": 7948536407, "osm_type": "node", "name": "Sarhon Bhargaian", "tags": { "name": "Sarhon Bhargaian", "place": "village" } }, "geometry": { "type": "Point", "coordinates": [ 76.7518186, 31.9004227 ] } },
{ "type": "Feature", "properties": { "osm_id": 7948536408, "osm_type": "node", "name": "Kolang", "tags": { "name": "Kolang", "place": "village" } }, "geometry": { "type": "Point", "coordinates": [ 76.7510032, 31.9067073 ] } },
{ "type": "Feature", "properties": { "osm_id": 4781821862, "osm_type": "node", "name": "Lad Bharol", "tags": { "name": "Lad Bharol", "place": "village" } }, "geometry": { "type": "Point", "coordinates": [ 76.7017602, 31.9404061 ] } },
{ "type": "Feature", "properties": { "osm_id": 7948536436, "osm_type": "node", "name": "Tikru", "tags": { "name": "Tikru", "place": "village" } }, "geometry": { "type": "Point", "coordinates": [ 76.7692422, 31.9603913 ] } },
{ "type": "Feature", "properties": { "osm_id": 7948536440, "osm_type": "node", "name": "Thathri", "tags": { "name": "Thathri", "place": "village" } }, "geometry": { "type": "Point", "coordinates": [ 76.7625475, 31.9667628 ] } },
{ "type": "Feature", "properties": { "osm_id": 7952758511, "osm_type": "node", "name": "Sagwahan", "tags": { "name": "Sagwahan", "place": "village" } }, "geometry": { "type": "Point", "coordinates": [ 76.8828392, 31.8695763 ] } },
{ "type": "Feature", "properties": { "osm_id": 7952543561, "osm_type": "node", "name": "Haur", "tags": { "name": "Haur", "place": "village" } }, "geometry": { "type": "Point", "coordinates": [ 76.9235444, 31.8750795 ] } },
{ "type": "Feature", "properties": { "osm_id": 7952543564, "osm_type": "node", "name": "Seri", "tags": { "name": "Seri", "place": "village" } }, "geometry": { "type": "Point", "coordinates": [ 76.9091677, 31.8765919 ] } },
{ "type": "Feature", "properties": { "osm_id": 5118693011, "osm_type": "node", "name": "Urla", "tags": { "name": "Urla", "name:hi": "ऊरला", "place": "village" } }, "geometry": { "type": "Point", "coordinates": [ 76.8816504, 31.9238732 ] } },
{ "type": "Feature", "properties": { "osm_id": 559944707, "osm_type": "node", "name": "Ghatasani", "tags": { "name": "Ghatasani", "place": "village" } }, "geometry": { "type": "Point", "coordinates": [ 76.8664654, 31.9445929 ] } },
{ "type": "Feature", "properties": { "osm_id": 540540798, "osm_type": "node", "name": "Jhatingri", "tags": { "name": "Jhatingri", "place": "village" } }, "geometry": { "type": "Point", "coordinates": [ 76.8818235, 31.9478413 ] } },
{ "type": "Feature", "properties": { "osm_id": 5245662938, "osm_type": "node", "name": "Marh", "tags": { "name": "Marh", "place": "village" } }, "geometry": { "type": "Point", "coordinates": [ 76.8989754, 31.9967213 ] } },
{ "type": "Feature", "properties": { "osm_id": 7948536413, "osm_type": "node", "name": "Dohg Drahl", "tags": { "name": "Dohg Drahl", "place": "village" } }, "geometry": { "type": "Point", "coordinates": [ 76.7922878, 31.9100589 ] } },
{ "type": "Feature", "properties": { "osm_id": 7948536410, "osm_type": "node", "name": "Petu", "tags": { "name": "Petu", "place": "village" } }, "geometry": { "type": "Point", "coordinates": [ 76.811943, 31.9101135 ] } },
{ "type": "Feature", "properties": { "osm_id": 7948536412, "osm_type": "node", "name": "Algabari", "tags": { "name": "Algabari", "place": "village" } }, "geometry": { "type": "Point", "coordinates": [ 76.8049693, 31.91423 ] } },
{ "type": "Feature", "properties": { "osm_id": 7952307033, "osm_type": "node", "name": "Kas", "tags": { "name": "Kas", "place": "village" } }, "geometry": { "type": "Point", "coordinates": [ 76.8131661, 31.9251579 ] } },
{ "type": "Feature", "properties": { "osm_id": 2380798535, "osm_type": "node", "name": "Chalharg", "tags": { "name": "Chalharg", "place": "village" } }, "geometry": { "type": "Point", "coordinates": [ 76.7938599, 31.9360119 ] } },
{ "type": "Feature", "properties": { "osm_id": 7948536431, "osm_type": "node", "name": "Bahl", "tags": { "name": "Bahl", "place": "village" } }, "geometry": { "type": "Point", "coordinates": [ 76.7833829, 31.9431131 ] } },
{ "type": "Feature", "properties": { "osm_id": 7952271090, "osm_type": "node", "name": "Kun", "tags": { "name": "Kun", "place": "village" } }, "geometry": { "type": "Point", "coordinates": [ 76.8017292, 31.9518709 ] } },
{ "type": "Feature", "properties": { "osm_id": 7948536434, "osm_type": "node", "name": "Dalana", "tags": { "name": "Dalana", "place": "village" } }, "geometry": { "type": "Point", "coordinates": [ 76.7752933, 31.9533639 ] } },
{ "type": "Feature", "properties": { "osm_id": 7948536435, "osm_type": "node", "name": "Bagla", "tags": { "name": "Bagla", "place": "village" } }, "geometry": { "type": "Point", "coordinates": [ 76.7800569, 31.9572964 ] } },
{ "type": "Feature", "properties": { "osm_id": 7952271091, "osm_type": "node", "name": null, "tags": { "place": "village" } }, "geometry": { "type": "Point", "coordinates": [ 76.7985749, 31.9624666 ] } },
{ "type": "Feature", "properties": { "osm_id": 6618371030, "osm_type": "node", "name": "Ghatta", "tags": { "name": "Ghatta", "name:hi": "घट्टा", "place": "village" } }, "geometry": { "type": "Point", "coordinates": [ 76.9498782, 31.6120959 ] } },
{ "type": "Feature", "properties": { "osm_id": 9000026129, "osm_type": "node", "name": "Ghatta", "tags": { "name": "Ghatta", "place": "village" } }, "geometry": { "type": "Point", "coordinates": [ 76.9512087, 31.6157193 ] } },
{ "type": "Feature", "properties": { "osm_id": 7926301972, "osm_type": "node", "name": "Seri", "tags": { "name": "Seri", "place": "village" } }, "geometry": { "type": "Point", "coordinates": [ 77.0037532, 31.6173547 ] } },
{ "type": "Feature", "properties": { "osm_id": 8984490519, "osm_type": "node", "name": "Dhab", "tags": { "name": "Dhab", "place": "village" } }, "geometry": { "type": "Point", "coordinates": [ 76.9536066, 31.625102 ] } },
{ "type": "Feature", "properties": { "osm_id": 570759458, "osm_type": "node", "name": "Chandyal", "tags": { "name": "Chandyal", "name:hi": "चण्ड्याल", "place": "village" } }, "geometry": { "type": "Point", "coordinates": [ 76.9544075, 31.6424561 ] } },
{ "type": "Feature", "properties": { "osm_id": 8984486763, "osm_type": "node", "name": "Rathoha", "tags": { "name": "Rathoha", "place": "village" } }, "geometry": { "type": "Point", "coordinates": [ 76.9567394, 31.6457461 ] } },
{ "type": "Feature", "properties": { "osm_id": 8984486764, "osm_type": "node", "name": "Badhial", "tags": { "name": "Badhial", "place": "village" } }, "geometry": { "type": "Point", "coordinates": [ 76.9585204, 31.6494177 ] } },
{ "type": "Feature", "properties": { "osm_id": 8984486759, "osm_type": "node", "name": "Furaj", "tags": { "name": "Furaj", "place": "village" } }, "geometry": { "type": "Point", "coordinates": [ 76.9573402, 31.6545504 ] } },
{ "type": "Feature", "properties": { "osm_id": 8984486760, "osm_type": "node", "name": "Tikar", "tags": { "name": "Tikar", "place": "village" } }, "geometry": { "type": "Point", "coordinates": [ 76.9668674, 31.6562308 ] } },
{ "type": "Feature", "properties": { "osm_id": 570759424, "osm_type": "node", "name": "Behna", "tags": { "name": "Behna", "place": "village" } }, "geometry": { "type": "Point", "coordinates": [ 76.9553412, 31.657774 ] } },
{ "type": "Feature", "properties": { "osm_id": 7926301974, "osm_type": "node", "name": "Nandi", "tags": { "name": "Nandi", "place": "village" } }, "geometry": { "type": "Point", "coordinates": [ 77.0751643, 31.6385942 ] } },
{ "type": "Feature", "properties": { "osm_id": 7926301975, "osm_type": "node", "name": "Padhar", "tags": { "name": "Padhar", "place": "village" } }, "geometry": { "type": "Point", "coordinates": [ 77.0683408, 31.6397177 ] } },
{ "type": "Feature", "properties": { "osm_id": 7926301981, "osm_type": "node", "name": "Surah", "tags": { "name": "Surah", "place": "village" } }, "geometry": { "type": "Point", "coordinates": [ 77.0852279, 31.652322 ] } },
{ "type": "Feature", "properties": { "osm_id": 7924187420, "osm_type": "node", "name": "Basta", "tags": { "name": "Basta", "place": "village" } }, "geometry": { "type": "Point", "coordinates": [ 77.0507884, 31.6525777 ] } },
{ "type": "Feature", "properties": { "osm_id": 287479967, "osm_type": "node", "name": "Pandoh", "tags": { "name": "Pandoh", "place": "village" } }, "geometry": { "type": "Point", "coordinates": [ 77.0556492, 31.6687091 ] } },
{ "type": "Feature", "properties": { "osm_id": 550075989, "osm_type": "node", "name": "Uba", "tags": { "name": "Uba", "place": "village" } }, "geometry": { "type": "Point", "coordinates": [ 77.0606873, 31.6748605 ] } },
{ "type": "Feature", "properties": { "osm_id": 3541553847, "osm_type": "node", "name": "Pandoh", "tags": { "name": "Pandoh", "place": "village" } }, "geometry": { "type": "Point", "coordinates": [ 77.047148, 31.6791235 ] } },
{ "type": "Feature", "properties": { "osm_id": 7924187437, "osm_type": "node", "name": "Saprei", "tags": { "name": "Saprei", "place": "village" } }, "geometry": { "type": "Point", "coordinates": [ 77.052505, 31.6863815 ] } },
{ "type": "Feature", "properties": { "osm_id": 550081206, "osm_type": "node", "name": "Nagdhar", "tags": { "name": "Nagdhar", "place": "village" } }, "geometry": { "type": "Point", "coordinates": [ 77.0702387, 31.6932894 ] } },
{ "type": "Feature", "properties": { "osm_id": 7924187452, "osm_type": "node", "name": "Siwa", "tags": { "name": "Siwa", "place": "village" } }, "geometry": { "type": "Point", "coordinates": [ 77.0554018, 31.7029775 ] } },
{ "type": "Feature", "properties": { "osm_id": 8984486765, "osm_type": "node", "name": "Gutkar", "tags": { "name": "Gutkar", "place": "village" } }, "geometry": { "type": "Point", "coordinates": [ 76.9456458, 31.659555 ] } },
{ "type": "Feature", "properties": { "osm_id": 570759404, "osm_type": "node", "name": "Malauri", "tags": { "name": "Malauri", "place": "village" } }, "geometry": { "type": "Point", "coordinates": [ 76.9488379, 31.6616582 ] } },
{ "type": "Feature", "properties": { "osm_id": 7924187425, "osm_type": "node", "name": "Suras", "tags": { "name": "Suras", "place": "village" } }, "geometry": { "type": "Point", "coordinates": [ 76.9964576, 31.6659656 ] } },
{ "type": "Feature", "properties": { "osm_id": 7924187460, "osm_type": "node", "name": "Sambal", "tags": { "name": "Sambal", "place": "village" } }, "geometry": { "type": "Point", "coordinates": [ 77.0292234, 31.7031601 ] } },
{ "type": "Feature", "properties": { "osm_id": 7924187461, "osm_type": "node", "name": "Dhalala", "tags": { "name": "Dhalala", "place": "village" } }, "geometry": { "type": "Point", "coordinates": [ 77.0267558, 31.7126161 ] } },
{ "type": "Feature", "properties": { "osm_id": 7924187462, "osm_type": "node", "name": "Niyul", "tags": { "name": "Niyul", "place": "village" } }, "geometry": { "type": "Point", "coordinates": [ 77.0330858, 31.7158835 ] } },
{ "type": "Feature", "properties": { "osm_id": 7924187465, "osm_type": "node", "name": "Bahl", "tags": { "name": "Bahl", "place": "village" } }, "geometry": { "type": "Point", "coordinates": [ 77.0228505, 31.7185302 ] } },
{ "type": "Feature", "properties": { "osm_id": 3105254532, "osm_type": "node", "name": "Kamand", "tags": { "name": "Kamand", "place": "village" } }, "geometry": { "type": "Point", "coordinates": [ 76.9973643, 31.7817182 ] } },
{ "type": "Feature", "properties": { "osm_id": 3105254533, "osm_type": "node", "name": "Kataula", "tags": { "name": "Kataula", "place": "village" } }, "geometry": { "type": "Point", "coordinates": [ 77.0184018, 31.7977809 ] } },
{ "type": "Feature", "properties": { "osm_id": 7952767925, "osm_type": "node", "name": "Kharkanu", "tags": { "name": "Kharkanu", "place": "village" } }, "geometry": { "type": "Point", "coordinates": [ 76.9566643, 31.8105606 ] } },
{ "type": "Feature", "properties": { "osm_id": 7924187451, "osm_type": "node", "name": null, "tags": { "place": "village" } }, "geometry": { "type": "Point", "coordinates": [ 77.0553481, 31.7074227 ] } },
{ "type": "Feature", "properties": { "osm_id": 550105264, "osm_type": "node", "name": "Dyori", "tags": { "name": "Dyori", "place": "village" } }, "geometry": { "type": "Point", "coordinates": [ 77.0842493, 31.7187518 ] } },
{ "type": "Feature", "properties": { "osm_id": 550111266, "osm_type": "node", "name": null, "tags": { "fixme": "name unknown", "place": "village" } }, "geometry": { "type": "Point", "coordinates": [ 77.0845234, 31.7237643 ] } },
{ "type": "Feature", "properties": { "osm_id": 550111427, "osm_type": "node", "name": "Lehar", "tags": { "name": "Lehar", "place": "village" } }, "geometry": { "type": "Point", "coordinates": [ 77.0851221, 31.73085 ] } },
{ "type": "Feature", "properties": { "osm_id": 5411470404, "osm_type": "node", "name": "Bagi", "tags": { "name": "Bagi", "place": "village" } }, "geometry": { "type": "Point", "coordinates": [ 77.0752808, 31.7830482 ] } },
{ "type": "Feature", "properties": { "osm_id": 10669142754, "osm_type": "node", "name": "Ropa", "tags": { "name": "Ropa", "place": "village" } }, "geometry": { "type": "Point", "coordinates": [ 77.1233677, 31.8361337 ] } },
{ "type": "Feature", "properties": { "osm_id": 7948853149, "osm_type": "node", "name": "Sari", "tags": { "name": "Sari", "place": "village" } }, "geometry": { "type": "Point", "coordinates": [ 76.86342, 31.8029655 ] } },
{ "type": "Feature", "properties": { "osm_id": 5118693013, "osm_type": "node", "name": "Drang", "tags": { "name": "Drang", "name:hi": "द्रंग", "place": "village" } }, "geometry": { "type": "Point", "coordinates": [ 76.9417001, 31.8063096 ] } },
{ "type": "Feature", "properties": { "osm_id": 7948853150, "osm_type": "node", "name": "Kot", "tags": { "name": "Kot", "place": "village" } }, "geometry": { "type": "Point", "coordinates": [ 76.8657589, 31.809275 ] } },
{ "type": "Feature", "properties": { "osm_id": 5369312493, "osm_type": "node", "name": "Pali", "tags": { "name": "Pali", "name:hi": "पाली", "place": "village" } }, "geometry": { "type": "Point", "coordinates": [ 76.9382167, 31.8204713 ] } },
{ "type": "Feature", "properties": { "osm_id": 7952747552, "osm_type": "node", "name": "Hiyund", "tags": { "name": "Hiyund", "place": "village" } }, "geometry": { "type": "Point", "coordinates": [ 76.8934393, 31.8269794 ] } },
{ "type": "Feature", "properties": { "osm_id": 5118692775, "osm_type": "node", "name": "Sahal", "tags": { "name": "Sahal", "name:hi": "साहल", "place": "village" } }, "geometry": { "type": "Point", "coordinates": [ 76.9368293, 31.8357359 ] } },
{ "type": "Feature", "properties": { "osm_id": 7952747579, "osm_type": "node", "name": "Kuni", "tags": { "name": "Kuni", "place": "village" } }, "geometry": { "type": "Point", "coordinates": [ 76.928823, 31.8415816 ] } },
{ "type": "Feature", "properties": { "osm_id": 7023423308, "osm_type": "node", "name": "Kunnu", "tags": { "name": "Kunnu", "place": "village" } }, "geometry": { "type": "Point", "coordinates": [ 76.927886, 31.8452296 ] } },
{ "type": "Feature", "properties": { "osm_id": 7952758494, "osm_type": "node", "name": "Cheli", "tags": { "name": "Cheli", "place": "village" } }, "geometry": { "type": "Point", "coordinates": [ 76.9126653, 31.85897 ] } },
{ "type": "Feature", "properties": { "osm_id": 5118693012, "osm_type": "node", "name": "Narla", "tags": { "name": "Narla", "name:hi": "नारला", "place": "village" } }, "geometry": { "type": "Point", "coordinates": [ 76.9285783, 31.8677629 ] } },
{ "type": "Feature", "properties": { "osm_id": 7945505081, "osm_type": "node", "name": "Batheri", "tags": { "name": "Batheri", "place": "village" } }, "geometry": { "type": "Point", "coordinates": [ 76.9935454, 31.8356098 ] } },
{ "type": "Feature", "properties": { "osm_id": 10669562010, "osm_type": "node", "name": "Arang", "tags": { "name": "Arang", "place": "village" } }, "geometry": { "type": "Point", "coordinates": [ 77.0191084, 31.85478 ] } },
{ "type": "Feature", "properties": { "osm_id": 7948536439, "osm_type": "node", "name": "Dharun", "tags": { "name": "Dharun", "place": "village" } }, "geometry": { "type": "Point", "coordinates": [ 76.7903995, 31.9639958 ] } },
{ "type": "Feature", "properties": { "osm_id": 7053872781, "osm_type": "node", "name": "Gumma", "tags": { "name": "Gumma", "place": "village" } }, "geometry": { "type": "Point", "coordinates": [ 76.8521014, 31.964557 ] } },
{ "type": "Feature", "properties": { "osm_id": 7948536437, "osm_type": "node", "name": "Dalana", "tags": { "name": "Dalana", "place": "village" } }, "geometry": { "type": "Point", "coordinates": [ 76.7763448, 31.9650334 ] } },
{ "type": "Feature", "properties": { "osm_id": 7948536438, "osm_type": "node", "name": "Ner", "tags": { "name": "Ner", "place": "village" } }, "geometry": { "type": "Point", "coordinates": [ 76.799519, 31.9686196 ] } },
{ "type": "Feature", "properties": { "osm_id": 7948536443, "osm_type": "node", "name": "Bharun", "tags": { "name": "Bharun", "place": "village" } }, "geometry": { "type": "Point", "coordinates": [ 76.7898202, 31.969821 ] } },
{ "type": "Feature", "properties": { "osm_id": 7948536441, "osm_type": "node", "name": "Jalpehr", "tags": { "name": "Jalpehr", "place": "village" } }, "geometry": { "type": "Point", "coordinates": [ 76.7791772, 31.9707675 ] } },
{ "type": "Feature", "properties": { "osm_id": 7948536442, "osm_type": "node", "name": "Makreri", "tags": { "name": "Makreri", "place": "village" } }, "geometry": { "type": "Point", "coordinates": [ 76.7751216, 31.9744445 ] } },
{ "type": "Feature", "properties": { "osm_id": 7948536446, "osm_type": "node", "name": "Majharnu", "tags": { "name": "Majharnu", "place": "village" } }, "geometry": { "type": "Point", "coordinates": [ 76.7976951, 31.9749905 ] } },
{ "type": "Feature", "properties": { "osm_id": 7948536444, "osm_type": "node", "name": "Jhalwan", "tags": { "name": "Jhalwan", "place": "village" } }, "geometry": { "type": "Point", "coordinates": [ 76.7917299, 31.9762101 ] } },
{ "type": "Feature", "properties": { "osm_id": 7948536445, "osm_type": "node", "name": "Bagh", "tags": { "name": "Bagh", "place": "village" } }, "geometry": { "type": "Point", "coordinates": [ 76.7843484, 31.9772112 ] } },
{ "type": "Feature", "properties": { "osm_id": 7053866811, "osm_type": "node", "name": "Galu", "tags": { "name": "Galu", "place": "village" } }, "geometry": { "type": "Point", "coordinates": [ 76.8310555, 31.9808066 ] } },
{ "type": "Feature", "properties": { "osm_id": 7948536449, "osm_type": "node", "name": "Balakrupi", "tags": { "name": "Balakrupi", "place": "village" } }, "geometry": { "type": "Point", "coordinates": [ 76.7835116, 31.9834359 ] } },
{ "type": "Feature", "properties": { "osm_id": 7948174858, "osm_type": "node", "name": "Hara Bagh", "tags": { "name": "Hara Bagh", "place": "village" } }, "geometry": { "type": "Point", "coordinates": [ 76.8259764, 31.9858929 ] } },
{ "type": "Feature", "properties": { "osm_id": 7948174861, "osm_type": "node", "name": "Ganain", "tags": { "name": "Ganain", "place": "village" } }, "geometry": { "type": "Point", "coordinates": [ 76.8165564, 31.9862569 ] } },
{ "type": "Feature", "properties": { "osm_id": 7948536448, "osm_type": "node", "name": "Arthi", "tags": { "name": "Arthi", "place": "village" } }, "geometry": { "type": "Point", "coordinates": [ 76.7969226, 31.9876219 ] } },
{ "type": "Feature", "properties": { "osm_id": 7948174857, "osm_type": "node", "name": "Nakehr Kangwan", "tags": { "name": "Nakehr Kangwan", "place": "village" } }, "geometry": { "type": "Point", "coordinates": [ 76.8280792, 31.9893691 ] } },
{ "type": "Feature", "properties": { "osm_id": 7948174860, "osm_type": "node", "name": "Awair", "tags": { "name": "Awair", "place": "village" } }, "geometry": { "type": "Point", "coordinates": [ 76.8212557, 31.9907886 ] } },
{ "type": "Feature", "properties": { "osm_id": 7948536451, "osm_type": "node", "name": "Shanan", "tags": { "name": "Shanan", "place": "village" } }, "geometry": { "type": "Point", "coordinates": [ 76.8102479, 31.9923537 ] } },
{ "type": "Feature", "properties": { "osm_id": 7948174863, "osm_type": "node", "name": "Kathla", "tags": { "name": "Kathla", "place": "village" } }, "geometry": { "type": "Point", "coordinates": [ 76.7923093, 31.9976857 ] } },
{ "type": "Feature", "properties": { "osm_id": 7948202716, "osm_type": "node", "name": "Tansil", "tags": { "name": "Tansil", "place": "village" } }, "geometry": { "type": "Point", "coordinates": [ 76.7790055, 32.0005791 ] } },
{ "type": "Feature", "properties": { "osm_id": 7948174865, "osm_type": "node", "name": "Aiwara", "tags": { "name": "Aiwara", "place": "village" } }, "geometry": { "type": "Point", "coordinates": [ 76.7685127, 31.9800142 ] } },
{ "type": "Feature", "properties": { "osm_id": 7948174864, "osm_type": "node", "name": "Main Bharola", "tags": { "name": "Main Bharola", "place": "village" } }, "geometry": { "type": "Point", "coordinates": [ 76.7555523, 31.98036 ] } },
{ "type": "Feature", "properties": { "osm_id": 7948202714, "osm_type": "node", "name": "Sarli", "tags": { "name": "Sarli", "place": "village" } }, "geometry": { "type": "Point", "coordinates": [ 76.7607879, 31.9876037 ] } },
{ "type": "Feature", "properties": { "osm_id": 7948202713, "osm_type": "node", "name": "Dhelu", "tags": { "name": "Dhelu", "place": "village" } }, "geometry": { "type": "Point", "coordinates": [ 76.7726326, 31.9882043 ] } },
{ "type": "Feature", "properties": { "osm_id": 7948202715, "osm_type": "node", "name": "Paren", "tags": { "name": "Paren", "place": "village" } }, "geometry": { "type": "Point", "coordinates": [ 76.7532134, 31.9893691 ] } },
{ "type": "Feature", "properties": { "osm_id": 11468465461, "osm_type": "node", "name": "Kohra", "tags": { "name": "Kohra", "place": "village" } }, "geometry": { "type": "Point", "coordinates": [ 76.7423419, 31.9929716 ] } },
{ "type": "Feature", "properties": { "osm_id": 11468465458, "osm_type": "node", "name": "Bhaterh", "tags": { "name": "Bhaterh", "place": "village" } }, "geometry": { "type": "Point", "coordinates": [ 76.7378859, 31.9962887 ] } },
{ "type": "Feature", "properties": { "osm_id": 7961144820, "osm_type": "node", "name": "Tanda", "tags": { "name": "Tanda", "place": "village" } }, "geometry": { "type": "Point", "coordinates": [ 76.7663884, 31.9992871 ] } },
{ "type": "Feature", "properties": { "osm_id": 7961110425, "osm_type": "node", "name": "Dhanyatri", "tags": { "name": "Dhanyatri", "place": "village" } }, "geometry": { "type": "Point", "coordinates": [ 76.7487502, 32.0002334 ] } },
{ "type": "Feature", "properties": { "osm_id": 7948202717, "osm_type": "node", "name": "Dohg", "tags": { "name": "Dohg", "place": "village" } }, "geometry": { "type": "Point", "coordinates": [ 76.7619681, 32.0033996 ] } },
{ "type": "Feature", "properties": { "osm_id": 7961144823, "osm_type": "node", "name": "Badhiara", "tags": { "name": "Badhiara", "place": "village" } }, "geometry": { "type": "Point", "coordinates": [ 76.7575693, 32.0075483 ] } },
{ "type": "Feature", "properties": { "osm_id": 7724787934, "osm_type": "node", "name": "Sagnehad Haar", "tags": { "name": "Sagnehad Haar", "place": "village" } }, "geometry": { "type": "Point", "coordinates": [ 76.7324912, 32.0080108 ] } },
{ "type": "Feature", "properties": { "osm_id": 7053819062, "osm_type": "node", "name": "Ladruhi", "tags": { "name": "Ladruhi", "place": "village" } }, "geometry": { "type": "Point", "coordinates": [ 76.7545871, 32.0139257 ] } },
{ "type": "Feature", "properties": { "osm_id": 11468465463, "osm_type": "node", "name": "Mushehra", "tags": { "name": "Mushehra", "place": "village" } }, "geometry": { "type": "Point", "coordinates": [ 76.7334649, 32.0191506 ] } },
{ "type": "Feature", "properties": { "osm_id": 6228833845, "osm_type": "node", "name": "Sukhbagh", "tags": { "name": "Sukhbagh", "place": "village" } }, "geometry": { "type": "Point", "coordinates": [ 76.7227435, 32.0200297 ] } },
{ "type": "Feature", "properties": { "osm_id": 540761153, "osm_type": "node", "name": "Ahju", "tags": { "name": "Ahju", "name:hi": "आहजु", "place": "village" } }, "geometry": { "type": "Point", "coordinates": [ 76.7037954, 32.0254221 ] } },
{ "type": "Feature", "properties": { "osm_id": 13916630381, "osm_type": "node", "name": "Khaj", "tags": { "name": "Khaj", "name:hi": "खज", "place": "village", "population": "350" } }, "geometry": { "type": "Point", "coordinates": [ 76.7360136, 32.0277481 ] } },
{ "type": "Feature", "properties": { "osm_id": 6459140612, "osm_type": "node", "name": "Ghatta", "tags": { "name": "Ghatta", "place": "village" } }, "geometry": { "type": "Point", "coordinates": [ 76.6776661, 32.0327062 ] } },
{ "type": "Feature", "properties": { "osm_id": 7948174862, "osm_type": "node", "name": "Jimjima", "tags": { "name": "Jimjima", "place": "village" } }, "geometry": { "type": "Point", "coordinates": [ 76.803317, 32.0006519 ] } },
{ "type": "Feature", "properties": { "osm_id": 5197610121, "osm_type": "node", "name": "Dul", "tags": { "name": "Dul", "place": "village" } }, "geometry": { "type": "Point", "coordinates": [ 76.7989783, 32.0070041 ] } },
{ "type": "Feature", "properties": { "osm_id": 5245662945, "osm_type": "node", "name": "Lapas", "tags": { "name": "Lapas", "place": "village" } }, "geometry": { "type": "Point", "coordinates": [ 76.8570471, 32.0213396 ] } },
{ "type": "Feature", "properties": { "osm_id": 582860717, "osm_type": "node", "name": "Barot", "tags": { "name": "Barot", "name:en": "Barot", "name:hi": "बरोट", "place": "village" } }, "geometry": { "type": "Point", "coordinates": [ 76.8452055, 32.0377277 ] } },
{ "type": "Feature", "properties": { "osm_id": 847677092, "osm_type": "node", "name": "Multhan", "tags": { "admin_level": "6", "name": "Multhan", "place": "village" } }, "geometry": { "type": "Point", "coordinates": [ 76.8414155, 32.0414722 ] } },
{ "type": "Feature", "properties": { "osm_id": 4855596822, "osm_type": "node", "name": "Matru", "tags": { "name": "Matru", "place": "village" } }, "geometry": { "type": "Point", "coordinates": [ 76.6907501, 32.0383484 ] } },
{ "type": "Feature", "properties": { "osm_id": 9927970387, "osm_type": "node", "name": "Suja", "tags": { "name": "Suja", "place": "village" } }, "geometry": { "type": "Point", "coordinates": [ 76.7014682, 32.0408948 ] } },
{ "type": "Feature", "properties": { "osm_id": 4855596836, "osm_type": "node", "name": "Suja", "tags": { "name": "Suja", "place": "village" } }, "geometry": { "type": "Point", "coordinates": [ 76.7011356, 32.0448872 ] } },
{ "type": "Feature", "properties": { "osm_id": 6404384297, "osm_type": "node", "name": "Sandral", "tags": { "name": "Sandral", "name:hi": "संद्राल", "place": "village" } }, "geometry": { "type": "Point", "coordinates": [ 76.693447, 32.0474577 ] } }
]
}
