{
"type": "FeatureCollection",
"name": "mandi_Hydropower_Stations_cleaned",
"crs": { "type": "name", "properties": { "name": "urn:ogc:def:crs:OGC:1.3:CRS84" } },
"features": [
{ "type": "Feature", "properties": { "osm_id": 12686005006, "osm_type": "node", "name": null, "tags": { "generator:output:electricity": "yes", "generator:source": "hydro", "power": "generator" } }, "geometry": { "type": "Point", "coordinates": [ 76.8757873, 31.3820858 ] } },
{ "type": "Feature", "properties": { "osm_id": 330267981, "osm_type": "way", "name": "Koldam Dam Powerhouse", "tags": { "building": "yes", "name": "Koldam Dam Powerhouse", "operator": "NTPC Limited", "plant:output:electricity": "800 MW", "plant:source": "hydro", "power": "plant", "wikidata": "Q65199789" } }, "geometry": { "type": "Polygon", "coordinates": [ [ [ 76.8770499, 31.3825419 ], [ 76.877141, 31.3821216 ], [ 76.8753162, 31.3818333 ], [ 76.8752251, 31.3822536 ], [ 76.8770499, 31.3825419 ] ] ] } },
{ "type": "Feature", "properties": { "osm_id": 330278458, "osm_type": "way", "name": null, "tags": { "building": "yes", "name:en": "Dehar Power House", "operator": "Bhakra Beas Management Board", "plant:output:electricity": "990 MW", "plant:source": "hydro", "power": "plant", "wikidata": "Q11965021" } }, "geometry": { "type": "Polygon", "coordinates": [ [ [ 76.8681315, 31.4131682 ], [ 76.8683722, 31.4132074 ], [ 76.8685826, 31.4132416 ], [ 76.8687545, 31.4132696 ], [ 76.8690275, 31.413314 ], [ 76.8692112, 31.4133439 ], [ 76.8692816, 31.4130288 ], [ 76.8684018530667, 31.412885701527763 ], [ 76.86824, 31.41297 ], [ 76.867945371888055, 31.413126439705458 ], [ 76.8679429, 31.4131375 ], [ 76.8681315, 31.4131682 ] ] ] } },
{ "type": "Feature", "properties": { "osm_id": 12685985168, "osm_type": "node", "name": null, "tags": { "generator:output:electricity": "yes", "generator:source": "hydro", "power": "generator" } }, "geometry": { "type": "Point", "coordinates": [ 76.8686215, 31.4131166 ] } },
{ "type": "Feature", "properties": { "osm_id": 823477055, "osm_type": "way", "name": "Uhl III hydro power station", "tags": { "building": "yes", "name": "Uhl III hydro power station", "plant:output:electricity": "100 MW", "plant:source": "hydro", "power": "plant", "wikidata": "Q65199822" } }, "geometry": { "type": "Polygon", "coordinates": [ [ [ 76.7218369, 31.8754371 ], [ 76.7219925, 31.8753209 ], [ 76.7214668, 31.8748312 ], [ 76.7212871, 31.8749588 ], [ 76.7218369, 31.8754371 ] ] ] } },
{ "type": "Feature", "properties": { "osm_id": 1095766194, "osm_type": "way", "name": null, "tags": { "building": "yes", "plant:source": "hydro", "power": "plant" } }, "geometry": { "type": "Polygon", "coordinates": [ [ [ 76.9497223, 31.8841093 ], [ 76.9495212, 31.8838588 ], [ 76.9492373, 31.8839736 ], [ 76.9493553, 31.8842082 ], [ 76.9497223, 31.8841093 ] ] ] } },
{ "type": "Feature", "properties": { "osm_id": 823477054, "osm_type": "way", "name": null, "tags": { "building": "yes", "plant:source": "hydro", "power": "plant" } }, "geometry": { "type": "Polygon", "coordinates": [ [ [ 76.7987949, 31.9544471 ], [ 76.7985696, 31.9543675 ], [ 76.7983201, 31.9548226 ], [ 76.7985508, 31.9549137 ], [ 76.7987949, 31.9544471 ] ] ] } },
{ "type": "Feature", "properties": { "osm_id": 493723417, "osm_type": "way", "name": "Shanan Power Project", "tags": { "landuse": "industrial", "name": "Shanan Power Project", "operator": "Punjab State Power Corporation", "plant:output:electricity": "110 MW", "plant:source": "hydro", "power": "plant", "source": "https://www.pspcl.in/existing-hydel-projects/shanan-power-house-hydro-electric-project/", "wikidata": "Q12000140" } }, "geometry": { "type": "Polygon", "coordinates": [ [ [ 76.8066323, 31.9894282 ], [ 76.80601, 31.9901971 ], [ 76.8050283, 31.9912481 ], [ 76.8051088, 31.9915393 ], [ 76.8053555, 31.991653 ], [ 76.8056667, 31.9912526 ], [ 76.8060154, 31.9911389 ], [ 76.8068147, 31.9911298 ], [ 76.8075442, 31.9912981 ], [ 76.8082668, 31.9913877 ], [ 76.8085028, 31.9900183 ], [ 76.8098402, 31.9902335 ], [ 76.8106341, 31.9905975 ], [ 76.8110526, 31.990097 ], [ 76.8082631, 31.9890324 ], [ 76.8081558, 31.9887139 ], [ 76.8076193, 31.9886047 ], [ 76.8067181, 31.9891006 ], [ 76.8066323, 31.9894282 ] ] ] } },
{ "type": "Feature", "properties": { "osm_id": 1468713488, "osm_type": "way", "name": null, "tags": { "plant:source": "hydro", "power": "plant" } }, "geometry": { "type": "Polygon", "coordinates": [ [ [ 77.1220601, 31.6304827 ], [ 77.1224382, 31.6294207 ], [ 77.1220815, 31.6293225 ], [ 77.1217462, 31.630389 ], [ 77.1220601, 31.6304827 ] ] ] } },
{ "type": "Feature", "properties": { "osm_id": 444232921, "osm_type": "way", "name": null, "tags": { "building": "yes", "plant:source": "hydro", "power": "plant" } }, "geometry": { "type": "Polygon", "coordinates": [ [ [ 77.1632945, 31.6979086 ], [ 77.1632502, 31.6976633 ], [ 77.1631084, 31.6976818 ], [ 77.1631527, 31.6979271 ], [ 77.1632945, 31.6979086 ] ] ] } },
{ "type": "Feature", "properties": { "osm_id": 823477053, "osm_type": "way", "name": null, "tags": { "building": "yes", "plant:source": "hydro", "power": "plant" } }, "geometry": { "type": "Polygon", "coordinates": [ [ [ 77.1635418, 31.6989794 ], [ 77.1637483, 31.6989805 ], [ 77.1637416, 31.6988893 ], [ 77.1635391, 31.6988915 ], [ 77.1635418, 31.6989794 ] ] ] } },
{ "type": "Feature", "properties": { "osm_id": 1374540228, "osm_type": "way", "name": null, "tags": { "plant:source": "hydro", "power": "plant" } }, "geometry": { "type": "Polygon", "coordinates": [ [ [ 76.8452829, 32.0425136 ], [ 76.8457764, 32.0429229 ], [ 76.8457442, 32.0420726 ], [ 76.8451649, 32.0414496 ], [ 76.8445587, 32.0412541 ], [ 76.8439794, 32.0412131 ], [ 76.8436307, 32.0414405 ], [ 76.8440491, 32.041677 ], [ 76.844784, 32.0417679 ], [ 76.8452829, 32.0425136 ] ] ] } }
]
}
