{
"type": "FeatureCollection",
"name": "mandi_Airports_Helipads_cleaned",
"crs": { "type": "name", "properties": { "name": "urn:ogc:def:crs:OGC:1.3:CRS84" } },
"features": [
{ "type": "Feature", "properties": { "osm_id": 1250460753, "osm_type": "way", "name": null, "tags": { "aeroway": "helipad" } }, "geometry": { "type": "Polygon", "coordinates": [ [ [ 76.8415836, 31.4243796 ], [ 76.8415351, 31.4241562 ], [ 76.84128, 31.4241966 ], [ 76.8413286, 31.42442 ], [ 76.8415836, 31.4243796 ] ] ] } },
{ "type": "Feature", "properties": { "osm_id": 12879933612, "osm_type": "node", "name": null, "tags": { "aeroway": "helipad", "lit": "no" } }, "geometry": { "type": "Point", "coordinates": [ 77.044049, 31.4845945 ] } },
{ "type": "Feature", "properties": { "osm_id": 1265908815, "osm_type": "way", "name": null, "tags": { "aeroway": "helipad" } }, "geometry": { "type": "Polygon", "coordinates": [ [ [ 76.8865948, 31.5121161 ], [ 76.8865917, 31.5121529 ], [ 76.8865998, 31.5121891 ], [ 76.8866187, 31.5122223 ], [ 76.886647, 31.5122503 ], [ 76.8866828, 31.512271 ], [ 76.8867237, 31.5122831 ], [ 76.8867669, 31.5122858 ], [ 76.8868094, 31.5122789 ], [ 76.8868484, 31.5122628 ], [ 76.8868811, 31.5122386 ], [ 76.8869054, 31.5122081 ], [ 76.8869196, 31.5121732 ], [ 76.8869228, 31.5121364 ], [ 76.8869147, 31.5121002 ], [ 76.8868958, 31.512067 ], [ 76.8868675, 31.512039 ], [ 76.8868317, 31.5120183 ], [ 76.8867908, 31.5120062 ], [ 76.8867476, 31.5120035 ], [ 76.8867051, 31.5120104 ], [ 76.8866661, 31.5120265 ], [ 76.8866334, 31.5120507 ], [ 76.886609, 31.5120812 ], [ 76.8865948, 31.5121161 ] ] ] } },
{ "type": "Feature", "properties": { "osm_id": 9838830168, "osm_type": "node", "name": "Batludhar Helipad", "tags": { "aeroway": "helipad", "name": "Batludhar Helipad" } }, "geometry": { "type": "Point", "coordinates": [ 77.2073986, 31.6687662 ] } },
{ "type": "Feature", "properties": { "osm_id": 1247271064, "osm_type": "way", "name": null, "tags": { "aeroway": "helipad" } }, "geometry": { "type": "Polygon", "coordinates": [ [ [ 76.7019543, 31.9815545 ], [ 76.7019574, 31.9815788 ], [ 76.7019712, 31.9816002 ], [ 76.7019936, 31.9816156 ], [ 76.7020212, 31.9816224 ], [ 76.7020499, 31.9816198 ], [ 76.7020751, 31.9816081 ], [ 76.7020932, 31.9815891 ], [ 76.7021013, 31.9815657 ], [ 76.7020982, 31.9815414 ], [ 76.7020844, 31.98152 ], [ 76.702062, 31.9815046 ], [ 76.7020344, 31.9814978 ], [ 76.7020058, 31.9815004 ], [ 76.7019805, 31.9815121 ], [ 76.7019624, 31.9815311 ], [ 76.7019543, 31.9815545 ] ] ] } }
]
}
