{
"type": "FeatureCollection",
"name": "kullu_Airports_Helipads",
"crs": { "type": "name", "properties": { "name": "urn:ogc:def:crs:OGC:1.3:CRS84" } },
"features": [
{ "type": "Feature", "properties": { "osm_id": 62066008, "osm_type": "way", "name": "Bhuntar Airport", "tags": { "aeroway": "aerodrome", "ele": "1089", "iata": "KUU", "icao": "VIBR", "name": "Bhuntar Airport", "name:hi": "भुंतर हवाई अड्डे", "name_1": "Kullu Manali Airport", "name_2": "Kullu Airport", "operator": "Airports Authority of India", "ref": "KUU", "website": "http://www.aai.aero/allAirports/kullu_generalinfo.jsp", "wikidata": "Q619720", "wikipedia": "en:Bhuntar Airport" } }, "geometry": { "type": "Polygon", "coordinates": [ [ [ 77.1535387, 31.8807051 ], [ 77.1540592, 31.8797649 ], [ 77.154519, 31.8785449 ], [ 77.1555961, 31.8766986 ], [ 77.1561974, 31.8763026 ], [ 77.1566868, 31.876032 ], [ 77.1568355, 31.875618 ], [ 77.156786, 31.8754566 ], [ 77.1569152, 31.8749023 ], [ 77.1570569, 31.8730604 ], [ 77.1569908, 31.8703202 ], [ 77.1563478, 31.8701145 ], [ 77.1558316, 31.8711479 ], [ 77.155037, 31.8719821 ], [ 77.1533106, 31.8761574 ], [ 77.1524622, 31.8760158 ], [ 77.1524409, 31.8761374 ], [ 77.1518258, 31.8760113 ], [ 77.1517675, 31.8762635 ], [ 77.1511842, 31.8779567 ], [ 77.151249, 31.8787491 ], [ 77.151216, 31.8796813 ], [ 77.1514811, 31.8801271 ], [ 77.1514177, 31.880782 ], [ 77.1509358, 31.88085 ], [ 77.1507145, 31.8815678 ], [ 77.151558, 31.8819921 ], [ 77.1517914, 31.88204 ], [ 77.1523455, 31.8817132 ], [ 77.1531792, 31.8809141 ], [ 77.1535387, 31.8807051 ] ] ] } },
{ "type": "Feature", "properties": { "osm_id": 585490100, "osm_type": "way", "name": null, "tags": { "aeroway": "helipad" } }, "geometry": { "type": "Polygon", "coordinates": [ [ [ 77.1719185, 32.3032539 ], [ 77.1718209, 32.3030423 ], [ 77.1715791, 32.3031219 ], [ 77.1716767, 32.3033336 ], [ 77.1719185, 32.3032539 ] ] ] } }
]
}
