{
"type": "FeatureCollection",
"name": "mandi_Railway_Stations",
"crs": { "type": "name", "properties": { "name": "urn:ogc:def:crs:OGC:1.3:CRS84" } },
"features": [
{ "type": "Feature", "properties": { "osm_id": 4781894867, "osm_type": "node", "name": "Joginder Nagar", "tags": { "internet_access": "no", "name": "Joginder Nagar", "name:hi": "जोगिंदर नगर", "network": "IR", "operator": "NR", "public_transport": "station", "railway": "station", "ref": "JDNX", "train": "yes", "wikidata": "Q24944862", "wikipedia": "en:Joginder Nagar railway station" } }, "geometry": { "type": "Point", "coordinates": [ 76.7894848, 31.9891581 ] } },
{ "type": "Feature", "properties": { "osm_id": 3067941613, "osm_type": "node", "name": "Ahju", "tags": { "internet_access": "no", "name": "Ahju", "name:hi": "आहजु", "network": "IR", "operator": "NR", "public_transport": "station", "railway": "station", "ref": "AHJU", "train": "yes", "wikidata": "Q63361149" } }, "geometry": { "type": "Point", "coordinates": [ 76.7068993, 32.0240624 ] } }
]
}
