{
"type": "FeatureCollection",
"name": "chamba_Primary_Health_Centres",
"crs": { "type": "name", "properties": { "name": "urn:ogc:def:crs:OGC:1.3:CRS84" } },
"features": [
{ "type": "Feature", "properties": { "osm_id": 8049121910, "osm_type": "node", "name": "SubCentre, NainiKhad", "tags": { "addr:district": "Chamba", "addr:full": "NainiKhad", "addr:postcode": "176301", "addr:state": "Himachal Pradesh", "description": "SubCentre", "healthcare": "centre", "name": "SubCentre, NainiKhad", "source": "Local Knowledge" } }, "geometry": { "type": "Point", "coordinates": [ 75.9330958, 32.4899498 ] } },
{ "type": "Feature", "properties": { "osm_id": 7165542018, "osm_type": "node", "name": "PHC, Sihunta", "tags": { "addr:block": "Samote", "addr:district": "Chamba", "addr:full": "Sihunta", "addr:postcode": "176207", "addr:state": "Himachal Pradesh", "description": "Primary Health Centre", "healthcare": "centre", "name": "PHC, Sihunta", "source": "OpenGovernmentData" } }, "geometry": { "type": "Point", "coordinates": [ 76.0882817, 32.3023341 ] } },
{ "type": "Feature", "properties": { "osm_id": 7165542044, "osm_type": "node", "name": "PHC, Samote", "tags": { "addr:block": "Samote", "addr:district": "Chamba", "addr:full": "Samote", "addr:postcode": "176207", "addr:state": "Himachal Pradesh", "contact:phone": "1899271011", "description": "Primary Health Centre", "healthcare": "centre", "name": "PHC, Samote", "source": "OpenGovernmentData" } }, "geometry": { "type": "Point", "coordinates": [ 76.0728214, 32.3274608 ] } },
{ "type": "Feature", "properties": { "osm_id": 7165541995, "osm_type": "node", "name": "PHC, Mehla", "tags": { "addr:block": "Choori", "addr:district": "Chamba", "addr:full": "Mehla", "addr:postcode": "176311", "addr:state": "Himachal Pradesh", "description": "Primary Health Centre", "healthcare": "centre", "name": "PHC, Mehla", "source": "OpenGovernmentData" } }, "geometry": { "type": "Point", "coordinates": [ 76.1789274, 32.4741527 ] } },
{ "type": "Feature", "properties": { "osm_id": 7165542056, "osm_type": "node", "name": "PHC, Kohlri", "tags": { "addr:block": "Pukhari", "addr:district": "Chamba", "addr:full": "Kohlri", "addr:postcode": "176319", "addr:state": "Himachal Pradesh", "description": "Primary Health Centre", "healthcare": "centre", "name": "PHC, Kohlri", "source": "OpenGovernmentData" } }, "geometry": { "type": "Point", "coordinates": [ 76.0443287, 32.5696192 ] } },
{ "type": "Feature", "properties": { "osm_id": 7165542025, "osm_type": "node", "name": "PHC, Sahoo", "tags": { "addr:block": "Pukhari", "addr:district": "Chamba", "addr:full": "Sahoo", "addr:postcode": "176314", "addr:state": "Himachal Pradesh", "description": "Primary Health Centre", "healthcare": "centre", "name": "PHC, Sahoo", "source": "OpenGovernmentData" } }, "geometry": { "type": "Point", "coordinates": [ 76.2261088, 32.591645 ] } },
{ "type": "Feature", "properties": { "osm_id": 7165542053, "osm_type": "node", "name": "PHC, Chaned", "tags": { "addr:block": "Pukhari", "addr:district": "Chamba", "addr:full": "Dalhousie-Chamba Road, Near Government Secondary School, Chaned", "addr:postcode": "176314", "addr:state": "Himachal Pradesh", "description": "Primary Health Centre", "healthcare": "centre", "name": "PHC, Chaned", "source": "OpenGovernmentData" } }, "geometry": { "type": "Point", "coordinates": [ 76.0743551, 32.5963015 ] } },
{ "type": "Feature", "properties": { "osm_id": 7165541973, "osm_type": "node", "name": "PHC, Rajnagar", "tags": { "addr:block": "Pukhari", "addr:district": "Chamba", "addr:full": "Rajnagar", "addr:postcode": "176310", "addr:state": "Himachal Pradesh", "description": "Primary Health Centre", "healthcare": "centre", "name": "PHC, Rajnagar", "source": "OpenGovernmentData" } }, "geometry": { "type": "Point", "coordinates": [ 76.06497, 32.627008 ] } },
{ "type": "Feature", "properties": { "osm_id": 7165542001, "osm_type": "node", "name": "Shakti Dehra PHC", "tags": { "addr:block": "Pukhari", "addr:district": "Chamba", "addr:full": "Shakti Dehra", "addr:postcode": "176319", "addr:state": "Himachal Pradesh", "description": "Primary Health Centre", "healthcare": "centre", "name": "Shakti Dehra PHC", "source": "OpenGovernmentData" } }, "geometry": { "type": "Point", "coordinates": [ 76.1050378, 32.6302383 ] } },
{ "type": "Feature", "properties": { "osm_id": 7016080763, "osm_type": "node", "name": "Primary Health Centre, Purthi", "tags": { "addr:block": "Killar", "addr:district": "Chamba", "addr:full": "Purthi - Tehsil Pangi", "addr:postcode": "176323", "addr:state": "Himachal Pradesh", "description": "Primary Health Centre", "healthcare": "centre", "name": "Primary Health Centre, Purthi", "operator:type": "government", "source": "OpenGovernmentData" } }, "geometry": { "type": "Point", "coordinates": [ 76.4603202, 32.918353 ] } },
{ "type": "Feature", "properties": { "osm_id": 7165542071, "osm_type": "node", "name": "PHC, Saach", "tags": { "addr:block": "Killar", "addr:district": "Chamba", "addr:full": "Saach -Tehsil-Pangi", "addr:postcode": "176323", "addr:state": "Himachal Pradesh", "description": "Primary Health Centre", "healthcare": "centre", "name": "PHC, Saach", "source": "OpenGovernmentData" } }, "geometry": { "type": "Point", "coordinates": [ 76.434742, 33.026766 ] } },
{ "type": "Feature", "properties": { "osm_id": 7165542065, "osm_type": "node", "name": "PHC, Jadera", "tags": { "addr:block": "Pukhari", "addr:district": "Chamba", "addr:full": "Near PG Bank, Jadera, Gond", "addr:postcode": "176319", "addr:state": "Himachal Pradesh", "description": "Primary Health Centre", "healthcare": "centre", "name": "PHC, Jadera", "source": "OpenGovernmentData" } }, "geometry": { "type": "Point", "coordinates": [ 76.1769459, 32.6303433 ] } },
{ "type": "Feature", "properties": { "osm_id": 7165541941, "osm_type": "node", "name": "PHC, Pukhari", "tags": { "addr:block": "Pukhari", "addr:district": "Chamba", "addr:full": "Pukhri", "addr:postcode": "176319", "addr:state": "Himachal Pradesh", "contact:phone": "1899202952", "description": "Primary Health Centre", "healthcare": "centre", "name": "PHC, Pukhari", "source": "OpenGovernmentData" } }, "geometry": { "type": "Point", "coordinates": [ 76.072248, 32.641005 ] } },
{ "type": "Feature", "properties": { "osm_id": 6994410676, "osm_type": "node", "name": "CHC, Salooni", "tags": { "addr:block": "Kihar", "addr:district": "Chamba", "addr:full": "Salooni", "addr:postcode": "176320", "addr:state": "Himachal Pradesh", "description": "Community Health Centre", "healthcare": "centre", "name": "CHC, Salooni", "operator:type": "government", "pincode": "176320", "source": "OpenGovernmentData" } }, "geometry": { "type": "Point", "coordinates": [ 76.0522798, 32.7211397 ] } },
{ "type": "Feature", "properties": { "osm_id": 7165542032, "osm_type": "node", "name": "CHC, Diur", "tags": { "addr:block": "Kihar", "addr:district": "Chamba", "addr:full": "Near GSSS, Diur, Bhinga", "addr:postcode": "176320", "addr:state": "Himachal Pradesh", "description": "Community Health Centre", "healthcare": "centre", "name": "CHC, Diur", "source": "OpenGovernmentData" } }, "geometry": { "type": "Point", "coordinates": [ 76.0493924, 32.7352088 ] } },
{ "type": "Feature", "properties": { "osm_id": 7637726842, "osm_type": "node", "name": "Primary Health Centre", "tags": { "addr:district": "Chamba", "addr:full": "Chachoga", "addr:postcode": "176321", "addr:state": "Himachal Pradesh", "description": "Primary Health Centre", "healthcare": "centre", "name": "Primary Health Centre", "source": "Local Knowledge" } }, "geometry": { "type": "Point", "coordinates": [ 76.247409, 32.740156 ] } },
{ "type": "Feature", "properties": { "osm_id": 7165542041, "osm_type": "node", "name": "PHC, Jasaurgarh", "tags": { "addr:block": "Tissa", "addr:district": "Chamba", "addr:full": "Rakhalu Deola Road, Near Shakti Mata Temple, Airias, Jasaurgarh", "addr:postcode": "176321", "addr:state": "Himachal Pradesh", "description": "Primary Health Centre", "healthcare": "centre", "name": "PHC, Jasaurgarh", "source": "OpenGovernmentData" } }, "geometry": { "type": "Point", "coordinates": [ 76.1744267, 32.7663538 ] } },
{ "type": "Feature", "properties": { "osm_id": 7637726889, "osm_type": "node", "name": "Primary Health Centre", "tags": { "addr:district": "Chamba", "addr:full": "Manglo", "addr:postcode": "176321", "addr:state": "Himachal Pradesh", "description": "Primary Health Centre", "healthcare": "centre", "name": "Primary Health Centre", "source": "Local Knowledge" } }, "geometry": { "type": "Point", "coordinates": [ 76.2076553, 32.8030091 ] } },
{ "type": "Feature", "properties": { "osm_id": 8049301113, "osm_type": "node", "name": "Primary Health Centre, Jhajja Kothi", "tags": { "addr:district": "Chamba", "addr:full": "Jhajja Kothi", "addr:postcode": "176316", "addr:state": "Himachal Pradesh", "description": "Primary Health Centre", "healthcare": "centre", "name": "Primary Health Centre, Jhajja Kothi", "source": "Local Knowledge" } }, "geometry": { "type": "Point", "coordinates": [ 76.0804188, 32.8355794 ] } },
{ "type": "Feature", "properties": { "osm_id": 7165541977, "osm_type": "node", "name": "PHC, Bonderi", "tags": { "addr:block": "Tissa", "addr:district": "Chamba", "addr:full": "Bonderi Road, D.P.F.Chholi, Bonderi", "addr:postcode": "176316", "addr:state": "Himachal Pradesh", "description": "Primary Health Centre", "healthcare": "centre", "name": "PHC, Bonderi", "source": "OpenGovernmentData" } }, "geometry": { "type": "Point", "coordinates": [ 76.1429972, 32.8824879 ] } },
{ "type": "Feature", "properties": { "osm_id": 8049315632, "osm_type": "node", "name": "SubCentre, Devi Kothi", "tags": { "addr:district": "Chamba", "addr:full": "Devi Kothi", "addr:postcode": "176316", "addr:state": "Himachal Pradesh", "description": "SubCentre", "healthcare": "centre", "name": "SubCentre, Devi Kothi", "source": "Local Knowledge" } }, "geometry": { "type": "Point", "coordinates": [ 76.2236568, 32.9066993 ] } },
{ "type": "Feature", "properties": { "osm_id": 7165541963, "osm_type": "node", "name": "PHC, Bhagdhar", "tags": { "addr:block": "Samote", "addr:district": "Chamba", "addr:full": "Bhagdhar", "addr:postcode": "176303", "addr:state": "Himachal Pradesh", "description": "Primary Health Centre", "healthcare": "centre", "name": "PHC, Bhagdhar", "source": "OpenGovernmentData" } }, "geometry": { "type": "Point", "coordinates": [ 75.9221408, 32.5585564 ] } },
{ "type": "Feature", "properties": { "osm_id": 7165542085, "osm_type": "node", "name": "CHC, Bathri", "tags": { "addr:block": "Samote", "addr:district": "Chamba", "addr:full": "Chamba-Pathankot Road, Near Sub-Post Office, Bathri", "addr:postcode": "176306", "addr:state": "Himachal Pradesh", "description": "Community Health Centre", "healthcare": "centre", "name": "CHC, Bathri", "source": "OpenGovernmentData" } }, "geometry": { "type": "Point", "coordinates": [ 75.9796147, 32.5713826 ] } },
{ "type": "Feature", "properties": { "osm_id": 7165542003, "osm_type": "node", "name": "PHC, Wangal", "tags": { "addr:block": "Kihar", "addr:district": "Chamba", "addr:full": "Barangal, Wangal", "addr:postcode": "176308", "addr:state": "Himachal Pradesh", "description": "Primary Health Centre", "healthcare": "centre", "name": "PHC, Wangal", "source": "OpenGovernmentData" } }, "geometry": { "type": "Point", "coordinates": [ 75.982565, 32.607668 ] } },
{ "type": "Feature", "properties": { "osm_id": 7165541975, "osm_type": "node", "name": "PHC, Baggi at Sama", "tags": { "addr:block": "Kihar", "addr:district": "Chamba", "addr:full": "Baggi at Samah, Samana", "addr:postcode": "176325", "addr:state": "Himachal Pradesh", "description": "Primary Health Centre", "healthcare": "centre", "name": "PHC, Baggi at Sama", "source": "OpenGovernmentData" } }, "geometry": { "type": "Point", "coordinates": [ 75.938095, 32.625569 ] } },
{ "type": "Feature", "properties": { "osm_id": 7165542063, "osm_type": "node", "name": "PHC, Dandi", "tags": { "addr:block": "Kihar", "addr:district": "Chamba", "addr:full": "Near Post Office, Dandi", "addr:postcode": "184206", "addr:state": "Himachal Pradesh", "description": "Primary Health Centre", "healthcare": "centre", "name": "PHC, Dandi", "source": "OpenGovernmentData" } }, "geometry": { "type": "Point", "coordinates": [ 75.9676525, 32.6989391 ] } },
{ "type": "Feature", "properties": { "osm_id": 7165542061, "osm_type": "node", "name": "PHC, Telka(Salwan)", "tags": { "addr:block": "Kihar", "addr:district": "Chamba", "addr:full": "Telka", "addr:postcode": "184206", "addr:state": "Himachal Pradesh", "description": "Primary Health Centre", "healthcare": "centre", "name": "PHC, Telka(Salwan)", "source": "OpenGovernmentData" } }, "geometry": { "type": "Point", "coordinates": [ 75.9647499, 32.7097179 ] } },
{ "type": "Feature", "properties": { "osm_id": 7165542011, "osm_type": "node", "name": "CHC, Kihar", "tags": { "addr:block": "Kihar", "addr:district": "Chamba", "addr:full": "Kihar", "addr:postcode": "176320", "addr:state": "Himachal Pradesh", "description": "Community Health Centre", "healthcare": "centre", "name": "CHC, Kihar", "source": "OpenGovernmentData" } }, "geometry": { "type": "Point", "coordinates": [ 75.9659682, 32.7648026 ] } }
]
}
