{
"type": "FeatureCollection",
"name": "kullu_Primary_Health_Centres",
"crs": { "type": "name", "properties": { "name": "urn:ogc:def:crs:OGC:1.3:CRS84" } },
"features": [
{ "type": "Feature", "properties": { "osm_id": 7165506388, "osm_type": "node", "name": "Neether PHC", "tags": { "addr:block": "Nirmand", "addr:district": "Kullu", "addr:full": "VP NITHER TEHSIL NIRMAND", "addr:postcode": "172033", "addr:state": "Himachal Pradesh", "addr:subdistrict": "Nermand", "description": "Primary Health Centre", "healthcare": "centre", "name": "Neether PHC", "source": "OpenGovernmentData" } }, "geometry": { "type": "Point", "coordinates": [ 77.5147559, 31.3672451 ] } },
{ "type": "Feature", "properties": { "osm_id": 6988130899, "osm_type": "node", "name": "Community Health Centre, Dalash", "tags": { "addr:block": "Anni", "addr:district": "Kullu", "addr:full": "NH305, Near Naga Devata Temple, Dalash", "addr:postcode": "172025", "addr:state": "Himachal Pradesh", "addr:subdistrict": "Ani", "contact:phone": "1904256707", "description": "Community Health Centre", "healthcare": "centre", "name": "Community Health Centre, Dalash", "operator:type": "government", "source": "OpenGovernmentData" } }, "geometry": { "type": "Point", "coordinates": [ 77.4379597, 31.3924716 ] } },
{ "type": "Feature", "properties": { "osm_id": 7165506363, "osm_type": "node", "name": "Kungash PHC", "tags": { "addr:block": "Anni", "addr:district": "Kullu", "addr:full": "Vill.Kungash PO Peog", "addr:postcode": "172026", "addr:state": "Himachal Pradesh", "description": "Primary Health Centre", "healthcare": "centre", "name": "Kungash PHC", "source": "OpenGovernmentData" } }, "geometry": { "type": "Point", "coordinates": [ 77.3902068, 31.423899 ] } },
{ "type": "Feature", "properties": { "osm_id": 7165506361, "osm_type": "node", "name": "Rampur PHC", "tags": { "addr:block": "Rampur", "addr:district": "Shimla", "addr:full": "Rampur", "addr:postcode": "172001", "addr:state": "Himachal Pradesh", "description": "Primary Health Centre", "healthcare": "centre", "name": "Rampur PHC", "source": "OpenGovernmentData" } }, "geometry": { "type": "Point", "coordinates": [ 77.629531, 31.448392 ] } },
{ "type": "Feature", "properties": { "osm_id": 7165506338, "osm_type": "node", "name": "PHC, Digerh", "tags": { "addr:district": "Kullu", "addr:full": "Bishla Dhar, Near GSSS, Digerh", "addr:postcode": "172026", "addr:state": "Himachal Pradesh", "addr:subdistrict": "Ani", "description": "Primary Health Centre", "healthcare": "centre", "name": "PHC, Digerh", "source": "OpenGovernmentData" } }, "geometry": { "type": "Point", "coordinates": [ 77.3450753, 31.4639199 ] } },
{ "type": "Feature", "properties": { "osm_id": 7165506368, "osm_type": "node", "name": "Kothi PHC", "tags": { "addr:block": "Anni", "addr:district": "Kullu", "addr:postcode": "172026", "addr:state": "Himachal Pradesh", "addr:subdistrict": "Ani", "description": "Primary Health Centre", "healthcare": "centre", "name": "Kothi PHC", "source": "OpenGovernmentData" } }, "geometry": { "type": "Point", "coordinates": [ 77.3782596, 31.4934817 ] } },
{ "type": "Feature", "properties": { "osm_id": 7165542012, "osm_type": "node", "name": "PHC, Gadsa", "tags": { "addr:block": "Jari", "addr:district": "Kullu", "addr:full": "Garsa Road, Near Shiv Shakti Mandir, Garsa", "addr:postcode": "175121", "addr:state": "Himachal Pradesh", "description": "Primary Health Centre", "healthcare": "centre", "name": "PHC, Gadsa", "source": "OpenGovernmentData" } }, "geometry": { "type": "Point", "coordinates": [ 77.233286, 31.844697 ] } },
{ "type": "Feature", "properties": { "osm_id": 7165541947, "osm_type": "node", "name": "PHC, Neul", "tags": { "addr:block": "Jari", "addr:district": "Kullu", "addr:full": "VPO NEUL", "addr:postcode": "175125", "addr:state": "Himachal Pradesh", "description": "Primary Health Centre", "healthcare": "centre", "name": "PHC, Neul", "source": "OpenGovernmentData" } }, "geometry": { "type": "Point", "coordinates": [ 77.1178962, 31.842319 ] } },
{ "type": "Feature", "properties": { "osm_id": 3549074660, "osm_type": "node", "name": null, "tags": { "amenity": "clinic" } }, "geometry": { "type": "Point", "coordinates": [ 77.110252, 31.9439827 ] } },
{ "type": "Feature", "properties": { "osm_id": 7642218101, "osm_type": "node", "name": "Laxmi Eye Centre", "tags": { "addr:district": "Kullu", "addr:full": "Shastri Nagar, Kullu", "addr:postcode": "175101", "addr:state": "Himachal Pradesh", "amenity": "clinic", "name": "Laxmi Eye Centre", "source": "Local Knowledge" } }, "geometry": { "type": "Point", "coordinates": [ 77.109808, 31.945129 ] } },
{ "type": "Feature", "properties": { "osm_id": 7642218093, "osm_type": "node", "name": "Primary Health Centre", "tags": { "addr:district": "Kullu", "addr:full": "Kharal", "addr:postcode": "175138", "addr:state": "Himachal Pradesh", "description": "Primary Health Centre", "healthcare": "centre", "name": "Primary Health Centre", "source": "Local Knowledge" } }, "geometry": { "type": "Point", "coordinates": [ 77.1249502, 31.948004 ] } },
{ "type": "Feature", "properties": { "osm_id": 7642218126, "osm_type": "node", "name": "Laxmi Clinic", "tags": { "addr:district": "Kullu", "addr:full": "Banjar", "addr:postcode": "175123", "addr:state": "Himachal Pradesh", "amenity": "clinic", "name": "Laxmi Clinic", "source": "Local Knowledge" } }, "geometry": { "type": "Point", "coordinates": [ 77.3442197, 31.6371627 ] } },
{ "type": "Feature", "properties": { "osm_id": 7642218129, "osm_type": "node", "name": "Primary Health Centre", "tags": { "addr:district": "Kullu", "addr:full": "P.O. Kalwari, Teh, Banjar", "addr:postcode": "175123", "addr:state": "Himachal Pradesh", "description": "Primary Health Centre", "healthcare": "centre", "name": "Primary Health Centre", "source": "Local Knowledge" } }, "geometry": { "type": "Point", "coordinates": [ 77.3790538, 31.6604203 ] } },
{ "type": "Feature", "properties": { "osm_id": 7165542087, "osm_type": "node", "name": "PHC, Thatibir", "tags": { "addr:block": "Banjar", "addr:district": "Kullu", "addr:full": "Seohli, Thatibir", "addr:postcode": "175122", "addr:state": "Himachal Pradesh", "description": "Primary Health Centre", "healthcare": "centre", "name": "PHC, Thatibir", "source": "OpenGovernmentData" } }, "geometry": { "type": "Point", "coordinates": [ 77.314523, 31.70587 ] } },
{ "type": "Feature", "properties": { "osm_id": 7165542035, "osm_type": "node", "name": "CHC, Sainj", "tags": { "addr:block": "Banjar", "addr:district": "Kullu", "addr:full": "VPO SAINJ", "addr:postcode": "175134", "addr:state": "Himachal Pradesh", "description": "Community Health Centre", "healthcare": "centre", "name": "CHC, Sainj", "source": "OpenGovernmentData" } }, "geometry": { "type": "Point", "coordinates": [ 77.306631, 31.769884 ] } },
{ "type": "Feature", "properties": { "osm_id": 7642218106, "osm_type": "node", "name": "Ayurvedic Health Centre", "tags": { "addr:district": "Kullu", "addr:full": "Rote", "addr:postcode": "175121", "addr:state": "Himachal Pradesh", "amenity": "clinic", "name": "Ayurvedic Health Centre", "source": "Local Knowledge" } }, "geometry": { "type": "Point", "coordinates": [ 77.260592, 31.79989 ] } },
{ "type": "Feature", "properties": { "osm_id": 7007286987, "osm_type": "node", "name": "CHC, Jari", "tags": { "addr:block": "Jari", "addr:district": "Kullu", "addr:full": "Manikaran Road, Opp. Kangra Central Co-operative Bank, Jari", "addr:postcode": "175105", "addr:state": "Himachal Pradesh", "contact:phone": "1902276257", "description": "Community Health Centre", "healthcare": "centre", "name": "CHC, Jari", "operator:type": "government", "pincode": "175105", "source": "OpenGovernmentData" } }, "geometry": { "type": "Point", "coordinates": [ 77.242789, 31.9963732 ] } },
{ "type": "Feature", "properties": { "osm_id": 7642218102, "osm_type": "node", "name": "Primary Health Centre", "tags": { "addr:district": "Kullu", "addr:full": "Shiah", "addr:postcode": "175141", "addr:state": "Himachal Pradesh", "description": "Primary Health Centre", "healthcare": "centre", "name": "Primary Health Centre", "source": "Local Knowledge" } }, "geometry": { "type": "Point", "coordinates": [ 77.231056, 31.863507 ] } },
{ "type": "Feature", "properties": { "osm_id": 6988145261, "osm_type": "node", "name": "Pehal Nursing Home", "tags": { "addr:district": "Kullu", "addr:full": "OppositeJugals, Bhunter", "addr:postcode": "175125", "addr:state": "Himachal Pradesh", "amenity": "clinic", "name": "Pehal Nursing Home", "source": "OpenGovernmentData" } }, "geometry": { "type": "Point", "coordinates": [ 77.1467672, 31.8841365 ] } },
{ "type": "Feature", "properties": { "osm_id": 7642218125, "osm_type": "node", "name": "Pehal Clinic", "tags": { "addr:district": "Kullu", "addr:full": "Manikaran Chowk, Kullu, Bhuntar Ramshila Road, Bhuntar", "addr:postcode": "175125", "addr:state": "Himachal Pradesh", "amenity": "clinic", "name": "Pehal Clinic", "source": "Local Knowledge" } }, "geometry": { "type": "Point", "coordinates": [ 77.1457355, 31.8857149 ] } },
{ "type": "Feature", "properties": { "osm_id": 7642218094, "osm_type": "node", "name": "Community Health Centre", "tags": { "addr:district": "Kullu", "addr:full": "Bhuntar, Himachal Pradesh", "addr:postcode": "175125", "addr:state": "Himachal Pradesh", "description": "Community Health Centre", "healthcare": "centre", "name": "Community Health Centre", "source": "Local Knowledge" } }, "geometry": { "type": "Point", "coordinates": [ 77.141792, 31.887126 ] } },
{ "type": "Feature", "properties": { "osm_id": 7165542067, "osm_type": "node", "name": "PHC, Bhuntar", "tags": { "addr:block": "Jari", "addr:district": "Kullu", "addr:full": "Forest Office Road, Near Police Station, Bhuntar", "addr:postcode": "175125", "addr:state": "Himachal Pradesh", "contact:phone": "1902268123", "description": "Primary Health Centre", "healthcare": "centre", "name": "PHC, Bhuntar", "source": "OpenGovernmentData" } }, "geometry": { "type": "Point", "coordinates": [ 77.146031, 31.888082 ] } },
{ "type": "Feature", "properties": { "osm_id": 7642218135, "osm_type": "node", "name": "Roshan Clinic", "tags": { "addr:district": "Kullu", "addr:full": "Shamshi, Kullu, Bhuntar Ramshila Road, Bhuntar", "addr:postcode": "175126", "addr:state": "Himachal Pradesh", "amenity": "clinic", "name": "Roshan Clinic", "source": "Local Knowledge" } }, "geometry": { "type": "Point", "coordinates": [ 77.143359, 31.888746 ] } },
{ "type": "Feature", "properties": { "osm_id": 7642218149, "osm_type": "node", "name": "Homoeo Health Centre", "tags": { "addr:district": "Kullu", "addr:full": "Shamshi, Kullu, Bhuntar Ramshila Road, Bhuntar", "addr:postcode": "175126", "addr:state": "Himachal Pradesh", "amenity": "clinic", "name": "Homoeo Health Centre", "source": "Local Knowledge" } }, "geometry": { "type": "Point", "coordinates": [ 77.1429444, 31.8890685 ] } },
{ "type": "Feature", "properties": { "osm_id": 7642218105, "osm_type": "node", "name": "Deepak Clinic", "tags": { "addr:district": "Kullu", "addr:full": "Manali, Siyal, Manali", "addr:postcode": "175101", "addr:state": "Himachal Pradesh", "amenity": "clinic", "name": "Deepak Clinic", "source": "Local Knowledge" } }, "geometry": { "type": "Point", "coordinates": [ 77.142741, 31.889278 ] } },
{ "type": "Feature", "properties": { "osm_id": 7642218141, "osm_type": "node", "name": "Krishna Clinic", "tags": { "addr:district": "Kullu", "addr:full": "Shamshi, Kullu, Bhuntar Ramshila Road, Bhuntar", "addr:postcode": "175126", "addr:state": "Himachal Pradesh", "amenity": "clinic", "name": "Krishna Clinic", "source": "Local Knowledge" } }, "geometry": { "type": "Point", "coordinates": [ 77.142675, 31.889371 ] } },
{ "type": "Feature", "properties": { "osm_id": 7642218147, "osm_type": "node", "name": "Primary Health Centre", "tags": { "addr:district": "Kullu", "addr:full": "Chhamahan Road, Chhamahan", "addr:postcode": "175138", "addr:state": "Himachal Pradesh", "description": "Primary Health Centre", "healthcare": "centre", "name": "Primary Health Centre", "source": "Local Knowledge" } }, "geometry": { "type": "Point", "coordinates": [ 77.1622993, 31.9459167 ] } },
{ "type": "Feature", "properties": { "osm_id": 7642218150, "osm_type": "node", "name": "Mahajan Ayurvedic Clinic", "tags": { "addr:district": "Kullu", "addr:full": "Kullu - Ramshila Road, Beasa Mod, Akhara", "addr:postcode": "175101", "addr:state": "Himachal Pradesh", "amenity": "clinic", "name": "Mahajan Ayurvedic Clinic", "source": "Local Knowledge" } }, "geometry": { "type": "Point", "coordinates": [ 77.109705, 31.953464 ] } },
{ "type": "Feature", "properties": { "osm_id": 3543021714, "osm_type": "node", "name": "Thakur Healthcare Clinic", "tags": { "amenity": "clinic", "name": "Thakur Healthcare Clinic" } }, "geometry": { "type": "Point", "coordinates": [ 77.108973, 31.9588871 ] } },
{ "type": "Feature", "properties": { "osm_id": 7642218151, "osm_type": "node", "name": "Primary Health Centre", "tags": { "addr:district": "Kullu", "addr:full": "Bhuthi Lag Valley Road, Dughilag", "addr:postcode": "175102", "addr:state": "Himachal Pradesh", "description": "Primary Health Centre", "healthcare": "centre", "name": "Primary Health Centre", "source": "Local Knowledge" } }, "geometry": { "type": "Point", "coordinates": [ 77.058234, 31.9652276 ] } },
{ "type": "Feature", "properties": { "osm_id": 7642218113, "osm_type": "node", "name": "Primary Health Centre", "tags": { "addr:district": "Kullu", "addr:full": "Kais", "addr:postcode": "175138", "addr:state": "Himachal Pradesh", "description": "Primary Health Centre", "healthcare": "centre", "name": "Primary Health Centre", "source": "Local Knowledge" } }, "geometry": { "type": "Point", "coordinates": [ 77.131331, 31.999901 ] } },
{ "type": "Feature", "properties": { "osm_id": 7165541997, "osm_type": "node", "name": "PHC, Raison", "tags": { "addr:block": "Naggar", "addr:district": "Kullu", "addr:full": "Opp. UCO Bank, Raison", "addr:postcode": "175128", "addr:state": "Himachal Pradesh", "description": "Primary Health Centre", "healthcare": "centre", "name": "PHC, Raison", "source": "OpenGovernmentData" } }, "geometry": { "type": "Point", "coordinates": [ 77.1340707, 32.059732 ] } },
{ "type": "Feature", "properties": { "osm_id": 11219098438, "osm_type": "node", "name": "KM Tibetan Dispensary", "tags": { "amenity": "clinic", "healthcare": "clinic", "name": "KM Tibetan Dispensary" } }, "geometry": { "type": "Point", "coordinates": [ 77.1314017, 32.0816774 ] } },
{ "type": "Feature", "properties": { "osm_id": 12780633142, "osm_type": "node", "name": "Ayurvedic Clinic", "tags": { "amenity": "clinic", "healthcare": "clinic", "name": "Ayurvedic Clinic" } }, "geometry": { "type": "Point", "coordinates": [ 77.1180286, 32.0886673 ] } },
{ "type": "Feature", "properties": { "osm_id": 7165542068, "osm_type": "node", "name": "PHC, Naggar", "tags": { "addr:block": "Naggar", "addr:district": "Kullu", "addr:full": "VPO NAGGAR", "addr:postcode": "175130", "addr:state": "Himachal Pradesh", "contact:phone": "1902248294", "description": "Primary Health Centre", "healthcare": "centre", "name": "PHC, Naggar", "source": "OpenGovernmentData" } }, "geometry": { "type": "Point", "coordinates": [ 77.168122, 32.112624 ] } },
{ "type": "Feature", "properties": { "osm_id": 7165542070, "osm_type": "node", "name": "PHC, Bran", "tags": { "addr:block": "Naggar", "addr:district": "Kullu", "addr:full": "17,Mile, NH 21, Near Hotel Hira, Pangan, Bran", "addr:postcode": "175143", "addr:state": "Himachal Pradesh", "contact:phone": "1902258010", "description": "Primary Health Centre", "healthcare": "centre", "name": "PHC, Bran", "source": "OpenGovernmentData" } }, "geometry": { "type": "Point", "coordinates": [ 77.175551, 32.163089 ] } },
{ "type": "Feature", "properties": { "osm_id": 7165542009, "osm_type": "node", "name": "PHC, Jagatsukh", "tags": { "addr:block": "Naggar", "addr:district": "Kullu", "addr:full": "Kullu-Naggar-Manali Road, Near Post Office, Jagatsukh", "addr:postcode": "175143", "addr:state": "Himachal Pradesh", "contact:phone": "01902-259066", "description": "Primary Health Centre", "healthcare": "centre", "name": "PHC, Jagatsukh", "source": "OpenGovernmentData" } }, "geometry": { "type": "Point", "coordinates": [ 77.2020825, 32.1998443 ] } },
{ "type": "Feature", "properties": { "osm_id": 9971656617, "osm_type": "node", "name": "Men-Tsee-Khang Manali", "tags": { "amenity": "clinic", "healthcare": "clinic", "name": "Men-Tsee-Khang Manali", "name:en": "Men-Tsee-Khang", "opening_hours": "Mo-Sa 10:00-17:00", "wheelchair": "yes" } }, "geometry": { "type": "Point", "coordinates": [ 77.1871161, 32.2414006 ] } },
{ "type": "Feature", "properties": { "osm_id": 2380691341, "osm_type": "node", "name": "Rawat Clinic", "tags": { "addr:district": "Kullu", "addr:full": "Near Telephone Exchange, Manali", "addr:postcode": "175131", "addr:state": "Himachal Pradesh", "amenity": "clinic", "healthcare": "clinic", "name": "Rawat Clinic", "source": "OpenGovernmentData" } }, "geometry": { "type": "Point", "coordinates": [ 77.187861, 32.2450271 ] } },
{ "type": "Feature", "properties": { "osm_id": 2380691377, "osm_type": "node", "name": null, "tags": { "amenity": "clinic", "healthcare": "clinic" } }, "geometry": { "type": "Point", "coordinates": [ 77.1867368, 32.2456038 ] } },
{ "type": "Feature", "properties": { "osm_id": 7165541954, "osm_type": "node", "name": "PHC, Palchan", "tags": { "addr:block": "Naggar", "addr:district": "Kullu", "addr:full": "VPO Palchan", "addr:postcode": "175103", "addr:state": "Himachal Pradesh", "description": "Primary Health Centre", "healthcare": "centre", "name": "PHC, Palchan", "source": "OpenGovernmentData" } }, "geometry": { "type": "Point", "coordinates": [ 77.1826356, 32.3118729 ] } }
]
}
