{
"type": "FeatureCollection",
"name": "kullu_Hospitals",
"crs": { "type": "name", "properties": { "name": "urn:ogc:def:crs:OGC:1.3:CRS84" } },
"features": [
{ "type": "Feature", "properties": { "osm_id": 746565766, "osm_type": "way", "name": "Civil Hospital, Nirmand", "tags": { "addr:district": "Kullu", "addr:full": "Nirmand", "addr:state": "Himachal Pradesh", "amenity": "hospital", "building": "yes", "healthcare": "hospital", "name": "Civil Hospital, Nirmand", "operator:type": "government", "source": "OpenGovernmentData" } }, "geometry": { "type": "Polygon", "coordinates": [ [ [ 77.5775341, 31.4230373 ], [ 77.5774306, 31.4230794 ], [ 77.5775147, 31.42323 ], [ 77.5774566, 31.4232536 ], [ 77.5775082, 31.4233461 ], [ 77.5775456, 31.4233309 ], [ 77.5775905, 31.4234114 ], [ 77.5776545, 31.4233854 ], [ 77.5776144, 31.4233137 ], [ 77.5776747, 31.4232891 ], [ 77.5775341, 31.4230373 ] ] ] } },
{ "type": "Feature", "properties": { "osm_id": 7165506428, "osm_type": "node", "name": "Government Hospital, Anni", "tags": { "addr:block": "Anni", "addr:district": "Kullu", "addr:full": "SH 11, Near Police Station, Anni", "addr:postcode": "172025", "addr:state": "Himachal Pradesh", "addr:subdistrict": "Ani", "amenity": "hospital", "contact:phone": "1904253234", "name": "Government Hospital, Anni", "source": "OpenGovernmentData" } }, "geometry": { "type": "Point", "coordinates": [ 77.416981, 31.433162 ] } },
{ "type": "Feature", "properties": { "osm_id": 7010670228, "osm_type": "node", "name": "Primary Health Centre, Rampur", "tags": { "addr:district": "Shimla", "addr:full": "Rampur", "addr:state": "Himachal Pradesh", "amenity": "hospital", "name": "Primary Health Centre, Rampur", "operator:type": "government", "pincode": "172001", "source": "OpenGovernmentData" } }, "geometry": { "type": "Point", "coordinates": [ 77.6295642, 31.4481448 ] } },
{ "type": "Feature", "properties": { "osm_id": 7165506441, "osm_type": "node", "name": "Government Hospital, Arsu", "tags": { "addr:district": "Kullu", "addr:full": "Arsu Market, Arsu", "addr:postcode": "172002", "addr:state": "Himachal Pradesh", "addr:subdistrict": "Nermand", "amenity": "hospital", "name": "Government Hospital, Arsu", "source": "OpenGovernmentData" } }, "geometry": { "type": "Point", "coordinates": [ 77.5818422, 31.4810835 ] } },
{ "type": "Feature", "properties": { "osm_id": 4586872621, "osm_type": "node", "name": "Civil Hospital, Banjar", "tags": { "addr:block": "Banjar", "addr:city": "Banjar", "addr:district": "Kullu", "addr:full": "Sainj-Ani-Banjar-Aut Road, Near Sub-Post Office, Banjar", "addr:postcode": "175123", "addr:state": "Himachal Pradesh", "amenity": "hospital", "contact:phone": "1903221214", "description": "Civil Hospital", "name": "Civil Hospital, Banjar", "operator:type": "government", "source": "OpenGovernmentData" } }, "geometry": { "type": "Point", "coordinates": [ 77.344331, 31.6367151 ] } },
{ "type": "Feature", "properties": { "osm_id": 10934159864, "osm_type": "node", "name": "Primary Health Center Gushaini", "tags": { "amenity": "hospital", "name": "Primary Health Center Gushaini" } }, "geometry": { "type": "Point", "coordinates": [ 77.4282414, 31.6379194 ] } },
{ "type": "Feature", "properties": { "osm_id": 703825725, "osm_type": "way", "name": "Ray Health Center & Community Facility", "tags": { "addr:city": "India", "addr:postcode": "175134", "addr:street": "Sainj, Himachal Pradesh", "amenity": "hospital", "emergency": "yes", "healthcare": "hospital", "healthcare:speciality": "medical", "name": "Ray Health Center & Community Facility" } }, "geometry": { "type": "Polygon", "coordinates": [ [ [ 77.3085611, 31.770922 ], [ 77.3085401, 31.7708347 ], [ 77.3084093, 31.7708406 ], [ 77.3084304, 31.7709379 ], [ 77.3085611, 31.770922 ] ] ] } },
{ "type": "Feature", "properties": { "osm_id": 7007294561, "osm_type": "node", "name": "Beas Hospital", "tags": { "addr:district": "Kullu", "addr:full": "Dhalpur", "addr:postcode": "175101", "addr:state": "Himachal Pradesh", "amenity": "hospital", "name": "Beas Hospital", "source": "OpenGovernmentData" } }, "geometry": { "type": "Point", "coordinates": [ 77.1111971, 31.938562 ] } },
{ "type": "Feature", "properties": { "osm_id": 3042778856, "osm_type": "node", "name": "Kullu Valley Hospital, Kullu", "tags": { "addr:district": "Kullu", "addr:full": "Shashtri Nager", "addr:postcode": "175101", "addr:state": "Himachal Pradesh", "amenity": "hospital", "healthcare:speciality": "Medicine; Paediatrics; Gynaecology and Obstetrics; Surgery; Orthopaedics; Dental; CT-Scan; Radiology; ENT; MRI and Routine Lab Tests", "name": "Kullu Valley Hospital, Kullu", "operator:type": "private", "source": "OpenGovernmentData" } }, "geometry": { "type": "Point", "coordinates": [ 77.109386, 31.9443352 ] } },
{ "type": "Feature", "properties": { "osm_id": 5059830724, "osm_type": "node", "name": "City Hospital", "tags": { "addr:district": "Kullu", "addr:full": "Lanka Bekar Road, Dhalpur, Kullu", "addr:postcode": "175101", "addr:state": "Himachal Pradesh", "amenity": "hospital", "name": "City Hospital", "source": "Local Knowledge" } }, "geometry": { "type": "Point", "coordinates": [ 77.1110358, 31.9535458 ] } },
{ "type": "Feature", "properties": { "osm_id": 6993943312, "osm_type": "node", "name": "Maya Dass Shiv Dass Rotary Eye Hospital", "tags": { "addr:district": "Kullu", "addr:full": "Kullu", "addr:state": "Himachal Pradesh", "amenity": "hospital", "healthcare:speciality": "Eye Care Facility", "name": "Maya Dass Shiv Dass Rotary Eye Hospital", "operator:type": "private", "source": "OpenGovernmentData" } }, "geometry": { "type": "Point", "coordinates": [ 77.1689719, 31.8537642 ] } },
{ "type": "Feature", "properties": { "osm_id": 7642218095, "osm_type": "node", "name": "Bhanoo Hospital", "tags": { "addr:district": "Kullu", "addr:full": "Kalehli", "addr:postcode": "175125", "addr:state": "Himachal Pradesh", "amenity": "hospital", "name": "Bhanoo Hospital", "source": "Local Knowledge" } }, "geometry": { "type": "Point", "coordinates": [ 77.1525062, 31.8620451 ] } },
{ "type": "Feature", "properties": { "osm_id": 6982151179, "osm_type": "node", "name": "Sri Harihar Hospital", "tags": { "addr:district": "Kullu", "addr:full": "Hathithan Bhuntar", "addr:postcode": "175122", "addr:state": "Himachal Pradesh", "amenity": "hospital", "healthcare:speciality": "Gerneral Surgery; gynaecologycology and Obstetrics; ENT; Paediatrics; General Medicine; Medicine; Dermatology; Orthopaedics; Radiology; Endoscopy; Diagnostic service.", "name": "Sri Harihar Hospital", "operator:type": "private", "source": "OpenGovernmentData" } }, "geometry": { "type": "Point", "coordinates": [ 77.1499819, 31.8952057 ] } },
{ "type": "Feature", "properties": { "osm_id": 7642218119, "osm_type": "node", "name": "Rotary Eye Hospital", "tags": { "addr:district": "Kullu", "addr:full": "Lanka Bekar, Dhalpur, Kullu", "addr:postcode": "175101", "addr:state": "Himachal Pradesh", "amenity": "hospital", "name": "Rotary Eye Hospital", "source": "Local Knowledge" } }, "geometry": { "type": "Point", "coordinates": [ 77.1113176, 31.9541068 ] } },
{ "type": "Feature", "properties": { "osm_id": 7642218116, "osm_type": "node", "name": "Bhanoo Hospital", "tags": { "addr:district": "Kullu", "addr:full": "Dhalpur, Kullu", "addr:postcode": "175101", "addr:state": "Himachal Pradesh", "amenity": "hospital", "name": "Bhanoo Hospital", "source": "Local Knowledge" } }, "geometry": { "type": "Point", "coordinates": [ 77.111312, 31.954268 ] } },
{ "type": "Feature", "properties": { "osm_id": 7642218098, "osm_type": "node", "name": "Kullu Valley Hospital", "tags": { "addr:district": "Kullu", "addr:full": "Dhalpur, Kullu", "addr:postcode": "175101", "addr:state": "Himachal Pradesh", "amenity": "hospital", "name": "Kullu Valley Hospital", "source": "Local Knowledge" } }, "geometry": { "type": "Point", "coordinates": [ 77.111921, 31.9550512 ] } },
{ "type": "Feature", "properties": { "osm_id": 7642218134, "osm_type": "node", "name": "Hari Har Hospital", "tags": { "addr:district": "Kullu", "addr:full": "Dhalpur, Kullu", "addr:postcode": "175101", "addr:state": "Himachal Pradesh", "amenity": "hospital", "name": "Hari Har Hospital", "source": "Local Knowledge" } }, "geometry": { "type": "Point", "coordinates": [ 77.1128802, 31.956275 ] } },
{ "type": "Feature", "properties": { "osm_id": 305891434, "osm_type": "way", "name": "Regional Hospital, Kullu", "tags": { "addr:block": "Jari", "addr:district": "Kullu", "addr:full": "Dhalpur Ground, Kullu", "addr:postcode": "175101", "addr:state": "Himachal Pradesh", "amenity": "hospital", "contact:phone": "1902223077", "description": "Regional Hospital", "name": "Regional Hospital, Kullu", "source": "OpenGovernmentData" } }, "geometry": { "type": "Polygon", "coordinates": [ [ [ 77.1113511, 31.9560679 ], [ 77.1112306, 31.9562019 ], [ 77.1111476, 31.956856 ], [ 77.1110164, 31.9576554 ], [ 77.1113029, 31.9577076 ], [ 77.1125663, 31.9571921 ], [ 77.1126734, 31.9567992 ], [ 77.1124807, 31.9562132 ], [ 77.1123174, 31.9560633 ], [ 77.1119346, 31.9559111 ], [ 77.1117553, 31.9558657 ], [ 77.1113511, 31.9560679 ] ] ] } },
{ "type": "Feature", "properties": { "osm_id": 6993964400, "osm_type": "node", "name": "Ayurvedic Hospital, Katrai", "tags": { "addr:district": "Kullu", "addr:full": "Kullu", "addr:state": "Himachal Pradesh", "amenity": "hospital", "name": "Ayurvedic Hospital, Katrai", "operator:type": "government", "source": "OpenGovernmentData" } }, "geometry": { "type": "Point", "coordinates": [ 77.1385476, 32.1028643 ] } },
{ "type": "Feature", "properties": { "osm_id": 3042955724, "osm_type": "node", "name": "Civil Hospital, Manali", "tags": { "addr:block": "Naggar", "addr:district": "Kullu", "addr:full": "VO MANALI DISTT KULLU", "addr:postcode": "175131", "addr:state": "Himachal Pradesh", "amenity": "hospital", "contact:phone": "1902253385", "description": "Civil Hospital", "healthcare": "hospital", "name": "Civil Hospital, Manali", "source": "OpenGovernmentData" } }, "geometry": { "type": "Point", "coordinates": [ 77.1877726, 32.2387613 ] } },
{ "type": "Feature", "properties": { "osm_id": 7642218118, "osm_type": "node", "name": "Manu Diagnostic Centre and Hospital", "tags": { "addr:district": "Kullu", "addr:full": "Gompa Road, Manali", "addr:postcode": "175131", "addr:state": "Himachal Pradesh", "amenity": "hospital", "healthcare": "hospital", "name": "Manu Diagnostic Centre and Hospital", "source": "Local Knowledge", "wheelchair": "yes" } }, "geometry": { "type": "Point", "coordinates": [ 77.1877903, 32.2418408 ] } },
{ "type": "Feature", "properties": { "osm_id": 3041244957, "osm_type": "node", "name": "Mission Hospital", "tags": { "amenity": "hospital", "healthcare": "hospital", "name": "Mission Hospital" } }, "geometry": { "type": "Point", "coordinates": [ 77.1886231, 32.2449885 ] } },
{ "type": "Feature", "properties": { "osm_id": 900573232, "osm_type": "way", "name": "Lady Willingdon Hospital", "tags": { "addr:district": "Kullu", "addr:full": "Manali", "addr:postcode": "175131", "addr:state": "Himachal Pradesh", "amenity": "hospital", "healthcare": "hospital", "name": "Lady Willingdon Hospital", "source": "OpenGovernmentData" } }, "geometry": { "type": "Polygon", "coordinates": [ [ [ 77.1889544, 32.244707 ], [ 77.1880854, 32.2446077 ], [ 77.1881738, 32.245264 ], [ 77.1882677, 32.2452628 ], [ 77.1882677, 32.2453059 ], [ 77.1884938, 32.2453507 ], [ 77.1885198, 32.2453558 ], [ 77.1889731, 32.2453967 ], [ 77.1889544, 32.244707 ] ] ] } },
{ "type": "Feature", "properties": { "osm_id": 3042985801, "osm_type": "node", "name": "Dr Behl's Hospital", "tags": { "amenity": "hospital", "healthcare": "hospital", "name": "Dr Behl's Hospital" } }, "geometry": { "type": "Point", "coordinates": [ 77.1893096, 32.2453333 ] } },
{ "type": "Feature", "properties": { "osm_id": 7007287760, "osm_type": "node", "name": "Civil Hospital, Manali", "tags": { "addr:district": "Kullu", "addr:full": "Manali", "addr:postcode": "175131", "addr:state": "Himachal Pradesh", "amenity": "hospital", "healthcare": "hospital", "name": "Civil Hospital, Manali", "source": "OpenGovernmentData" } }, "geometry": { "type": "Point", "coordinates": [ 77.1859744, 32.2458867 ] } }
]
}
