{
"type": "FeatureCollection",
"name": "mandi_Primary_Health_Centres",
"crs": { "type": "name", "properties": { "name": "urn:ogc:def:crs:OGC:1.3:CRS84" } },
"features": [
{ "type": "Feature", "properties": { "osm_id": 7165506398, "osm_type": "node", "name": "Khurahal PHC", "tags": { "addr:block": "Rohanda", "addr:district": "Mandi", "addr:full": "Khurahal", "addr:postcode": "175017", "addr:state": "Himachal Pradesh", "description": "Primary Health Centre", "healthcare": "centre", "name": "Khurahal PHC", "source": "OpenGovernmentData" } }, "geometry": { "type": "Point", "coordinates": [ 76.876024, 31.427667 ] } },
{ "type": "Feature", "properties": { "osm_id": 7165506443, "osm_type": "node", "name": "PHC, Jarol", "tags": { "addr:block": "Rohanda", "addr:district": "Mandi", "addr:full": "NH 154, Near Punjab National Bank, Jarol", "addr:postcode": "175018", "addr:state": "Himachal Pradesh", "description": "Primary Health Centre", "healthcare": "centre", "name": "PHC, Jarol", "source": "OpenGovernmentData" } }, "geometry": { "type": "Point", "coordinates": [ 76.859973, 31.458172 ] } },
{ "type": "Feature", "properties": { "osm_id": 7165506467, "osm_type": "node", "name": "Taleli PHC", "tags": { "addr:district": "Mandi", "addr:full": "Taleli", "addr:postcode": "175030", "addr:state": "Himachal Pradesh", "description": "Primary Health Centre", "healthcare": "centre", "name": "Taleli PHC", "source": "OpenGovernmentData" } }, "geometry": { "type": "Point", "coordinates": [ 76.7974816, 31.4833045 ] } },
{ "type": "Feature", "properties": { "osm_id": 8058105894, "osm_type": "node", "name": "SubCentre, Chah Ka Dohra", "tags": { "addr:district": "Mandi", "addr:full": "Chah Ka Dohra", "addr:postcode": "175030", "addr:state": "Himachal Pradesh", "description": "SubCentre", "healthcare": "centre", "name": "SubCentre, Chah Ka Dohra", "source": "Local Knowledge" } }, "geometry": { "type": "Point", "coordinates": [ 76.8188471, 31.4846715 ] } },
{ "type": "Feature", "properties": { "osm_id": 7165506459, "osm_type": "node", "name": "PHC, Chowk", "tags": { "addr:block": "Rohanda", "addr:district": "Mandi", "addr:full": "BSL Service Road, Near Dhanotu Bridge, Dhanotu", "addr:postcode": "175018", "addr:state": "Himachal Pradesh", "description": "Primary Health Centre", "healthcare": "centre", "name": "PHC, Chowk", "source": "OpenGovernmentData" } }, "geometry": { "type": "Point", "coordinates": [ 76.9022912, 31.5555431 ] } },
{ "type": "Feature", "properties": { "osm_id": 7165506426, "osm_type": "node", "name": "Leda PHC", "tags": { "addr:block": "Kotli", "addr:district": "Mandi", "addr:full": "Leda", "addr:postcode": "175036", "addr:state": "Himachal Pradesh", "description": "Primary Health Centre", "healthcare": "centre", "name": "Leda PHC", "source": "OpenGovernmentData" } }, "geometry": { "type": "Point", "coordinates": [ 76.827187, 31.5582021 ] } },
{ "type": "Feature", "properties": { "osm_id": 8061289105, "osm_type": "node", "name": "SubCentre, Meramasit", "tags": { "addr:district": "Mandi", "addr:full": "Meramasit", "addr:postcode": "175036", "addr:state": "Himachal Pradesh", "description": "SubCentre", "healthcare": "centre", "name": "SubCentre, Meramasit", "source": "Local Knowledge" } }, "geometry": { "type": "Point", "coordinates": [ 76.8696427, 31.5724959 ] } },
{ "type": "Feature", "properties": { "osm_id": 7165506399, "osm_type": "node", "name": "PHC, Dhalwan", "tags": { "addr:district": "Mandi", "addr:full": "Una Jahu Nerchowk Road, Beside Sunrise Public School, Dhalvan", "addr:postcode": "175001", "addr:state": "Himachal Pradesh", "description": "Primary Health Centre", "healthcare": "centre", "name": "PHC, Dhalwan", "source": "OpenGovernmentData" } }, "geometry": { "type": "Point", "coordinates": [ 76.7702181, 31.5939564 ] } },
{ "type": "Feature", "properties": { "osm_id": 6988276209, "osm_type": "node", "name": "Primary Health Centre, Rewalsar", "tags": { "addr:district": "Mandi", "addr:full": "Rewalsar", "addr:state": "Himachal Pradesh", "healthcare": "centre", "name": "Primary Health Centre, Rewalsar", "operator:type": "government", "source": "OpenGovernmentData" } }, "geometry": { "type": "Point", "coordinates": [ 76.8320167, 31.6314932 ] } },
{ "type": "Feature", "properties": { "osm_id": 3045285233, "osm_type": "node", "name": "Samaila PHC", "tags": { "addr:block": "Baldwara", "addr:district": "Mandi", "addr:full": "Samaila", "addr:postcode": "175033", "addr:state": "Himachal Pradesh", "amenity": "hospital", "description": "Primary Health Centre", "healthcare": "centre", "name": "Samaila PHC", "source": "OpenGovernmentData" } }, "geometry": { "type": "Point", "coordinates": [ 76.7620424, 31.5215946 ] } },
{ "type": "Feature", "properties": { "osm_id": 3045136680, "osm_type": "node", "name": "CHC, Baldwara", "tags": { "addr:block": "Baldwara", "addr:district": "Mandi", "addr:full": "Joginder Nagar-Sarkaghat-Ghumarwin Road, Near HPSEB Office, Baldwara", "addr:postcode": "175033", "addr:state": "Himachal Pradesh", "contact:phone": "1905258053", "description": "Community Health Centre", "healthcare": "centre", "name": "CHC, Baldwara", "source": "OpenGovernmentData" } }, "geometry": { "type": "Point", "coordinates": [ 76.762432, 31.5579513 ] } },
{ "type": "Feature", "properties": { "osm_id": 7641994226, "osm_type": "node", "name": "Homoeopathic Clinic", "tags": { "addr:district": "Mandi", "addr:full": "Bhambla", "addr:postcode": "175033", "addr:state": "Himachal Pradesh", "amenity": "clinic", "name": "Homoeopathic Clinic", "source": "Local Knowledge" } }, "geometry": { "type": "Point", "coordinates": [ 76.7315687, 31.5862496 ] } },
{ "type": "Feature", "properties": { "osm_id": 5692851704, "osm_type": "node", "name": "PHC, Bhambla", "tags": { "addr:block": "Baldwara", "addr:city": "Mandi", "addr:district": "Mandi", "addr:full": "Una-Jahu-Ner Chowk Road, Near Post Office, Bhambla", "addr:postcode": "175033", "addr:state": "Himachal Pradesh", "addr:street": "New PHC Bhambla", "amenity": "hospital", "description": "Primary Health Centre", "emergency": "yes", "healthcare": "centre", "healthcare:speciality": "general", "name": "PHC, Bhambla", "operator": "State Government", "source": "OpenGovernmentData" } }, "geometry": { "type": "Point", "coordinates": [ 76.7369035, 31.5916736 ] } },
{ "type": "Feature", "properties": { "osm_id": 7165542019, "osm_type": "node", "name": "PHC, Jamni", "tags": { "addr:block": "Baldwara", "addr:district": "Mandi", "addr:full": "Near Sub Post Office, Jamni, Dhangor", "addr:postcode": "175049", "addr:state": "Himachal Pradesh", "description": "Primary Health Centre", "healthcare": "centre", "name": "PHC, Jamni", "source": "OpenGovernmentData" } }, "geometry": { "type": "Point", "coordinates": [ 76.7911793, 31.6450735 ] } },
{ "type": "Feature", "properties": { "osm_id": 8061281132, "osm_type": "node", "name": "SubCentre, Chauki Chandrahan", "tags": { "addr:district": "Mandi", "addr:full": "Chauki Chandrahan", "addr:postcode": "175023", "addr:state": "Himachal Pradesh", "description": "SubCentre", "healthcare": "centre", "name": "SubCentre, Chauki Chandrahan", "source": "Local Knowledge" } }, "geometry": { "type": "Point", "coordinates": [ 76.8533054, 31.6481299 ] } },
{ "type": "Feature", "properties": { "osm_id": 8049676292, "osm_type": "node", "name": "SubCentre, Tandi", "tags": { "addr:district": "Mandi", "addr:full": "Tandi", "addr:postcode": "175052", "addr:state": "Himachal Pradesh", "description": "SubCentre", "healthcare": "centre", "name": "SubCentre, Tandi", "source": "Local Knowledge" } }, "geometry": { "type": "Point", "coordinates": [ 76.8768579, 31.674752 ] } },
{ "type": "Feature", "properties": { "osm_id": 7165542042, "osm_type": "node", "name": "PHC, Nanawan", "tags": { "addr:block": "Kotli", "addr:district": "Mandi", "addr:full": "Nanawan", "addr:postcode": "175052", "addr:state": "Himachal Pradesh", "description": "Primary Health Centre", "healthcare": "centre", "name": "PHC, Nanawan", "source": "OpenGovernmentData" } }, "geometry": { "type": "Point", "coordinates": [ 76.8915334, 31.6843371 ] } },
{ "type": "Feature", "properties": { "osm_id": 7165542013, "osm_type": "node", "name": "PHC, Bhaderwar", "tags": { "addr:block": "Baldwara", "addr:district": "Mandi", "addr:full": "Tehsil Sarkaghat, Near Post Office, Bhaderwar", "addr:postcode": "175049", "addr:state": "Himachal Pradesh", "description": "Primary Health Centre", "healthcare": "centre", "name": "PHC, Bhaderwar", "source": "OpenGovernmentData" } }, "geometry": { "type": "Point", "coordinates": [ 76.789389, 31.690594 ] } },
{ "type": "Feature", "properties": { "osm_id": 7165542055, "osm_type": "node", "name": "PHC, Thona", "tags": { "addr:block": "Baldwara", "addr:district": "Mandi", "addr:full": "Thona Road, Thona", "addr:postcode": "175049", "addr:state": "Himachal Pradesh", "description": "Primary Health Centre", "healthcare": "centre", "name": "PHC, Thona", "source": "OpenGovernmentData" } }, "geometry": { "type": "Point", "coordinates": [ 76.809255, 31.71611 ] } },
{ "type": "Feature", "properties": { "osm_id": 8058500693, "osm_type": "node", "name": "SubCentre, Baggi", "tags": { "addr:district": "Mandi", "addr:full": "Baggi", "addr:postcode": "175052", "addr:state": "Himachal Pradesh", "description": "SubCentre", "healthcare": "centre", "name": "SubCentre, Baggi", "source": "Local Knowledge" } }, "geometry": { "type": "Point", "coordinates": [ 76.8754846, 31.7248865 ] } },
{ "type": "Feature", "properties": { "osm_id": 8058485234, "osm_type": "node", "name": "SubCentre, Samrahan", "tags": { "addr:district": "Mandi", "addr:full": "Samrahan", "addr:postcode": "175052", "addr:state": "Himachal Pradesh", "description": "SubCentre", "healthcare": "centre", "name": "SubCentre, Samrahan", "source": "Local Knowledge" } }, "geometry": { "type": "Point", "coordinates": [ 76.8668184, 31.7328096 ] } },
{ "type": "Feature", "properties": { "osm_id": 7165541939, "osm_type": "node", "name": "PHC, Karkoh", "tags": { "addr:block": "Kotli", "addr:district": "Mandi", "addr:full": "Karkoh", "addr:postcode": "175040", "addr:state": "Himachal Pradesh", "description": "Primary Health Centre", "healthcare": "centre", "name": "PHC, Karkoh", "source": "OpenGovernmentData" } }, "geometry": { "type": "Point", "coordinates": [ 76.8291991, 31.7919564 ] } },
{ "type": "Feature", "properties": { "osm_id": 7165542072, "osm_type": "node", "name": "PHC, Langna", "tags": { "addr:block": "Ladbharol", "addr:district": "Mandi", "addr:full": "Langna", "addr:postcode": "175032", "addr:state": "Himachal Pradesh", "description": "Primary Health Centre", "healthcare": "centre", "name": "PHC, Langna", "source": "OpenGovernmentData" } }, "geometry": { "type": "Point", "coordinates": [ 76.7674868, 31.8382368 ] } },
{ "type": "Feature", "properties": { "osm_id": 7165542049, "osm_type": "node", "name": "PHC, Sajoo Piplu", "tags": { "addr:block": "Sandhol", "addr:district": "Mandi", "addr:full": "Sajoo Piplu", "addr:postcode": "175025", "addr:state": "Himachal Pradesh", "description": "Primary Health Centre", "healthcare": "centre", "name": "PHC, Sajoo Piplu", "source": "OpenGovernmentData" } }, "geometry": { "type": "Point", "coordinates": [ 76.71794, 31.755327 ] } },
{ "type": "Feature", "properties": { "osm_id": 7165541959, "osm_type": "node", "name": "PHC, Tihra", "tags": { "addr:block": "Sandhol", "addr:district": "Mandi", "addr:full": "Tihra Road, Tihra", "addr:postcode": "175026", "addr:state": "Himachal Pradesh", "description": "Primary Health Centre", "healthcare": "centre", "name": "PHC, Tihra", "source": "OpenGovernmentData" } }, "geometry": { "type": "Point", "coordinates": [ 76.66595, 31.755596 ] } },
{ "type": "Feature", "properties": { "osm_id": 7165542000, "osm_type": "node", "name": "CHC,Dharampur", "tags": { "addr:block": "Sandhol", "addr:district": "Mandi", "addr:full": "Market Road, Near GSSS, Dharampur", "addr:postcode": "175040", "addr:state": "Himachal Pradesh", "description": "Community Health Centre", "healthcare": "centre", "name": "CHC,Dharampur", "source": "OpenGovernmentData" } }, "geometry": { "type": "Point", "coordinates": [ 76.7584459, 31.8029118 ] } },
{ "type": "Feature", "properties": { "osm_id": 7165542069, "osm_type": "node", "name": "PHC, Seoh", "tags": { "addr:block": "Sandhol", "addr:district": "Mandi", "addr:full": "Seoh", "addr:postcode": "175051", "addr:state": "Himachal Pradesh", "description": "Primary Health Centre", "healthcare": "centre", "name": "PHC, Seoh", "source": "OpenGovernmentData" } }, "geometry": { "type": "Point", "coordinates": [ 76.7120902, 31.8622346 ] } },
{ "type": "Feature", "properties": { "osm_id": 8049989875, "osm_type": "node", "name": "SubCentre, Bhalaridha", "tags": { "addr:district": "Mandi", "addr:full": "Sarli Road, Bhalaridha", "addr:postcode": "175015", "addr:state": "Himachal Pradesh", "description": "SubCentre", "healthcare": "centre", "name": "SubCentre, Bhalaridha", "source": "Local Knowledge" } }, "geometry": { "type": "Point", "coordinates": [ 76.7532912, 31.9775615 ] } },
{ "type": "Feature", "properties": { "osm_id": 8050080170, "osm_type": "node", "name": "SubCentre, Jamehr", "tags": { "addr:district": "Mandi", "addr:full": "Jamehr", "addr:postcode": "175014", "addr:state": "Himachal Pradesh", "description": "SubCentre", "healthcare": "centre", "name": "SubCentre, Jamehr", "source": "Local Knowledge" } }, "geometry": { "type": "Point", "coordinates": [ 76.8022871, 31.8423859 ] } },
{ "type": "Feature", "properties": { "osm_id": 8050108273, "osm_type": "node", "name": "SubCentre, Charonj", "tags": { "addr:district": "Mandi", "addr:full": "Charonj", "addr:postcode": "175014", "addr:state": "Himachal Pradesh", "description": "SubCentre", "healthcare": "centre", "name": "SubCentre, Charonj", "source": "Local Knowledge" } }, "geometry": { "type": "Point", "coordinates": [ 76.8312952, 31.8432837 ] } },
{ "type": "Feature", "properties": { "osm_id": 7165541978, "osm_type": "node", "name": "PHC, Draman", "tags": { "addr:block": "Padhar", "addr:district": "Mandi", "addr:full": "Padhar-Nohali Road, Draman, Tikkar", "addr:postcode": "175014", "addr:state": "Himachal Pradesh", "description": "Primary Health Centre", "healthcare": "centre", "name": "PHC, Draman", "source": "OpenGovernmentData" } }, "geometry": { "type": "Point", "coordinates": [ 76.8404541, 31.8672837 ] } },
{ "type": "Feature", "properties": { "osm_id": 7165541944, "osm_type": "node", "name": "PHC, Makreri", "tags": { "addr:block": "Ladbharol", "addr:district": "Mandi", "addr:full": "Makreri", "addr:postcode": "175015", "addr:state": "Himachal Pradesh", "contact:phone": "1908256026", "description": "Primary Health Centre", "healthcare": "centre", "name": "PHC, Makreri", "source": "OpenGovernmentData" } }, "geometry": { "type": "Point", "coordinates": [ 76.7836008, 31.8812772 ] } },
{ "type": "Feature", "properties": { "osm_id": 7165541943, "osm_type": "node", "name": "PHC, Chukku", "tags": { "addr:block": "Padhar", "addr:district": "Mandi", "addr:full": "Kotropi-Chukku Road, Opp. Post Office, Chukku", "addr:postcode": "175014", "addr:state": "Himachal Pradesh", "description": "Primary Health Centre", "healthcare": "centre", "name": "PHC, Chukku", "source": "OpenGovernmentData" } }, "geometry": { "type": "Point", "coordinates": [ 76.8682841, 31.8886651 ] } },
{ "type": "Feature", "properties": { "osm_id": 8049976538, "osm_type": "node", "name": "SubCentre, Majharanu", "tags": { "addr:district": "Mandi", "addr:full": "Majharanu-Bassi Rd, Majharanu", "addr:postcode": "175015", "addr:state": "Himachal Pradesh", "description": "SubCentre", "healthcare": "centre", "name": "SubCentre, Majharanu", "source": "Local Knowledge" } }, "geometry": { "type": "Point", "coordinates": [ 76.7964345, 31.9712226 ] } },
{ "type": "Feature", "properties": { "osm_id": 7165542050, "osm_type": "node", "name": "CHC, Barot", "tags": { "addr:block": "Padhar", "addr:district": "Mandi", "addr:full": "Barot-Jharwar Road, Near Sub-Post Office, Barot", "addr:postcode": "175013", "addr:state": "Himachal Pradesh", "contact:phone": "1908267228", "description": "Community Health Centre", "healthcare": "centre", "name": "CHC, Barot", "source": "OpenGovernmentData" } }, "geometry": { "type": "Point", "coordinates": [ 76.844764, 32.03803 ] } },
{ "type": "Feature", "properties": { "osm_id": 7165541962, "osm_type": "node", "name": "PHC, Pandol", "tags": { "addr:block": "Ladbharol", "addr:district": "Mandi", "addr:full": "Pandol", "addr:postcode": "175032", "addr:state": "Himachal Pradesh", "description": "Primary Health Centre", "healthcare": "centre", "name": "PHC, Pandol", "source": "OpenGovernmentData" } }, "geometry": { "type": "Point", "coordinates": [ 76.676063, 32.002527 ] } },
{ "type": "Feature", "properties": { "osm_id": 7060901472, "osm_type": "node", "name": "Dzongsar Health Centre", "tags": { "healthcare": "centre", "name": "Dzongsar Health Centre" } }, "geometry": { "type": "Point", "coordinates": [ 76.7368759, 32.0067093 ] } },
{ "type": "Feature", "properties": { "osm_id": 7061130275, "osm_type": "node", "name": "Men Tsee Khang, Chauntra", "tags": { "amenity": "clinic", "email": "csrsr2014@gmail.com", "name": "Men Tsee Khang, Chauntra", "operator": "Chauntra Sowa Rigpa Study & Research", "phone": "01908251086" } }, "geometry": { "type": "Point", "coordinates": [ 76.7410094, 32.0085729 ] } },
{ "type": "Feature", "properties": { "osm_id": 7010435199, "osm_type": "node", "name": "PHC, Chauntra", "tags": { "addr:block": "Ladbharol", "addr:district": "Mandi", "addr:full": "Sukhbag-Chaugan Road, Beside Block Development Office, Chauntra", "addr:postcode": "175032", "addr:state": "Himachal Pradesh", "contact:phone": "1908251800", "description": "Primary Health Centre", "healthcare": "centre", "name": "PHC, Chauntra", "operator:type": "government", "pincode": "175032", "source": "OpenGovernmentData" } }, "geometry": { "type": "Point", "coordinates": [ 76.7261298, 32.0191871 ] } },
{ "type": "Feature", "properties": { "osm_id": 7165506477, "osm_type": "node", "name": "PHC, Haraboi", "tags": { "addr:block": "Rohanda", "addr:district": "Mandi", "addr:full": "Opp. Post Office, Hara Boi, Mandi", "addr:postcode": "175009", "addr:state": "Himachal Pradesh", "description": "Primary Health Centre", "healthcare": "centre", "name": "PHC, Haraboi", "source": "OpenGovernmentData" } }, "geometry": { "type": "Point", "coordinates": [ 77.0042107, 31.3070765 ] } },
{ "type": "Feature", "properties": { "osm_id": 7165506335, "osm_type": "node", "name": "PHC, Balag", "tags": { "addr:block": "Rohanda", "addr:district": "Mandi", "addr:full": "P.O. Balag, Teh, Nihri", "addr:postcode": "175038", "addr:state": "Himachal Pradesh", "description": "Primary Health Centre", "healthcare": "centre", "name": "PHC, Balag", "source": "OpenGovernmentData" } }, "geometry": { "type": "Point", "coordinates": [ 76.975007, 31.381801 ] } },
{ "type": "Feature", "properties": { "osm_id": 7165506366, "osm_type": "node", "name": "Pangna PHC", "tags": { "addr:district": "Mandi", "addr:full": "PANGNA", "addr:postcode": "175046", "addr:state": "Himachal Pradesh", "contact:phone": "1907225000", "description": "Primary Health Centre", "healthcare": "centre", "name": "Pangna PHC", "source": "OpenGovernmentData" } }, "geometry": { "type": "Point", "coordinates": [ 77.124458, 31.38547 ] } },
{ "type": "Feature", "properties": { "osm_id": 7165506430, "osm_type": "node", "name": "PHC,Jhungi", "tags": { "addr:block": "Bagsaid", "addr:district": "Mandi", "addr:full": "Near GSSS, Jhungi", "addr:postcode": "175031", "addr:state": "Himachal Pradesh", "description": "Primary Health Centre", "healthcare": "centre", "name": "PHC,Jhungi", "source": "OpenGovernmentData" } }, "geometry": { "type": "Point", "coordinates": [ 77.088473, 31.417807 ] } },
{ "type": "Feature", "properties": { "osm_id": 7165506473, "osm_type": "node", "name": "Rohanda CHC", "tags": { "addr:district": "Mandi", "addr:full": "Rohanda", "addr:postcode": "175031", "addr:state": "Himachal Pradesh", "contact:phone": "1907274120", "description": "Community Health Centre", "healthcare": "centre", "name": "Rohanda CHC", "source": "OpenGovernmentData" } }, "geometry": { "type": "Point", "coordinates": [ 77.026933, 31.461467 ] } },
{ "type": "Feature", "properties": { "osm_id": 7165506415, "osm_type": "node", "name": "PHC, Jachh", "tags": { "addr:block": "Bagsaid", "addr:district": "Mandi", "addr:full": "Jachh-Lot Road, Near Post Office, Jachh", "addr:postcode": "175028", "addr:state": "Himachal Pradesh", "description": "Primary Health Centre", "healthcare": "centre", "name": "PHC, Jachh", "source": "OpenGovernmentData" } }, "geometry": { "type": "Point", "coordinates": [ 77.0740718, 31.5181759 ] } },
{ "type": "Feature", "properties": { "osm_id": 7642218104, "osm_type": "node", "name": "Primary Health Centre", "tags": { "addr:district": "Shimla", "addr:full": "Chaba", "addr:postcode": "175009", "addr:state": "Himachal Pradesh", "description": "Primary Health Centre", "healthcare": "centre", "name": "Primary Health Centre", "source": "Local Knowledge" } }, "geometry": { "type": "Point", "coordinates": [ 77.1592017, 31.2306408 ] } },
{ "type": "Feature", "properties": { "osm_id": 7165506355, "osm_type": "node", "name": "Mandi Hospital", "tags": { "addr:block": "Karsog", "addr:district": "Mandi", "addr:full": "Sainj Bagra Karsog Mandi HP", "addr:postcode": "175011", "addr:state": "Himachal Pradesh", "description": "Primary Health Centre", "healthcare": "centre", "name": "Mandi Hospital", "source": "OpenGovernmentData" } }, "geometry": { "type": "Point", "coordinates": [ 77.324097, 31.343998 ] } },
{ "type": "Feature", "properties": { "osm_id": 7165506425, "osm_type": "node", "name": "PHC, Churag", "tags": { "addr:block": "Karsog", "addr:district": "Mandi", "addr:full": "SH 13, Opp. Yes Bank, Churag", "addr:postcode": "175010", "addr:state": "Himachal Pradesh", "contact:phone": "1907224021", "description": "Primary Health Centre", "healthcare": "centre", "name": "PHC, Churag", "source": "OpenGovernmentData" } }, "geometry": { "type": "Point", "coordinates": [ 77.1577205, 31.3456576 ] } },
{ "type": "Feature", "properties": { "osm_id": 8061489299, "osm_type": "node", "name": "SubCentre, Thakurthana", "tags": { "addr:district": "Mandi", "addr:full": "Thakurthana", "addr:postcode": "175011", "addr:state": "Himachal Pradesh", "description": "SubCentre", "healthcare": "centre", "name": "SubCentre, Thakurthana", "source": "Local Knowledge" } }, "geometry": { "type": "Point", "coordinates": [ 77.2873887, 31.3987313 ] } },
{ "type": "Feature", "properties": { "osm_id": 7007371817, "osm_type": "node", "name": "Community Health Center, Janjali", "tags": { "addr:district": "Mandi", "addr:full": "Janjali", "addr:postcode": "175047", "addr:state": "Himachal Pradesh", "healthcare": "centre", "name": "Community Health Center, Janjali", "source": "OpenGovernmentData" } }, "geometry": { "type": "Point", "coordinates": [ 77.2200546, 31.5164555 ] } },
{ "type": "Feature", "properties": { "osm_id": 7165506380, "osm_type": "node", "name": "PHC, Chhamiar", "tags": { "addr:block": "Ratti", "addr:district": "Mandi", "addr:full": "Rajwari Road, Chhamiar", "addr:postcode": "175027", "addr:state": "Himachal Pradesh", "description": "Primary Health Centre", "healthcare": "centre", "name": "PHC, Chhamiar", "source": "OpenGovernmentData" } }, "geometry": { "type": "Point", "coordinates": [ 76.9669456, 31.5242533 ] } },
{ "type": "Feature", "properties": { "osm_id": 8058093210, "osm_type": "node", "name": "SubCentre, Palahota", "tags": { "addr:district": "Mandi", "addr:full": "Palahota", "addr:postcode": "175019", "addr:state": "Himachal Pradesh", "description": "SubCentre", "healthcare": "centre", "name": "SubCentre, Palahota", "source": "Local Knowledge" } }, "geometry": { "type": "Point", "coordinates": [ 76.9340667, 31.5318999 ] } },
{ "type": "Feature", "properties": { "osm_id": 7165506456, "osm_type": "node", "name": "CHC, Bagsiad", "tags": { "addr:block": "Bagsaid", "addr:district": "Mandi", "addr:full": "Nerchowk-Chalichowk-Janjehli Road, Near Post Office, Bagsiad", "addr:postcode": "175039", "addr:state": "Himachal Pradesh", "contact:phone": "1907254265", "description": "Community Health Centre", "healthcare": "centre", "name": "CHC, Bagsiad", "source": "OpenGovernmentData" } }, "geometry": { "type": "Point", "coordinates": [ 77.1209473, 31.5607729 ] } },
{ "type": "Feature", "properties": { "osm_id": 7165506356, "osm_type": "node", "name": "PHC, Devdhar", "tags": { "addr:block": "Bagsaid", "addr:district": "Mandi", "addr:full": "Nerchowk-Chailchowk-Janjehli Road, Majhothi, Devdhar", "addr:postcode": "175029", "addr:state": "Himachal Pradesh", "description": "Primary Health Centre", "healthcare": "centre", "name": "PHC, Devdhar", "source": "OpenGovernmentData" } }, "geometry": { "type": "Point", "coordinates": [ 77.074982, 31.561063 ] } },
{ "type": "Feature", "properties": { "osm_id": 7010437121, "osm_type": "node", "name": "Civil Hospital, Bagsaid", "tags": { "addr:district": "Mandi", "addr:full": "Bagsaid", "addr:state": "Himachal Pradesh", "amenity": "clinic", "healthcare": "centre", "name": "Civil Hospital, Bagsaid", "operator:type": "government", "pincode": "175048", "source": "OpenGovernmentData" } }, "geometry": { "type": "Point", "coordinates": [ 77.1234307, 31.5618246 ] } },
{ "type": "Feature", "properties": { "osm_id": 7165506481, "osm_type": "node", "name": "PHC, Kanaid", "tags": { "addr:block": "Rohanda", "addr:district": "Mandi", "addr:full": "Karsog-Sundernagar-Mandi Road, Near GSSS, Kanaid", "addr:postcode": "175019", "addr:state": "Himachal Pradesh", "description": "Primary Health Centre", "healthcare": "centre", "name": "PHC, Kanaid", "source": "OpenGovernmentData" } }, "geometry": { "type": "Point", "coordinates": [ 76.9157798, 31.5814388 ] } },
{ "type": "Feature", "properties": { "osm_id": 7010437685, "osm_type": "node", "name": "Civil Hospital, Gohar", "tags": { "addr:block": "Bagsaid", "addr:district": "Mandi", "addr:full": "Chail Chowk-Gohar-Pandoh Road, Near HPSEB Electrical Division, Gohar", "addr:postcode": "175029", "addr:state": "Himachal Pradesh", "amenity": "hospital", "contact:phone": "1907250292", "description": "Civil Hospital", "healthcare": "centre", "name": "Civil Hospital, Gohar", "operator:type": "government", "pincode": "175029", "source": "OpenGovernmentData" } }, "geometry": { "type": "Point", "coordinates": [ 77.0423577, 31.5827035 ] } },
{ "type": "Feature", "properties": { "osm_id": 7165506333, "osm_type": "node", "name": "Parwara PHC", "tags": { "addr:block": "Bagsaid", "addr:district": "Mandi", "addr:full": "Parwara", "addr:postcode": "175029", "addr:state": "Himachal Pradesh", "description": "Primary Health Centre", "healthcare": "centre", "name": "Parwara PHC", "source": "OpenGovernmentData" } }, "geometry": { "type": "Point", "coordinates": [ 77.1256406, 31.5956884 ] } },
{ "type": "Feature", "properties": { "osm_id": 6988229460, "osm_type": "node", "name": "H.S.Malhotra Clinic, Mandi", "tags": { "addr:district": "Mandi", "addr:full": "91/8, Bhut Nath Bazar", "addr:postcode": "175001", "addr:state": "Himachal Pradesh", "amenity": "clinic", "healthcare:speciality": "Internal Medicine; Paediatrics; X-Ray; USG; Lab; TMT; PFT; ECG and EEG", "name": "H.S.Malhotra Clinic, Mandi", "operator:type": "private", "source": "OpenGovernmentData" } }, "geometry": { "type": "Point", "coordinates": [ 76.9145483, 31.6086759 ] } },
{ "type": "Feature", "properties": { "osm_id": 7165542076, "osm_type": "node", "name": "PHC, Pandoh", "tags": { "addr:block": "Ratti", "addr:district": "Mandi", "addr:full": "Pandoh", "addr:postcode": "175124", "addr:state": "Himachal Pradesh", "description": "Primary Health Centre", "healthcare": "centre", "name": "PHC, Pandoh", "source": "OpenGovernmentData" } }, "geometry": { "type": "Point", "coordinates": [ 77.0515333, 31.6698523 ] } },
{ "type": "Feature", "properties": { "osm_id": 7165506325, "osm_type": "node", "name": "PHC, Gadagusain", "tags": { "addr:block": "Janjehli", "addr:district": "Mandi", "addr:full": "Dpf Kawarishilh, Near Post Office, Gadagusain", "addr:postcode": "175047", "addr:state": "Himachal Pradesh", "description": "Primary Health Centre", "healthcare": "centre", "name": "PHC, Gadagusain", "source": "OpenGovernmentData" } }, "geometry": { "type": "Point", "coordinates": [ 77.298967, 31.555642 ] } },
{ "type": "Feature", "properties": { "osm_id": 7165506424, "osm_type": "node", "name": "Thunag PHC", "tags": { "addr:block": "Janjehli", "addr:district": "Mandi", "addr:full": "Nerchowk-Chailchowk-Janjehli Road, Rahkot, Thunag", "addr:postcode": "175048", "addr:state": "Himachal Pradesh", "description": "Primary Health Centre", "healthcare": "centre", "name": "Thunag PHC", "source": "OpenGovernmentData" } }, "geometry": { "type": "Point", "coordinates": [ 77.171674, 31.55911 ] } },
{ "type": "Feature", "properties": { "osm_id": 7641994239, "osm_type": "node", "name": "Primary Health Centre", "tags": { "addr:district": "Mandi", "addr:full": "Thachi", "addr:postcode": "175106", "addr:state": "Himachal Pradesh", "description": "Primary Health Centre", "healthcare": "centre", "name": "Primary Health Centre", "source": "Local Knowledge" } }, "geometry": { "type": "Point", "coordinates": [ 77.2060467, 31.68082 ] } },
{ "type": "Feature", "properties": { "osm_id": 7641994197, "osm_type": "node", "name": "Primary Health Centre", "tags": { "addr:district": "Mandi", "addr:full": "Panjain", "addr:postcode": "175106", "addr:state": "Himachal Pradesh", "description": "Primary Health Centre", "healthcare": "centre", "name": "Primary Health Centre", "source": "Local Knowledge" } }, "geometry": { "type": "Point", "coordinates": [ 77.2307742, 31.7039176 ] } },
{ "type": "Feature", "properties": { "osm_id": 7641994243, "osm_type": "node", "name": "Primary Health Centre", "tags": { "addr:district": "Mandi", "addr:full": "Thallaut, Mandi, Mandi Road", "addr:postcode": "175124", "addr:state": "Himachal Pradesh", "description": "Primary Health Centre", "healthcare": "centre", "name": "Primary Health Centre", "source": "Local Knowledge" } }, "geometry": { "type": "Point", "coordinates": [ 77.1990653, 31.7105139 ] } },
{ "type": "Feature", "properties": { "osm_id": 7641994187, "osm_type": "node", "name": "ECHS Polyclinic", "tags": { "addr:district": "Mandi", "addr:full": "Shila Kippar", "addr:postcode": "175124", "addr:state": "Himachal Pradesh", "amenity": "clinic", "name": "ECHS Polyclinic", "source": "Local Knowledge" } }, "geometry": { "type": "Point", "coordinates": [ 76.9652669, 31.7013124 ] } },
{ "type": "Feature", "properties": { "osm_id": 5578038107, "osm_type": "node", "name": "Noble Traders Clinic", "tags": { "amenity": "clinic", "healthcare": "clinic", "name": "Noble Traders Clinic", "wheelchair": "limited" } }, "geometry": { "type": "Point", "coordinates": [ 76.9374974, 31.7052744 ] } },
{ "type": "Feature", "properties": { "osm_id": 5579794485, "osm_type": "node", "name": "Samriti Clinic", "tags": { "amenity": "clinic", "healthcare": "clinic", "name": "Samriti Clinic" } }, "geometry": { "type": "Point", "coordinates": [ 76.9358582, 31.7072392 ] } },
{ "type": "Feature", "properties": { "osm_id": 6993943307, "osm_type": "node", "name": "Kailash Clinic", "tags": { "addr:district": "Mandi", "addr:full": "Mandi", "addr:postcode": "175001", "addr:state": "Himachal Pradesh", "amenity": "clinic", "name": "Kailash Clinic", "source": "OpenGovernmentData" } }, "geometry": { "type": "Point", "coordinates": [ 76.9323608, 31.7101986 ] } },
{ "type": "Feature", "properties": { "osm_id": 6990645958, "osm_type": "node", "name": "Niramay Clinic", "tags": { "addr:district": "Mandi", "addr:full": "Hospital road, Post office", "addr:state": "Himachal Pradesh", "amenity": "clinic", "healthcare:speciality": "Specialized Laboratory services in respect of Clinical Pathology including specialized biochemistry; Microbiology; Histopathology and cytology with immunohistochemistry and other molecular techniques; Immunopathology.", "name": "Niramay Clinic", "operator:type": "private", "source": "OpenGovernmentData" } }, "geometry": { "type": "Point", "coordinates": [ 76.9279982, 31.7103925 ] } },
{ "type": "Feature", "properties": { "osm_id": 7641994204, "osm_type": "node", "name": "Primary Health Centre", "tags": { "addr:district": "Mandi", "addr:full": "Village Balh, Ghran", "addr:postcode": "175106", "addr:state": "Himachal Pradesh", "description": "Primary Health Centre", "healthcare": "centre", "name": "Primary Health Centre", "source": "Local Knowledge" } }, "geometry": { "type": "Point", "coordinates": [ 77.023917, 31.7184619 ] } },
{ "type": "Feature", "properties": { "osm_id": 8058964634, "osm_type": "node", "name": "SubCentre, Khadkalyana", "tags": { "addr:district": "Mandi", "addr:full": "Khadkalyana", "addr:postcode": "175003", "addr:state": "Himachal Pradesh", "description": "SubCentre", "healthcare": "centre", "name": "SubCentre, Khadkalyana", "source": "Local Knowledge" } }, "geometry": { "type": "Point", "coordinates": [ 76.907431, 31.776459 ] } },
{ "type": "Feature", "properties": { "osm_id": 7165542060, "osm_type": "node", "name": "PHC, Pali", "tags": { "addr:block": "Padhar", "addr:district": "Mandi", "addr:full": "Pali", "addr:postcode": "175001", "addr:state": "Himachal Pradesh", "description": "Primary Health Centre", "healthcare": "centre", "name": "PHC, Pali", "source": "OpenGovernmentData" } }, "geometry": { "type": "Point", "coordinates": [ 76.9408981, 31.8147299 ] } },
{ "type": "Feature", "properties": { "osm_id": 7165542080, "osm_type": "node", "name": "PHC, Balh Tikkar", "tags": { "addr:block": "Padhar", "addr:district": "Mandi", "addr:full": "Dayanapark-Balh Road, Balh", "addr:postcode": "175012", "addr:state": "Himachal Pradesh", "description": "Primary Health Centre", "healthcare": "centre", "name": "PHC, Balh Tikkar", "source": "OpenGovernmentData" } }, "geometry": { "type": "Point", "coordinates": [ 76.9445944, 31.891484 ] } },
{ "type": "Feature", "properties": { "osm_id": 7010420277, "osm_type": "node", "name": "Community Health Centre, Nagwain", "tags": { "addr:district": "Mandi", "addr:full": "NH3, Nagwain", "addr:state": "Himachal Pradesh", "healthcare": "centre", "name": "Community Health Centre, Nagwain", "operator:type": "government", "pincode": "175121", "source": "OpenGovernmentData" } }, "geometry": { "type": "Point", "coordinates": [ 77.1870205, 31.8054205 ] } },
{ "type": "Feature", "properties": { "osm_id": 7641994216, "osm_type": "node", "name": "Kashyap Clinic", "tags": { "addr:district": "Mandi", "addr:full": "Nagwain, Kullu, Bhuntar Ramshila Road, Aut", "addr:postcode": "175121", "addr:state": "Himachal Pradesh", "amenity": "clinic", "name": "Kashyap Clinic", "source": "Local Knowledge" } }, "geometry": { "type": "Point", "coordinates": [ 77.1803964, 31.8138558 ] } },
{ "type": "Feature", "properties": { "osm_id": 7641994241, "osm_type": "node", "name": "Ram Centre", "tags": { "addr:district": "Mandi", "addr:full": "Nagwain - Baloo Road", "addr:postcode": "175121", "addr:state": "Himachal Pradesh", "amenity": "clinic", "name": "Ram Centre", "source": "Local Knowledge" } }, "geometry": { "type": "Point", "coordinates": [ 77.1722875, 31.8195838 ] } }
]
}
