{
"type": "FeatureCollection",
"name": "mandi_Hospitals",
"crs": { "type": "name", "properties": { "name": "urn:ogc:def:crs:OGC:1.3:CRS84" } },
"features": [
{ "type": "Feature", "properties": { "osm_id": 7641994237, "osm_type": "node", "name": "Government Ayurvedic Health Centre", "tags": { "addr:district": "Mandi", "addr:full": "Behli, Himachal Pradesh", "addr:postcode": "175019", "addr:state": "Himachal Pradesh", "amenity": "hospital", "name": "Government Ayurvedic Health Centre", "source": "Local Knowledge" } }, "geometry": { "type": "Point", "coordinates": [ 76.9160393, 31.5495851 ] } },
{ "type": "Feature", "properties": { "osm_id": 7165506350, "osm_type": "node", "name": "Government Hospital, Baggi", "tags": { "addr:block": "Ratti", "addr:district": "Mandi", "addr:full": "Nerchowk-Janjahli Road, Near Punjab National Bank, Baggi", "addr:postcode": "175006", "addr:state": "Himachal Pradesh", "amenity": "hospital", "contact:phone": "1905244003", "name": "Government Hospital, Baggi", "source": "OpenGovernmentData" } }, "geometry": { "type": "Point", "coordinates": [ 76.9688848, 31.5758999 ] } },
{ "type": "Feature", "properties": { "osm_id": 3045606840, "osm_type": "node", "name": "Government Hospital Kummi", "tags": { "amenity": "hospital", "name": "Government Hospital Kummi" } }, "geometry": { "type": "Point", "coordinates": [ 76.9496802, 31.60176 ] } },
{ "type": "Feature", "properties": { "osm_id": 197908492, "osm_type": "way", "name": "ESI Medical College and Government Hospital", "tags": { "amenity": "hospital", "name": "ESI Medical College and Government Hospital" } }, "geometry": { "type": "Polygon", "coordinates": [ [ [ 76.9179386, 31.605495 ], [ 76.9180459, 31.6061254 ], [ 76.9179547, 31.6063676 ], [ 76.9179547, 31.6067422 ], [ 76.9180083, 31.6069981 ], [ 76.918475, 31.6081357 ], [ 76.9185074, 31.6083181 ], [ 76.9183677, 31.6085057 ], [ 76.9181371, 31.6088621 ], [ 76.9179708, 31.6091362 ], [ 76.9179654, 31.6094149 ], [ 76.9189417, 31.6101732 ], [ 76.9192475, 31.6099539 ], [ 76.9195318, 31.6099539 ], [ 76.9196016, 31.6098991 ], [ 76.9199341, 31.6101458 ], [ 76.9202292, 31.6102418 ], [ 76.9203901, 31.6101093 ], [ 76.920653, 31.6097347 ], [ 76.9208837, 31.609488 ], [ 76.921168, 31.6093966 ], [ 76.9210124, 31.609255 ], [ 76.9209427, 31.6089717 ], [ 76.9208032, 31.6086748 ], [ 76.9207281, 31.6073864 ], [ 76.9206905, 31.6066006 ], [ 76.9207549, 31.6059518 ], [ 76.9213396, 31.6057599 ], [ 76.9215703, 31.6057782 ], [ 76.9216293, 31.6054219 ], [ 76.9212216, 31.6050746 ], [ 76.9208032, 31.6056777 ], [ 76.9205189, 31.6052026 ], [ 76.9202399, 31.6053488 ], [ 76.9198322, 31.6047868 ], [ 76.9198054, 31.604965 ], [ 76.9196927, 31.6050792 ], [ 76.9193119, 31.6051477 ], [ 76.9179922, 31.6052894 ], [ 76.9179386, 31.605495 ] ] ] } },
{ "type": "Feature", "properties": { "osm_id": 7641994214, "osm_type": "node", "name": "Aditya Jyoti Eye Hospital", "tags": { "addr:district": "Mandi", "addr:full": "Ner", "addr:postcode": "175008", "addr:state": "Himachal Pradesh", "amenity": "hospital", "name": "Aditya Jyoti Eye Hospital", "source": "Local Knowledge" } }, "geometry": { "type": "Point", "coordinates": [ 76.915916, 31.6089276 ] } },
{ "type": "Feature", "properties": { "osm_id": 3047095141, "osm_type": "node", "name": "Government Hospital", "tags": { "amenity": "hospital", "name": "Government Hospital" } }, "geometry": { "type": "Point", "coordinates": [ 76.9615555, 31.6303288 ] } },
{ "type": "Feature", "properties": { "osm_id": 1235730661, "osm_type": "way", "name": "Bhanoo Hospital", "tags": { "amenity": "hospital", "healthcare": "hospital", "name": "Bhanoo Hospital" } }, "geometry": { "type": "Polygon", "coordinates": [ [ [ 76.9411403, 31.6346365 ], [ 76.9411136, 31.6343718 ], [ 76.9407701, 31.6343969 ], [ 76.9407968, 31.6346617 ], [ 76.9411403, 31.6346365 ] ] ] } },
{ "type": "Feature", "properties": { "osm_id": 7007287774, "osm_type": "node", "name": "Aastha Multi Speciality Hospital & Test Tube Baby Centre", "tags": { "addr:district": "Mandi", "addr:full": "Post-Office Gutkar, Teh Balh, Mandi", "addr:postcode": "175008", "addr:state": "Himachal Pradesh", "amenity": "hospital", "name": "Aastha Multi Speciality Hospital & Test Tube Baby Centre", "source": "OpenGovernmentData" } }, "geometry": { "type": "Point", "coordinates": [ 76.9450316, 31.6428701 ] } },
{ "type": "Feature", "properties": { "osm_id": 7013422068, "osm_type": "node", "name": "Sri Harihar Hospital and Research Centre, Mandi", "tags": { "addr:district": "Mandi", "addr:full": "Vill. P.O. Gutkar", "addr:postcode": "175021", "addr:state": "Himachal Pradesh", "amenity": "hospital", "name": "Sri Harihar Hospital and Research Centre, Mandi", "source": "OpenGovernmentData" } }, "geometry": { "type": "Point", "coordinates": [ 76.9456203, 31.6511438 ] } },
{ "type": "Feature", "properties": { "osm_id": 6982167234, "osm_type": "node", "name": "Karsog CH", "tags": { "addr:block": "Karsog", "addr:district": "Mandi", "addr:full": "Karsog, Lower karsog", "addr:postcode": "175011", "addr:state": "Himachal Pradesh", "amenity": "hospital", "contact:phone": "1907222218", "description": "Civil Hospital", "name": "Karsog CH", "operator:type": "government", "source": "OpenGovernmentData" } }, "geometry": { "type": "Point", "coordinates": [ 77.2037441, 31.3810918 ] } },
{ "type": "Feature", "properties": { "osm_id": 7010417122, "osm_type": "node", "name": "Civil Hospital, Janjehli", "tags": { "addr:block": "Janjehli", "addr:district": "Mandi", "addr:full": "Shikari Temple Road, Near GSSS, Janjehli", "addr:postcode": "175047", "addr:state": "Himachal Pradesh", "amenity": "hospital", "name": "Civil Hospital, Janjehli", "operator:type": "government", "pincode": "175047", "source": "OpenGovernmentData" } }, "geometry": { "type": "Point", "coordinates": [ 77.2224881, 31.5160444 ] } },
{ "type": "Feature", "properties": { "osm_id": 7641994190, "osm_type": "node", "name": "Tuna Hospital", "tags": { "addr:district": "Mandi", "addr:full": "Tuna", "addr:postcode": "175028", "addr:state": "Himachal Pradesh", "amenity": "hospital", "name": "Tuna Hospital", "source": "Local Knowledge" } }, "geometry": { "type": "Point", "coordinates": [ 77.0561795, 31.5289367 ] } },
{ "type": "Feature", "properties": { "osm_id": 5768020136, "osm_type": "node", "name": null, "tags": { "amenity": "hospital", "health_facility:type": "dispensary" } }, "geometry": { "type": "Point", "coordinates": [ 77.0295861, 31.5575668 ] } },
{ "type": "Feature", "properties": { "osm_id": 7641994222, "osm_type": "node", "name": "Abhilashi Hospital", "tags": { "addr:district": "Mandi", "addr:full": "Chachyot", "addr:postcode": "175028", "addr:state": "Himachal Pradesh", "amenity": "hospital", "name": "Abhilashi Hospital", "source": "Local Knowledge" } }, "geometry": { "type": "Point", "coordinates": [ 77.0096265, 31.5594994 ] } },
{ "type": "Feature", "properties": { "osm_id": 7010437685, "osm_type": "node", "name": "Civil Hospital, Gohar", "tags": { "addr:block": "Bagsaid", "addr:district": "Mandi", "addr:full": "Chail Chowk-Gohar-Pandoh Road, Near HPSEB Electrical Division, Gohar", "addr:postcode": "175029", "addr:state": "Himachal Pradesh", "amenity": "hospital", "contact:phone": "1907250292", "description": "Civil Hospital", "healthcare": "centre", "name": "Civil Hospital, Gohar", "operator:type": "government", "pincode": "175029", "source": "OpenGovernmentData" } }, "geometry": { "type": "Point", "coordinates": [ 77.0423577, 31.5827035 ] } },
{ "type": "Feature", "properties": { "osm_id": 6993508931, "osm_type": "node", "name": "Bbmb Hospital", "tags": { "addr:district": "Mandi", "addr:full": "Sundarnagar", "addr:postcode": "175001", "addr:state": "Himachal Pradesh", "amenity": "hospital", "name": "Bbmb Hospital", "source": "OpenGovernmentData" } }, "geometry": { "type": "Point", "coordinates": [ 77.046985, 31.6752336 ] } },
{ "type": "Feature", "properties": { "osm_id": 7165541982, "osm_type": "node", "name": "Government Hospital, Balichowki", "tags": { "addr:block": "Janjehli", "addr:district": "Mandi", "addr:full": "Market Road, Near Sub-Post Office, Balichowki", "addr:postcode": "175106", "addr:state": "Himachal Pradesh", "amenity": "hospital", "name": "Government Hospital, Balichowki", "source": "OpenGovernmentData" } }, "geometry": { "type": "Point", "coordinates": [ 77.2803717, 31.6883092 ] } },
{ "type": "Feature", "properties": { "osm_id": 7007329243, "osm_type": "node", "name": "Banga Eye Hospital", "tags": { "addr:district": "Mandi", "addr:full": "Dadour Chowk", "addr:postcode": "175001", "addr:state": "Himachal Pradesh", "amenity": "hospital", "name": "Banga Eye Hospital", "source": "OpenGovernmentData" } }, "geometry": { "type": "Point", "coordinates": [ 76.9446038, 31.661628 ] } },
{ "type": "Feature", "properties": { "osm_id": 1797502100, "osm_type": "node", "name": "Mandav Hospital", "tags": { "addr:district": "Mandi", "addr:full": "Jail Road", "addr:postcode": "175001", "addr:state": "Himachal Pradesh", "amenity": "hospital", "healthcare:speciality": "Medicine; General Surgery; Paediatrics; Orthopedics; Gynaecology; Pathology; Ophthalmology and Radiology; Dental", "name": "Mandav Hospital", "operator:type": "private", "source": "OpenGovernmentData" } }, "geometry": { "type": "Point", "coordinates": [ 76.9287174, 31.7070167 ] } },
{ "type": "Feature", "properties": { "osm_id": 3040977029, "osm_type": "node", "name": "Sri Harihar Hospital and Research Center", "tags": { "amenity": "hospital", "name": "Sri Harihar Hospital and Research Center" } }, "geometry": { "type": "Point", "coordinates": [ 76.9321179, 31.7074184 ] } },
{ "type": "Feature", "properties": { "osm_id": 3047245688, "osm_type": "node", "name": "Charitable Hospital", "tags": { "amenity": "hospital", "name": "Charitable Hospital" } }, "geometry": { "type": "Point", "coordinates": [ 76.931026, 31.7078712 ] } },
{ "type": "Feature", "properties": { "osm_id": 6988114976, "osm_type": "node", "name": "K.S.Hospital Ent & Orthopedic, Mandi", "tags": { "addr:district": "Mandi", "addr:full": "Opposite Zonal Hospital", "addr:state": "Himachal Pradesh", "amenity": "hospital", "healthcare:speciality": "Ear; Nose; Throat Specialist; General OPD; Diagnostic Centre (X-Ray; Digital X-Ray; Laboratory; PFT; PTA; ECG; Orthopaedics", "name": "K.S.Hospital Ent & Orthopedic, Mandi", "operator:type": "private", "pincode": "175001", "source": "OpenGovernmentData" } }, "geometry": { "type": "Point", "coordinates": [ 76.931245, 31.7082921 ] } },
{ "type": "Feature", "properties": { "osm_id": 7641994217, "osm_type": "node", "name": "Neelkanth Hospital", "tags": { "addr:district": "Mandi", "addr:full": "Palace Colony Road, Palace Colony, Mandi", "addr:postcode": "175001", "addr:state": "Himachal Pradesh", "amenity": "hospital", "name": "Neelkanth Hospital", "source": "Local Knowledge" } }, "geometry": { "type": "Point", "coordinates": [ 76.9275778, 31.7085947 ] } },
{ "type": "Feature", "properties": { "osm_id": 5579847850, "osm_type": "node", "name": "Neelkanth Multispeciality Hospital", "tags": { "addr:city": "Mandi, HP", "addr:street": "Hospital Road", "amenity": "hospital", "healthcare": "hospital", "name": "Neelkanth Multispeciality Hospital", "phone": "8872551999" } }, "geometry": { "type": "Point", "coordinates": [ 76.9285426, 31.7086365 ] } },
{ "type": "Feature", "properties": { "osm_id": 7641994230, "osm_type": "node", "name": "S. Jaswant Singh Charitable Hospital", "tags": { "addr:district": "Mandi", "addr:full": "Samkhetar, Mandi", "addr:postcode": "175001", "addr:state": "Himachal Pradesh", "amenity": "hospital", "name": "S. Jaswant Singh Charitable Hospital", "source": "Local Knowledge" } }, "geometry": { "type": "Point", "coordinates": [ 76.9307712, 31.7088719 ] } },
{ "type": "Feature", "properties": { "osm_id": 7641994244, "osm_type": "node", "name": "K.S. Hospital Eye, ENT & Orthopedic", "tags": { "addr:district": "Mandi", "addr:full": "Opposite Zonal Hospital, Palace Colony", "addr:postcode": "175001", "addr:state": "Himachal Pradesh", "amenity": "hospital", "name": "K.S. Hospital Eye, ENT & Orthopedic", "source": "Local Knowledge" } }, "geometry": { "type": "Point", "coordinates": [ 76.9269983, 31.7107007 ] } },
{ "type": "Feature", "properties": { "osm_id": 3047249715, "osm_type": "node", "name": "Sanjiven Hospital", "tags": { "amenity": "hospital", "name": "Sanjiven Hospital" } }, "geometry": { "type": "Point", "coordinates": [ 76.9299025, 31.7108384 ] } },
{ "type": "Feature", "properties": { "osm_id": 7641994221, "osm_type": "node", "name": "Jagriti Hospital", "tags": { "addr:district": "Mandi", "addr:full": "Mandi", "addr:postcode": "175001", "addr:state": "Himachal Pradesh", "amenity": "hospital", "name": "Jagriti Hospital", "source": "Local Knowledge" } }, "geometry": { "type": "Point", "coordinates": [ 76.939028, 31.711088 ] } },
{ "type": "Feature", "properties": { "osm_id": 168484812, "osm_type": "way", "name": "Government Hospital", "tags": { "amenity": "hospital", "emergency": "yes", "name": "Government Hospital" } }, "geometry": { "type": "Polygon", "coordinates": [ [ [ 76.9272228, 31.7110688 ], [ 76.9271233, 31.7111614 ], [ 76.92698, 31.7113333 ], [ 76.9268352, 31.7114606 ], [ 76.9266461, 31.7118665 ], [ 76.9268701, 31.7119779 ], [ 76.9271944, 31.7123331 ], [ 76.9275865, 31.7124401 ], [ 76.9278472, 31.712146 ], [ 76.9276823, 31.7119 ], [ 76.9278762, 31.7117068 ], [ 76.9279349, 31.7113556 ], [ 76.9273003, 31.7109876 ], [ 76.9272228, 31.7110688 ] ] ] } },
{ "type": "Feature", "properties": { "osm_id": 3047262813, "osm_type": "node", "name": "Zonal Hospital", "tags": { "amenity": "hospital", "emergency": "yes", "name": "Zonal Hospital" } }, "geometry": { "type": "Point", "coordinates": [ 76.9275323, 31.7117484 ] } },
{ "type": "Feature", "properties": { "osm_id": 3047257816, "osm_type": "node", "name": "Netaji Subash Chandra Bose Civil Hospital", "tags": { "amenity": "hospital", "name": "Netaji Subash Chandra Bose Civil Hospital" } }, "geometry": { "type": "Point", "coordinates": [ 76.9271633, 31.7117917 ] } },
{ "type": "Feature", "properties": { "osm_id": 6990973244, "osm_type": "node", "name": "District Ayurvedic Hospital, Mandi", "tags": { "addr:district": "Mandi", "addr:full": "Mandi", "addr:state": "Himachal Pradesh", "amenity": "hospital", "name": "District Ayurvedic Hospital, Mandi", "operator:type": "government", "source": "OpenGovernmentData" } }, "geometry": { "type": "Point", "coordinates": [ 76.92808, 31.7122499 ] } },
{ "type": "Feature", "properties": { "osm_id": 474090593, "osm_type": "way", "name": "Medical Unit, Kamand Campus", "tags": { "amenity": "hospital", "building": "yes", "description": "Provide routine and emergency medical cover to all faculty, staff and student and equipped with an Ambulance on call round-the-clock.", "name": "Medical Unit, Kamand Campus" } }, "geometry": { "type": "Polygon", "coordinates": [ [ [ 76.9857623, 31.7733128 ], [ 76.9856792, 31.7732261 ], [ 76.9856121, 31.7732763 ], [ 76.9856953, 31.7733652 ], [ 76.9857623, 31.7733128 ] ] ] } },
{ "type": "Feature", "properties": { "osm_id": 2199934026, "osm_type": "node", "name": "Hospital in Kamand", "tags": { "amenity": "hospital", "name": "Hospital in Kamand" } }, "geometry": { "type": "Point", "coordinates": [ 76.987423, 31.7767286 ] } },
{ "type": "Feature", "properties": { "osm_id": 7641994224, "osm_type": "node", "name": "Ashoka Hospital", "tags": { "addr:district": "Mandi", "addr:full": "Nagwain", "addr:postcode": "175121", "addr:state": "Himachal Pradesh", "amenity": "hospital", "name": "Ashoka Hospital", "source": "Local Knowledge" } }, "geometry": { "type": "Point", "coordinates": [ 77.179682, 31.814975 ] } },
{ "type": "Feature", "properties": { "osm_id": 7641994206, "osm_type": "node", "name": "Governament Ayurvedic Health Centre", "tags": { "addr:district": "Mandi", "addr:full": "Ruhal", "addr:postcode": "175121", "addr:state": "Himachal Pradesh", "amenity": "hospital", "name": "Governament Ayurvedic Health Centre", "source": "Local Knowledge" } }, "geometry": { "type": "Point", "coordinates": [ 77.1155716, 31.8219309 ] } },
{ "type": "Feature", "properties": { "osm_id": 3043573220, "osm_type": "node", "name": "BBMB Hospital Slapper Colony", "tags": { "amenity": "hospital", "healthcare": "hospital", "name": "BBMB Hospital Slapper Colony" } }, "geometry": { "type": "Point", "coordinates": [ 76.8635056, 31.4172222 ] } },
{ "type": "Feature", "properties": { "osm_id": 6993508891, "osm_type": "node", "name": "Suket Hospital", "tags": { "addr:district": "Mandi", "addr:full": "Lalit Chowk, Chatrokdi", "addr:postcode": "175001", "addr:state": "Himachal Pradesh", "amenity": "hospital", "healthcare:speciality": "Medicine; General surgery; Paediatrics; Orthopaedics and Radiology", "name": "Suket Hospital", "operator:type": "private", "source": "OpenGovernmentData" } }, "geometry": { "type": "Point", "coordinates": [ 76.8827748, 31.5161902 ] } },
{ "type": "Feature", "properties": { "osm_id": 45852098, "osm_type": "way", "name": "Sunder Nagar CH", "tags": { "addr:block": "Rohanda", "addr:district": "Mandi", "addr:full": "Sunder Nagar", "addr:postcode": "175018", "addr:state": "Himachal Pradesh", "amenity": "hospital", "contact:phone": "1907266223", "description": "Civil Hospital", "name": "Sunder Nagar CH", "source": "OpenGovernmentData" } }, "geometry": { "type": "Polygon", "coordinates": [ [ [ 76.8844088, 31.5168614 ], [ 76.8844112, 31.5167466 ], [ 76.8844016, 31.5165969 ], [ 76.8843968, 31.5163816 ], [ 76.8843896, 31.5162011 ], [ 76.8843775, 31.516035 ], [ 76.8843679, 31.5159059 ], [ 76.8843535, 31.5158074 ], [ 76.8843391, 31.5156926 ], [ 76.8836944, 31.5156988 ], [ 76.8836872, 31.5158423 ], [ 76.88368, 31.5159981 ], [ 76.8836872, 31.5161519 ], [ 76.8836944, 31.5163057 ], [ 76.8837137, 31.5164533 ], [ 76.8837449, 31.5166256 ], [ 76.883757, 31.5168019 ], [ 76.8837594, 31.5169086 ], [ 76.883769, 31.5169803 ], [ 76.8843944, 31.5169988 ], [ 76.8844088, 31.5168614 ] ] ] } },
{ "type": "Feature", "properties": { "osm_id": 3045145370, "osm_type": "node", "name": "Suket Hospital", "tags": { "amenity": "hospital", "name": "Suket Hospital" } }, "geometry": { "type": "Point", "coordinates": [ 76.8832426, 31.5175084 ] } },
{ "type": "Feature", "properties": { "osm_id": 3045285233, "osm_type": "node", "name": "Samaila PHC", "tags": { "addr:block": "Baldwara", "addr:district": "Mandi", "addr:full": "Samaila", "addr:postcode": "175033", "addr:state": "Himachal Pradesh", "amenity": "hospital", "description": "Primary Health Centre", "healthcare": "centre", "name": "Samaila PHC", "source": "OpenGovernmentData" } }, "geometry": { "type": "Point", "coordinates": [ 76.7620424, 31.5215946 ] } },
{ "type": "Feature", "properties": { "osm_id": 7641994200, "osm_type": "node", "name": "Manat Hospital", "tags": { "addr:district": "Mandi", "addr:full": "Sundar Nagar", "addr:postcode": "175019", "addr:state": "Himachal Pradesh", "amenity": "hospital", "name": "Manat Hospital", "source": "Local Knowledge" } }, "geometry": { "type": "Point", "coordinates": [ 76.886355, 31.5224961 ] } },
{ "type": "Feature", "properties": { "osm_id": 6988566937, "osm_type": "node", "name": "Himachal Dental Collage Hospital", "tags": { "addr:district": "Mandi", "addr:full": "Sunder Nager", "addr:state": "Himachal Pradesh", "amenity": "hospital", "healthcare:speciality": "Pedodontics; Orthodontics; Prosthodontics; Periodontics; Conservative Dentistry; Oral and Maxillofacial; Oral Diagnosis; Preventive and Community Dentistry; Oral Pathology.", "name": "Himachal Dental Collage Hospital", "operator:type": "private", "source": "OpenGovernmentData" } }, "geometry": { "type": "Point", "coordinates": [ 76.8883364, 31.5251223 ] } },
{ "type": "Feature", "properties": { "osm_id": 3045253039, "osm_type": "node", "name": "Veterans Hospital", "tags": { "amenity": "hospital", "name": "Veterans Hospital" } }, "geometry": { "type": "Point", "coordinates": [ 76.8965426, 31.5321365 ] } },
{ "type": "Feature", "properties": { "osm_id": 45897431, "osm_type": "way", "name": "BBMB Hospital", "tags": { "amenity": "hospital", "name": "BBMB Hospital" } }, "geometry": { "type": "Polygon", "coordinates": [ [ [ 76.9087081, 31.5327563 ], [ 76.9087119, 31.5329622 ], [ 76.9087119, 31.5331027 ], [ 76.9093024, 31.5330929 ], [ 76.909241, 31.532289 ], [ 76.9086506, 31.5323217 ], [ 76.9087081, 31.5327563 ] ] ] } },
{ "type": "Feature", "properties": { "osm_id": 6988330455, "osm_type": "node", "name": "Sushrut Hospital", "tags": { "addr:district": "Mandi", "addr:full": "Lake View Colony,Dhadiyal,Sunder Nagar", "addr:postcode": "175019", "addr:state": "Himachal Pradesh", "amenity": "hospital", "name": "Sushrut Hospital", "source": "OpenGovernmentData" } }, "geometry": { "type": "Point", "coordinates": [ 76.887289, 31.5327069 ] } },
{ "type": "Feature", "properties": { "osm_id": 583230993, "osm_type": "node", "name": "Mahindroo Nursing Home", "tags": { "amenity": "hospital", "name": "Mahindroo Nursing Home" } }, "geometry": { "type": "Point", "coordinates": [ 76.8964948, 31.5394004 ] } },
{ "type": "Feature", "properties": { "osm_id": 6986030216, "osm_type": "node", "name": "Ratti Civil Hospital", "tags": { "addr:district": "Mandi", "addr:full": "Ratti", "addr:postcode": "175008", "addr:state": "Himachal Pradesh", "amenity": "hospital", "contact:phone": "1905242296", "name": "Ratti Civil Hospital", "operator:type": "government", "source": "OpenGovernmentData" } }, "geometry": { "type": "Point", "coordinates": [ 76.9029437, 31.6015315 ] } },
{ "type": "Feature", "properties": { "osm_id": 3045587366, "osm_type": "node", "name": "Astha Hospital", "tags": { "amenity": "hospital", "name": "Astha Hospital" } }, "geometry": { "type": "Point", "coordinates": [ 76.9130439, 31.6083352 ] } },
{ "type": "Feature", "properties": { "osm_id": 7165541951, "osm_type": "node", "name": "First Aid Hospital", "tags": { "addr:block": "Kotli", "addr:district": "Mandi", "addr:full": "Kothi Gehri", "addr:postcode": "175023", "addr:state": "Himachal Pradesh", "amenity": "hospital", "name": "First Aid Hospital", "source": "OpenGovernmentData" } }, "geometry": { "type": "Point", "coordinates": [ 76.8555991, 31.6717275 ] } },
{ "type": "Feature", "properties": { "osm_id": 7641994208, "osm_type": "node", "name": "Bhambla Multiispecality Hospital", "tags": { "addr:district": "Mandi", "addr:full": "Sarkaghat", "addr:postcode": "175004", "addr:state": "Himachal Pradesh", "amenity": "hospital", "name": "Bhambla Multiispecality Hospital", "source": "Local Knowledge" } }, "geometry": { "type": "Point", "coordinates": [ 76.7313011, 31.5913078 ] } },
{ "type": "Feature", "properties": { "osm_id": 5692851704, "osm_type": "node", "name": "PHC, Bhambla", "tags": { "addr:block": "Baldwara", "addr:city": "Mandi", "addr:district": "Mandi", "addr:full": "Una-Jahu-Ner Chowk Road, Near Post Office, Bhambla", "addr:postcode": "175033", "addr:state": "Himachal Pradesh", "addr:street": "New PHC Bhambla", "amenity": "hospital", "description": "Primary Health Centre", "emergency": "yes", "healthcare": "centre", "healthcare:speciality": "general", "name": "PHC, Bhambla", "operator": "State Government", "source": "OpenGovernmentData" } }, "geometry": { "type": "Point", "coordinates": [ 76.7369035, 31.5916736 ] } },
{ "type": "Feature", "properties": { "osm_id": 7641994207, "osm_type": "node", "name": "Guleria Eye Care Centre", "tags": { "addr:district": "Mandi", "addr:full": "Nabahi", "addr:postcode": "175024", "addr:state": "Himachal Pradesh", "amenity": "hospital", "name": "Guleria Eye Care Centre", "source": "Local Knowledge" } }, "geometry": { "type": "Point", "coordinates": [ 76.7314823, 31.6693857 ] } },
{ "type": "Feature", "properties": { "osm_id": 6990600587, "osm_type": "node", "name": "Civil Hospital, Sarkaghat", "tags": { "addr:block": "Baldwara", "addr:district": "Mandi", "addr:full": "Sarkaghat", "addr:postcode": "175024", "addr:state": "Himachal Pradesh", "amenity": "hospital", "contact:phone": "1905230036", "description": "Civil Hospital", "name": "Civil Hospital, Sarkaghat", "operator:type": "government", "source": "OpenGovernmentData" } }, "geometry": { "type": "Point", "coordinates": [ 76.7370491, 31.7015011 ] } },
{ "type": "Feature", "properties": { "osm_id": 7641994201, "osm_type": "node", "name": "Pandit Purvia Ram Memorial Hospital", "tags": { "addr:district": "Mandi", "addr:full": "Khunalag, Hamirpur, Joginder Nagar Sarkaghat Ghumarwin Road, Sarkaghat", "addr:postcode": "175024", "addr:state": "Himachal Pradesh", "amenity": "hospital", "name": "Pandit Purvia Ram Memorial Hospital", "source": "Local Knowledge" } }, "geometry": { "type": "Point", "coordinates": [ 76.735861, 31.7030248 ] } },
{ "type": "Feature", "properties": { "osm_id": 7165541961, "osm_type": "node", "name": "Hospital, Cholthara", "tags": { "addr:block": "Sandhol", "addr:district": "Mandi", "addr:full": "Sarkaghat, Near Rajya Vidyut Parishad, Cholthara", "addr:postcode": "175037", "addr:state": "Himachal Pradesh", "amenity": "hospital", "name": "Hospital, Cholthara", "source": "OpenGovernmentData" } }, "geometry": { "type": "Point", "coordinates": [ 76.6879221, 31.7102723 ] } },
{ "type": "Feature", "properties": { "osm_id": 6986539674, "osm_type": "node", "name": "Civil Hospital, Sandole", "tags": { "addr:block": "Sandhol", "addr:district": "Mandi", "addr:full": "Sandhole", "addr:postcode": "176090", "addr:state": "Himachal Pradesh", "amenity": "hospital", "contact:phone": "1905273223", "description": "Civil Hospital", "name": "Civil Hospital, Sandole", "operator:type": "government", "source": "OpenGovernmentData" } }, "geometry": { "type": "Point", "coordinates": [ 76.6559941, 31.8556068 ] } },
{ "type": "Feature", "properties": { "osm_id": 7165542084, "osm_type": "node", "name": "Government Hospital, Gokhra", "tags": { "addr:block": "Kotli", "addr:district": "Mandi", "addr:full": "Near Naina Tunga Mata Temple, Gokhra, Baloh", "addr:postcode": "175052", "addr:state": "Himachal Pradesh", "amenity": "hospital", "name": "Government Hospital, Gokhra", "source": "OpenGovernmentData" } }, "geometry": { "type": "Point", "coordinates": [ 76.8946297, 31.7063412 ] } },
{ "type": "Feature", "properties": { "osm_id": 748563788, "osm_type": "way", "name": "Civil Hospital, Kotli", "tags": { "addr:city": "Kotli", "addr:district": "Mandi", "addr:full": "Kotli", "addr:postcode": "175003", "addr:state": "Himachal Pradesh", "addr:street": "Kotli", "amenity": "hospital", "contact:phone": "1905281231", "description": "Civil Hospital", "healthcare": "hospital", "name": "Civil Hospital, Kotli" } }, "geometry": { "type": "Polygon", "coordinates": [ [ [ 76.8718858, 31.7596947 ], [ 76.8718964, 31.7595728 ], [ 76.8717602, 31.7595517 ], [ 76.871769, 31.7593381 ], [ 76.8716752, 31.759317 ], [ 76.8715991, 31.7593366 ], [ 76.8714682, 31.7595006 ], [ 76.8713974, 31.7595577 ], [ 76.8714116, 31.7597714 ], [ 76.8714806, 31.7597714 ], [ 76.8715708, 31.7597699 ], [ 76.8716363, 31.759818 ], [ 76.871877, 31.7598195 ], [ 76.8718858, 31.7596947 ] ] ] } },
{ "type": "Feature", "properties": { "osm_id": 7010374167, "osm_type": "node", "name": "Civil Hospital, Padhar", "tags": { "addr:block": "Padhar", "addr:district": "Mandi", "addr:full": "Padhar", "addr:postcode": "175012", "addr:state": "Himachal Pradesh", "amenity": "hospital", "description": "Civil Hospital", "name": "Civil Hospital, Padhar", "operator:type": "government", "source": "OpenGovernmentData" } }, "geometry": { "type": "Point", "coordinates": [ 76.9131723, 31.8797624 ] } },
{ "type": "Feature", "properties": { "osm_id": 7641994233, "osm_type": "node", "name": "Mahadev Hospital", "tags": { "addr:district": "Mandi", "addr:full": "Joginder Nagar- Aarthi Road, Joginder Nagar", "addr:postcode": "176120", "addr:state": "Himachal Pradesh", "amenity": "hospital", "name": "Mahadev Hospital", "source": "Local Knowledge" } }, "geometry": { "type": "Point", "coordinates": [ 76.791233, 31.988147 ] } },
{ "type": "Feature", "properties": { "osm_id": 6986153579, "osm_type": "node", "name": "Civil Hospital, Jogindernagar", "tags": { "addr:block": "Padhar", "addr:district": "Mandi", "addr:full": "Mandi-Pathankot Road, Beside GSSS, Joginder Nagar", "addr:postcode": "175015", "addr:state": "Himachal Pradesh", "amenity": "hospital", "contact:phone": "1908222038", "description": "Civil Hospital", "name": "Civil Hospital, Jogindernagar", "operator:type": "government", "source": "OpenGovernmentData" } }, "geometry": { "type": "Point", "coordinates": [ 76.7939146, 31.9905415 ] } },
{ "type": "Feature", "properties": { "osm_id": 7641994219, "osm_type": "node", "name": "Meena Sood Memorial Life Line Hospital", "tags": { "addr:district": "Mandi", "addr:full": "Mandi - Pathankot Road, Laxmi Bazar, Joginder Nagar", "addr:postcode": "176120", "addr:state": "Himachal Pradesh", "amenity": "hospital", "name": "Meena Sood Memorial Life Line Hospital", "source": "Local Knowledge" } }, "geometry": { "type": "Point", "coordinates": [ 76.787751, 31.9918171 ] } },
{ "type": "Feature", "properties": { "osm_id": 6255244375, "osm_type": "node", "name": "Rotary Eye Hospital", "tags": { "amenity": "hospital", "healthcare": "hospital", "name": "Rotary Eye Hospital" } }, "geometry": { "type": "Point", "coordinates": [ 76.7207454, 32.0329907 ] } }
]
}
