{
"type": "FeatureCollection",
"name": "kullu_Police_Stations",
"crs": { "type": "name", "properties": { "name": "urn:ogc:def:crs:OGC:1.3:CRS84" } },
"features": [
{ "type": "Feature", "properties": { "osm_id": 2903119811, "osm_type": "node", "name": "Police Station Banjar", "tags": { "amenity": "police", "name": "Police Station Banjar" } }, "geometry": { "type": "Point", "coordinates": [ 77.3446836, 31.6381398 ] } },
{ "type": "Feature", "properties": { "osm_id": 4354423419, "osm_type": "node", "name": "Police Help desk", "tags": { "amenity": "police", "name": "Police Help desk" } }, "geometry": { "type": "Point", "coordinates": [ 77.1111738, 31.9613255 ] } },
{ "type": "Feature", "properties": { "osm_id": 540712765, "osm_type": "node", "name": "Police Post Jari", "tags": { "amenity": "police", "name": "Police Post Jari" } }, "geometry": { "type": "Point", "coordinates": [ 77.2537421, 32.0022511 ] } },
{ "type": "Feature", "properties": { "osm_id": 856402273, "osm_type": "node", "name": "Police Station Manali", "tags": { "amenity": "police", "name": "Police Station Manali", "wheelchair": "yes" } }, "geometry": { "type": "Point", "coordinates": [ 77.1863189, 32.2368927 ] } },
{ "type": "Feature", "properties": { "osm_id": 2380691334, "osm_type": "node", "name": "Police Assistance", "tags": { "amenity": "police", "name": "Police Assistance" } }, "geometry": { "type": "Point", "coordinates": [ 77.1900016, 32.2456254 ] } },
{ "type": "Feature", "properties": { "osm_id": 5001756326, "osm_type": "node", "name": "Checkpost", "tags": { "amenity": "police", "name": "Checkpost", "name:en": "Checkpost" } }, "geometry": { "type": "Point", "coordinates": [ 77.2015538, 32.3254509 ] } }
]
}
