{
"type": "FeatureCollection",
"name": "kullu_Schools",
"crs": { "type": "name", "properties": { "name": "urn:ogc:def:crs:OGC:1.3:CRS84" } },
"features": [
{ "type": "Feature", "properties": { "osm_id": 6712667209, "osm_type": "node", "name": "Govt. Middle School Soidhar", "tags": { "addr:postcode": "172025", "addr:street": "Panchayat. Dalash", "amenity": "school", "name": "Govt. Middle School Soidhar" } }, "geometry": { "type": "Point", "coordinates": [ 77.4565331, 31.3637143 ] } },
{ "type": "Feature", "properties": { "osm_id": 6712667235, "osm_type": "node", "name": "Govt. Middle School", "tags": { "addr:postcode": "172033", "addr:street": "Khani, Panch. Palehi", "amenity": "school", "name": "Govt. Middle School" } }, "geometry": { "type": "Point", "coordinates": [ 77.4763772, 31.3727626 ] } },
{ "type": "Feature", "properties": { "osm_id": 6712667236, "osm_type": "node", "name": "Govt. Primary School", "tags": { "addr:postcode": "172033", "addr:street": "Khani, Panch. Palehi", "amenity": "school", "name": "Govt. Primary School" } }, "geometry": { "type": "Point", "coordinates": [ 77.4768064, 31.3730786 ] } },
{ "type": "Feature", "properties": { "osm_id": 6712667210, "osm_type": "node", "name": "Govt. Primary School", "tags": { "addr:postcode": "172025", "addr:street": "Sarli Panchayat, Dalash", "amenity": "school", "name": "Govt. Primary School" } }, "geometry": { "type": "Point", "coordinates": [ 77.4484032, 31.3756766 ] } },
{ "type": "Feature", "properties": { "osm_id": 6712667234, "osm_type": "node", "name": "Govt. Primary School", "tags": { "addr:postcode": "172033", "addr:street": "Ghorla, Panchayat. Palehi", "amenity": "school", "name": "Govt. Primary School" } }, "geometry": { "type": "Point", "coordinates": [ 77.4735314, 31.3766593 ] } },
{ "type": "Feature", "properties": { "osm_id": 6712667228, "osm_type": "node", "name": "Saraswati Vidya Mandir", "tags": { "addr:postcode": "172025", "addr:street": "Dalash", "amenity": "school", "name": "Saraswati Vidya Mandir" } }, "geometry": { "type": "Point", "coordinates": [ 77.4330897, 31.382759 ] } },
{ "type": "Feature", "properties": { "osm_id": 6712667227, "osm_type": "node", "name": "Shivalik Public School", "tags": { "addr:postcode": "172025", "addr:street": "Dalash", "amenity": "school", "name": "Shivalik Public School" } }, "geometry": { "type": "Point", "coordinates": [ 77.4335215, 31.3857275 ] } },
{ "type": "Feature", "properties": { "osm_id": 6712667226, "osm_type": "node", "name": "Govt. Sr. Sec. School", "tags": { "addr:postcode": "172025", "addr:street": "Dalash", "amenity": "school", "name": "Govt. Sr. Sec. School" } }, "geometry": { "type": "Point", "coordinates": [ 77.4344147, 31.3877754 ] } },
{ "type": "Feature", "properties": { "osm_id": 6712667232, "osm_type": "node", "name": "Govt. Middle School", "tags": { "addr:postcode": "172025", "addr:street": "Shagogi, Panch. Biungal", "amenity": "school", "name": "Govt. Middle School" } }, "geometry": { "type": "Point", "coordinates": [ 77.4484641, 31.3879888 ] } },
{ "type": "Feature", "properties": { "osm_id": 6712667233, "osm_type": "node", "name": "Govt. Primary School", "tags": { "addr:postcode": "172025", "addr:street": "Shagogi, Panch. Biungal", "amenity": "school", "name": "Govt. Primary School" } }, "geometry": { "type": "Point", "coordinates": [ 77.4488637, 31.3880667 ] } },
{ "type": "Feature", "properties": { "osm_id": 6712667225, "osm_type": "node", "name": "Govt. Primary School", "tags": { "addr:postcode": "172025", "addr:street": "Dalash", "amenity": "school", "name": "Govt. Primary School" } }, "geometry": { "type": "Point", "coordinates": [ 77.4339266, 31.388133 ] } },
{ "type": "Feature", "properties": { "osm_id": 6712667224, "osm_type": "node", "name": "Aryavart Public School", "tags": { "addr:postcode": "172025", "addr:street": "Dalash", "amenity": "school", "name": "Aryavart Public School" } }, "geometry": { "type": "Point", "coordinates": [ 77.4346776, 31.3889573 ] } },
{ "type": "Feature", "properties": { "osm_id": 6712667214, "osm_type": "node", "name": "Govt. Sr. Sec. School", "tags": { "addr:postcode": "172025", "addr:street": "Namhong", "amenity": "school", "name": "Govt. Sr. Sec. School" } }, "geometry": { "type": "Point", "coordinates": [ 77.4427025, 31.4151947 ] } },
{ "type": "Feature", "properties": { "osm_id": 6712667218, "osm_type": "node", "name": "Govt. Primary School", "tags": { "addr:postcode": "172026", "addr:street": "Thogi, Panchayat, Bakhnow", "amenity": "school", "name": "Govt. Primary School" } }, "geometry": { "type": "Point", "coordinates": [ 77.4253004, 31.4328565 ] } },
{ "type": "Feature", "properties": { "osm_id": 6712667219, "osm_type": "node", "name": "Himalayan Model Sr. Sec. School", "tags": { "addr:postcode": "172026", "addr:street": "Anni, Panch. Bakhnow", "amenity": "school", "name": "Himalayan Model Sr. Sec. School" } }, "geometry": { "type": "Point", "coordinates": [ 77.420957, 31.437008 ] } },
{ "type": "Feature", "properties": { "osm_id": 6712667215, "osm_type": "node", "name": "Himalyan Model School", "tags": { "addr:postcode": "172026", "addr:street": "Kohila", "amenity": "school", "name": "Himalyan Model School" } }, "geometry": { "type": "Point", "coordinates": [ 77.4455002, 31.4815757 ] } },
{ "type": "Feature", "properties": { "osm_id": 6712667217, "osm_type": "node", "name": "Govt. Primary School", "tags": { "addr:postcode": "172026", "addr:street": "Jaterh, Panchayat. Kohila", "amenity": "school", "name": "Govt. Primary School" } }, "geometry": { "type": "Point", "coordinates": [ 77.4478552, 31.4827766 ] } },
{ "type": "Feature", "properties": { "osm_id": 6712667223, "osm_type": "node", "name": "Govt. Primary School", "tags": { "addr:postcode": "172026", "addr:street": "Anni", "amenity": "school", "name": "Govt. Primary School" } }, "geometry": { "type": "Point", "coordinates": [ 77.4196123, 31.4309657 ] } },
{ "type": "Feature", "properties": { "osm_id": 6712667222, "osm_type": "node", "name": "Govt. Sr. Sec. School", "tags": { "addr:postcode": "172026", "addr:street": "Anni", "amenity": "school", "name": "Govt. Sr. Sec. School" } }, "geometry": { "type": "Point", "coordinates": [ 77.4194702, 31.4311419 ] } },
{ "type": "Feature", "properties": { "osm_id": 6710858057, "osm_type": "node", "name": "SVM High School", "tags": { "addr:postcode": "172026", "addr:street": "Anni", "amenity": "school", "name": "SVM High School" } }, "geometry": { "type": "Point", "coordinates": [ 77.4193292, 31.4315852 ] } },
{ "type": "Feature", "properties": { "osm_id": 6712667221, "osm_type": "node", "name": "Govt. Sr. Sec. Girls School", "tags": { "addr:postcode": "172026", "addr:street": "Anni", "amenity": "school", "name": "Govt. Sr. Sec. Girls School" } }, "geometry": { "type": "Point", "coordinates": [ 77.4181505, 31.43238 ] } },
{ "type": "Feature", "properties": { "osm_id": 6710858056, "osm_type": "node", "name": "SDA Mission Middle School", "tags": { "addr:city": "Panch. Bakhnow", "addr:postcode": "172026", "addr:street": "Anni", "amenity": "school", "name": "SDA Mission Middle School" } }, "geometry": { "type": "Point", "coordinates": [ 77.4197143, 31.4326757 ] } },
{ "type": "Feature", "properties": { "osm_id": 6712667220, "osm_type": "node", "name": "Lawrence Public School", "tags": { "addr:postcode": "172026", "addr:street": "Anni", "amenity": "school", "name": "Lawrence Public School" } }, "geometry": { "type": "Point", "coordinates": [ 77.4208524, 31.4365297 ] } },
{ "type": "Feature", "properties": { "osm_id": 6712667237, "osm_type": "node", "name": "Govt. Primary School", "tags": { "addr:postcode": "172026", "addr:street": "Chowaidhar, Panchayat. Kungash", "amenity": "school", "name": "Govt. Primary School" } }, "geometry": { "type": "Point", "coordinates": [ 77.3751882, 31.4425771 ] } },
{ "type": "Feature", "properties": { "osm_id": 6712667211, "osm_type": "node", "name": "Govt. Primary School", "tags": { "addr:postcode": "172026", "addr:street": "Deori, Panch. Karshaigad", "amenity": "school", "name": "Govt. Primary School" } }, "geometry": { "type": "Point", "coordinates": [ 77.3253023, 31.4926236 ] } },
{ "type": "Feature", "properties": { "osm_id": 6712667212, "osm_type": "node", "name": "Govt. Middle School", "tags": { "addr:postcode": "172026", "addr:street": "Baadu, Panchayat. Karshaigad", "amenity": "school", "name": "Govt. Middle School" } }, "geometry": { "type": "Point", "coordinates": [ 77.3277728, 31.5089499 ] } },
{ "type": "Feature", "properties": { "osm_id": 6710858055, "osm_type": "node", "name": "Govt. Primary School", "tags": { "addr:city": "Panch. Fanauti", "addr:postcode": "172026", "addr:street": "Juhrd", "amenity": "school", "name": "Govt. Primary School" } }, "geometry": { "type": "Point", "coordinates": [ 77.3339567, 31.5200207 ] } },
{ "type": "Feature", "properties": { "osm_id": 6712667216, "osm_type": "node", "name": "Govt. High School", "tags": { "addr:postcode": "172026", "addr:street": "Jaterh, Panchayat Kohila", "amenity": "school", "name": "Govt. High School" } }, "geometry": { "type": "Point", "coordinates": [ 77.4476728, 31.4829459 ] } },
{ "type": "Feature", "properties": { "osm_id": 6712667213, "osm_type": "node", "name": "Govt. Primary School,", "tags": { "addr:postcode": "172026", "addr:street": "Jaon Aaran, Panchayat, Kohila", "amenity": "school", "name": "Govt. Primary School," } }, "geometry": { "type": "Point", "coordinates": [ 77.4662688, 31.5048759 ] } },
{ "type": "Feature", "properties": { "osm_id": 6712667230, "osm_type": "node", "name": "Govt. Primary School, Ladhagi", "tags": { "addr:postcode": "172032", "addr:street": "Panch. Buchher", "amenity": "school", "name": "Govt. Primary School, Ladhagi" } }, "geometry": { "type": "Point", "coordinates": [ 77.4778416, 31.5093382 ] } },
{ "type": "Feature", "properties": { "osm_id": 6712667229, "osm_type": "node", "name": "Deepak Public School", "tags": { "addr:postcode": "172032", "addr:street": "Ladhagi", "amenity": "school", "name": "Deepak Public School" } }, "geometry": { "type": "Point", "coordinates": [ 77.478779, 31.5095421 ] } },
{ "type": "Feature", "properties": { "osm_id": 6712667231, "osm_type": "node", "name": "Govt. Sr. Sec. School", "tags": { "addr:postcode": "172032", "addr:street": "Ladhagi, Panch. Buchher", "amenity": "school", "name": "Govt. Sr. Sec. School" } }, "geometry": { "type": "Point", "coordinates": [ 77.4779435, 31.5095485 ] } },
{ "type": "Feature", "properties": { "osm_id": 3154313634, "osm_type": "node", "name": null, "tags": { "amenity": "school" } }, "geometry": { "type": "Point", "coordinates": [ 77.4500826, 32.0129243 ] } },
{ "type": "Feature", "properties": { "osm_id": 6534541787, "osm_type": "node", "name": "Jibhi school", "tags": { "amenity": "school", "name": "Jibhi school" } }, "geometry": { "type": "Point", "coordinates": [ 77.3520601, 31.5889454 ] } },
{ "type": "Feature", "properties": { "osm_id": 10934159863, "osm_type": "node", "name": "Government Model School Dhogra", "tags": { "amenity": "school", "name": "Government Model School Dhogra" } }, "geometry": { "type": "Point", "coordinates": [ 77.3980461, 31.6394531 ] } },
{ "type": "Feature", "properties": { "osm_id": 12075049988, "osm_type": "node", "name": null, "tags": { "amenity": "school" } }, "geometry": { "type": "Point", "coordinates": [ 77.3474717, 31.6953476 ] } },
{ "type": "Feature", "properties": { "osm_id": 12003423170, "osm_type": "node", "name": "GPS Konsha", "tags": { "addr:city": "Kullu", "addr:district": "kullu", "addr:housenumber": "konsha", "addr:postcode": "banogi", "addr:street": "Devgarh to Manyashi", "amenity": "school", "name": "GPS Konsha" } }, "geometry": { "type": "Point", "coordinates": [ 77.3187498, 31.7541269 ] } },
{ "type": "Feature", "properties": { "osm_id": 9734009625, "osm_type": "node", "name": "government school", "tags": { "amenity": "school", "name": "government school" } }, "geometry": { "type": "Point", "coordinates": [ 77.3429547, 31.7620198 ] } },
{ "type": "Feature", "properties": { "osm_id": 9734073913, "osm_type": "node", "name": "Govt. Secondary School Raila", "tags": { "amenity": "school", "name": "Govt. Secondary School Raila" } }, "geometry": { "type": "Point", "coordinates": [ 77.3147982, 31.7860819 ] } },
{ "type": "Feature", "properties": { "osm_id": 9734008621, "osm_type": "node", "name": "Govt. Senior Secondary School Shanshar", "tags": { "addr:district": "Sainj", "addr:hamlet": "Shanshar", "amenity": "school", "name": "Govt. Senior Secondary School Shanshar" } }, "geometry": { "type": "Point", "coordinates": [ 77.3825321, 31.7861024 ] } },
{ "type": "Feature", "properties": { "osm_id": 10052817319, "osm_type": "node", "name": "Government Primary School", "tags": { "addr:village": "Chhalal", "amenity": "school", "name": "Government Primary School", "operator:type": "government" } }, "geometry": { "type": "Point", "coordinates": [ 77.3023575, 32.0124674 ] } },
{ "type": "Feature", "properties": { "osm_id": 699828640, "osm_type": "node", "name": "Goverment Senior Secondary School, Shalang", "tags": { "amenity": "school", "name": "Goverment Senior Secondary School, Shalang" } }, "geometry": { "type": "Point", "coordinates": [ 77.0289962, 31.9979334 ] } },
{ "type": "Feature", "properties": { "osm_id": 699813058, "osm_type": "node", "name": "Government Primary School, Gramang", "tags": { "amenity": "school", "name": "Government Primary School, Gramang" } }, "geometry": { "type": "Point", "coordinates": [ 77.0117815, 32.0176787 ] } },
{ "type": "Feature", "properties": { "osm_id": 699810803, "osm_type": "node", "name": "Government Primary School, Chalah", "tags": { "amenity": "school", "name": "Government Primary School, Chalah" } }, "geometry": { "type": "Point", "coordinates": [ 77.0043103, 32.028636 ] } },
{ "type": "Feature", "properties": { "osm_id": 699804105, "osm_type": "node", "name": "Government Primary School, Kadingcha", "tags": { "amenity": "school", "name": "Government Primary School, Kadingcha" } }, "geometry": { "type": "Point", "coordinates": [ 76.9989254, 32.0356358 ] } },
{ "type": "Feature", "properties": { "osm_id": 13834316613, "osm_type": "node", "name": "Shajuni Primary School", "tags": { "amenity": "school", "education": "school", "name": "Shajuni Primary School" } }, "geometry": { "type": "Point", "coordinates": [ 77.1055112, 32.0450655 ] } },
{ "type": "Feature", "properties": { "osm_id": 10937119198, "osm_type": "node", "name": "Secondary school Himri", "tags": { "amenity": "school", "name": "Secondary school Himri" } }, "geometry": { "type": "Point", "coordinates": [ 77.0705499, 32.0604001 ] } },
{ "type": "Feature", "properties": { "osm_id": 10721536506, "osm_type": "node", "name": "Govt School Marogi", "tags": { "amenity": "school", "name": "Govt School Marogi" } }, "geometry": { "type": "Point", "coordinates": [ 77.1224042, 32.0628245 ] } },
{ "type": "Feature", "properties": { "osm_id": 12800781079, "osm_type": "node", "name": null, "tags": { "amenity": "school" } }, "geometry": { "type": "Point", "coordinates": [ 77.0916651, 32.0661395 ] } },
{ "type": "Feature", "properties": { "osm_id": 10937064573, "osm_type": "node", "name": "Primary School Parbhi", "tags": { "amenity": "school", "name": "Primary School Parbhi" } }, "geometry": { "type": "Point", "coordinates": [ 77.0792606, 32.0675339 ] } },
{ "type": "Feature", "properties": { "osm_id": 10937042859, "osm_type": "node", "name": "Senior Secondary School Shirad", "tags": { "amenity": "school", "name": "Senior Secondary School Shirad" } }, "geometry": { "type": "Point", "coordinates": [ 77.1221341, 32.069166 ] } },
{ "type": "Feature", "properties": { "osm_id": 11196000139, "osm_type": "node", "name": null, "tags": { "amenity": "school" } }, "geometry": { "type": "Point", "coordinates": [ 77.1124212, 32.0723852 ] } },
{ "type": "Feature", "properties": { "osm_id": 13802334511, "osm_type": "node", "name": null, "tags": { "amenity": "school", "education": "school" } }, "geometry": { "type": "Point", "coordinates": [ 77.1660858, 32.0750327 ] } },
{ "type": "Feature", "properties": { "osm_id": 13833997871, "osm_type": "node", "name": "Bhatgran Primary School", "tags": { "amenity": "school", "education": "school", "name": "Bhatgran Primary School" } }, "geometry": { "type": "Point", "coordinates": [ 77.1198672, 32.0788682 ] } },
{ "type": "Feature", "properties": { "osm_id": 11304378336, "osm_type": "node", "name": "Phalain Primary School", "tags": { "amenity": "school", "name": "Phalain Primary School" } }, "geometry": { "type": "Point", "coordinates": [ 77.1134717, 32.0837522 ] } },
{ "type": "Feature", "properties": { "osm_id": 10948222650, "osm_type": "node", "name": null, "tags": { "amenity": "school" } }, "geometry": { "type": "Point", "coordinates": [ 77.1193314, 32.0874765 ] } },
{ "type": "Feature", "properties": { "osm_id": 11002563447, "osm_type": "node", "name": null, "tags": { "amenity": "school" } }, "geometry": { "type": "Point", "coordinates": [ 77.1055977, 32.0879137 ] } },
{ "type": "Feature", "properties": { "osm_id": 10937137222, "osm_type": "node", "name": "School Runga", "tags": { "amenity": "school", "name": "School Runga" } }, "geometry": { "type": "Point", "coordinates": [ 77.0782174, 32.0884463 ] } },
{ "type": "Feature", "properties": { "osm_id": 4415347563, "osm_type": "node", "name": null, "tags": { "amenity": "school" } }, "geometry": { "type": "Point", "coordinates": [ 77.1390388, 32.1030258 ] } },
{ "type": "Feature", "properties": { "osm_id": 12762136496, "osm_type": "node", "name": "Primary School Sangchar", "tags": { "amenity": "school", "name": "Primary School Sangchar" } }, "geometry": { "type": "Point", "coordinates": [ 77.1536406, 32.16694 ] } },
{ "type": "Feature", "properties": { "osm_id": 443849535, "osm_type": "way", "name": null, "tags": { "amenity": "school", "note": "I observed that there is a school here from the ground, but the outline of the area is based on Bing imagery" } }, "geometry": { "type": "Polygon", "coordinates": [ [ [ 77.1779948, 32.1687254 ], [ 77.1786157, 32.1682565 ], [ 77.1782295, 32.1678524 ], [ 77.1780189, 32.1679932 ], [ 77.1777266, 32.1676378 ], [ 77.1774543, 32.1677865 ], [ 77.177685, 32.1679954 ], [ 77.1774168, 32.1682611 ], [ 77.177917, 32.1686834 ], [ 77.1779948, 32.1687254 ] ] ] } },
{ "type": "Feature", "properties": { "osm_id": 11176431507, "osm_type": "node", "name": "Kanyal school", "tags": { "amenity": "school", "name": "Kanyal school" } }, "geometry": { "type": "Point", "coordinates": [ 77.1773768, 32.242387 ] } },
{ "type": "Feature", "properties": { "osm_id": 2519017831, "osm_type": "node", "name": "Day Star School", "tags": { "amenity": "school", "name": "Day Star School" } }, "geometry": { "type": "Point", "coordinates": [ 77.1890552, 32.2449661 ] } },
{ "type": "Feature", "properties": { "osm_id": 1418902118, "osm_type": "node", "name": "Manali Model School", "tags": { "amenity": "school", "designation": "School", "int_name": "Manali Model School", "name": "Manali Model School" } }, "geometry": { "type": "Point", "coordinates": [ 77.1847609, 32.2464511 ] } },
{ "type": "Feature", "properties": { "osm_id": 894440250, "osm_type": "node", "name": "Delhi Public School", "tags": { "amenity": "school", "name": "Delhi Public School" } }, "geometry": { "type": "Point", "coordinates": [ 77.1767911, 32.2467472 ] } },
{ "type": "Feature", "properties": { "osm_id": 305882052, "osm_type": "way", "name": "Old Manali Public School", "tags": { "amenity": "school", "check_date": "2025-06-18", "name": "Old Manali Public School" } }, "geometry": { "type": "Polygon", "coordinates": [ [ [ 77.1778916, 32.252792 ], [ 77.1778613, 32.2524317 ], [ 77.1774691, 32.2524076 ], [ 77.1773247, 32.2524242 ], [ 77.1773247, 32.2528794 ], [ 77.1778916, 32.252792 ] ] ] } },
{ "type": "Feature", "properties": { "osm_id": 864915436, "osm_type": "node", "name": "Key elementary school Vashisht", "tags": { "amenity": "school", "name": "Key elementary school Vashisht" } }, "geometry": { "type": "Point", "coordinates": [ 77.1873447, 32.2675284 ] } },
{ "type": "Feature", "properties": { "osm_id": 9951286758, "osm_type": "node", "name": "Vashist school", "tags": { "amenity": "school", "check_date": "2025-06-17", "name": "Vashist school" } }, "geometry": { "type": "Point", "coordinates": [ 77.1873235, 32.2676681 ] } }
]
}
