{
"type": "FeatureCollection",
"name": "mandi_Schools",
"crs": { "type": "name", "properties": { "name": "urn:ogc:def:crs:OGC:1.3:CRS84" } },
"features": [
{ "type": "Feature", "properties": { "osm_id": 627244361, "osm_type": "node", "name": "Saraswati Vidya Mandir, Tattapani", "tags": { "amenity": "school", "name": "Saraswati Vidya Mandir, Tattapani" } }, "geometry": { "type": "Point", "coordinates": [ 77.0932378, 31.248249 ] } },
{ "type": "Feature", "properties": { "osm_id": 529445724, "osm_type": "way", "name": null, "tags": { "amenity": "school" } }, "geometry": { "type": "Polygon", "coordinates": [ [ [ 77.0744839, 31.5169394 ], [ 77.0744972, 31.5166343 ], [ 77.0744994, 31.5165722 ], [ 77.0743249, 31.5164498 ], [ 77.0743359, 31.5163236 ], [ 77.074146, 31.5162822 ], [ 77.0741217, 31.5163424 ], [ 77.0740289, 31.5163443 ], [ 77.0738654, 31.5165119 ], [ 77.0739247, 31.5165703 ], [ 77.0738648, 31.5166564 ], [ 77.0739808, 31.5167553 ], [ 77.0740575, 31.516835 ], [ 77.0742564, 31.5169281 ], [ 77.0744839, 31.5169394 ] ] ] } },
{ "type": "Feature", "properties": { "osm_id": 9838844747, "osm_type": "node", "name": "Government Senior Secondary School", "tags": { "amenity": "school", "name": "Government Senior Secondary School" } }, "geometry": { "type": "Point", "coordinates": [ 77.2063586, 31.6804691 ] } },
{ "type": "Feature", "properties": { "osm_id": 626971391, "osm_type": "node", "name": "Government Primary School, Hadaboi", "tags": { "amenity": "school", "name": "Government Primary School, Hadaboi" } }, "geometry": { "type": "Point", "coordinates": [ 77.005252, 31.3064367 ] } },
{ "type": "Feature", "properties": { "osm_id": 45897414, "osm_type": "way", "name": "Model School (BSL), Sundernagar", "tags": { "amenity": "school", "name": "Model School (BSL), Sundernagar" } }, "geometry": { "type": "Polygon", "coordinates": [ [ [ 76.9089733, 31.5278033 ], [ 76.9098763, 31.5271884 ], [ 76.9094371, 31.5268956 ], [ 76.9086372, 31.5275314 ], [ 76.9089733, 31.5278033 ] ] ] } },
{ "type": "Feature", "properties": { "osm_id": 45819567, "osm_type": "way", "name": "BSL Senior Secondary School", "tags": { "amenity": "school", "name": "BSL Senior Secondary School" } }, "geometry": { "type": "Polygon", "coordinates": [ [ [ 76.9084536, 31.5336348 ], [ 76.9084998, 31.5335233 ], [ 76.9085383, 31.5334008 ], [ 76.9085717, 31.533263 ], [ 76.9086127, 31.5331361 ], [ 76.9086281, 31.5330333 ], [ 76.9086256, 31.5329042 ], [ 76.9086102, 31.5327424 ], [ 76.9083561, 31.5327227 ], [ 76.9083254, 31.53272 ], [ 76.9081559, 31.5327052 ], [ 76.9078942, 31.532703 ], [ 76.9075272, 31.5327074 ], [ 76.9071243, 31.5327227 ], [ 76.9067855, 31.5327664 ], [ 76.9066264, 31.5327971 ], [ 76.9063878, 31.5328714 ], [ 76.9065315, 31.5330705 ], [ 76.9066829, 31.5331995 ], [ 76.9069138, 31.5333789 ], [ 76.9071653, 31.5334883 ], [ 76.9074476, 31.5336129 ], [ 76.9077479, 31.5337026 ], [ 76.9080969, 31.533766 ], [ 76.9083818, 31.533812 ], [ 76.9084536, 31.5336348 ] ] ] } },
{ "type": "Feature", "properties": { "osm_id": 583530177, "osm_type": "node", "name": "Anand Marg Public School", "tags": { "amenity": "school", "name": "Anand Marg Public School" } }, "geometry": { "type": "Point", "coordinates": [ 76.9024047, 31.5340116 ] } },
{ "type": "Feature", "properties": { "osm_id": 5768020488, "osm_type": "node", "name": "Trinity Public School", "tags": { "addr:place": "Chail Chowk", "amenity": "school", "name": "Trinity Public School" } }, "geometry": { "type": "Point", "coordinates": [ 76.9997812, 31.5675766 ] } },
{ "type": "Feature", "properties": { "osm_id": 5768020503, "osm_type": "node", "name": "Swami Vivekanand School", "tags": { "amenity": "school", "name": "Swami Vivekanand School" } }, "geometry": { "type": "Point", "coordinates": [ 76.9597773, 31.5809096 ] } },
{ "type": "Feature", "properties": { "osm_id": 1235730357, "osm_type": "way", "name": "St. Francis Xavier's Convent School", "tags": { "amenity": "school", "name": "St. Francis Xavier's Convent School" } }, "geometry": { "type": "Polygon", "coordinates": [ [ [ 76.9440237, 31.6363468 ], [ 76.9443406, 31.6361077 ], [ 76.9441597, 31.6359339 ], [ 76.9438428, 31.636173 ], [ 76.9440237, 31.6363468 ] ] ] } },
{ "type": "Feature", "properties": { "osm_id": 5577786689, "osm_type": "node", "name": "Sai Public School", "tags": { "amenity": "school", "name": "Sai Public School" } }, "geometry": { "type": "Point", "coordinates": [ 76.9444397, 31.702502 ] } },
{ "type": "Feature", "properties": { "osm_id": 46020961, "osm_type": "way", "name": "St. Mary's School", "tags": { "amenity": "school", "name": "St. Mary's School" } }, "geometry": { "type": "Polygon", "coordinates": [ [ [ 76.8858023, 31.5106102 ], [ 76.8858795, 31.5105988 ], [ 76.8859515, 31.5106011 ], [ 76.8860207, 31.510617 ], [ 76.886106, 31.5106147 ], [ 76.8861939, 31.5106125 ], [ 76.8862845, 31.5105852 ], [ 76.8863751, 31.5105284 ], [ 76.886487, 31.5104217 ], [ 76.8865509, 31.5103535 ], [ 76.8865909, 31.5102604 ], [ 76.8866282, 31.5101514 ], [ 76.8866415, 31.5100492 ], [ 76.8866522, 31.509931 ], [ 76.8866708, 31.5097561 ], [ 76.8866842, 31.509638 ], [ 76.8854319, 31.5096358 ], [ 76.8853786, 31.509872 ], [ 76.8853653, 31.5100105 ], [ 76.8853866, 31.5101491 ], [ 76.8854692, 31.5104058 ], [ 76.8855438, 31.5105034 ], [ 76.8857037, 31.5106488 ], [ 76.8858023, 31.5106102 ] ] ] } },
{ "type": "Feature", "properties": { "osm_id": 583541991, "osm_type": "node", "name": "Government Senior Secondary School, Sundernagar", "tags": { "amenity": "school", "name": "Government Senior Secondary School, Sundernagar" } }, "geometry": { "type": "Point", "coordinates": [ 76.885039, 31.5210422 ] } },
{ "type": "Feature", "properties": { "osm_id": 45897682, "osm_type": "way", "name": "DAV Public School, Sundernagar", "tags": { "amenity": "school", "name": "DAV Public School, Sundernagar" } }, "geometry": { "type": "Polygon", "coordinates": [ [ [ 76.8846195, 31.5264571 ], [ 76.8846882, 31.5269022 ], [ 76.8850592, 31.5268972 ], [ 76.8850788, 31.5268085 ], [ 76.8850847, 31.5267482 ], [ 76.8850906, 31.526688 ], [ 76.8850867, 31.5266445 ], [ 76.8850827, 31.526596 ], [ 76.885067, 31.5265407 ], [ 76.8850435, 31.5264705 ], [ 76.8849905, 31.5264052 ], [ 76.8846195, 31.5264571 ] ] ] } },
{ "type": "Feature", "properties": { "osm_id": 45897686, "osm_type": "way", "name": "Government Senior Secondary Girls School", "tags": { "amenity": "school", "name": "Government Senior Secondary Girls School" } }, "geometry": { "type": "Polygon", "coordinates": [ [ [ 76.8871712, 31.5280325 ], [ 76.8872669, 31.5279175 ], [ 76.8873528, 31.527838 ], [ 76.8874436, 31.5277522 ], [ 76.8875392, 31.5276728 ], [ 76.8875024, 31.5275347 ], [ 76.8874362, 31.5274511 ], [ 76.8873503, 31.5274113 ], [ 76.8871933, 31.5274239 ], [ 76.8870117, 31.5274636 ], [ 76.886808, 31.5275724 ], [ 76.886624, 31.527656 ], [ 76.8864571, 31.5277418 ], [ 76.8863663, 31.5278296 ], [ 76.8870485, 31.5282208 ], [ 76.8871712, 31.5280325 ] ] ] } },
{ "type": "Feature", "properties": { "osm_id": 583540522, "osm_type": "node", "name": "Government Middle School, Sundernagar", "tags": { "amenity": "school", "name": "Government Middle School, Sundernagar" } }, "geometry": { "type": "Point", "coordinates": [ 76.8894558, 31.5314167 ] } },
{ "type": "Feature", "properties": { "osm_id": 561089221, "osm_type": "node", "name": "Government Senior Secondary School, Sidhyani", "tags": { "amenity": "school", "name": "Government Senior Secondary School, Sidhyani" } }, "geometry": { "type": "Point", "coordinates": [ 76.8459333, 31.5974483 ] } },
{ "type": "Feature", "properties": { "osm_id": 561090947, "osm_type": "node", "name": "Government Middle School, Kalkhar", "tags": { "amenity": "school", "name": "Government Middle School, Kalkhar" } }, "geometry": { "type": "Point", "coordinates": [ 76.8279239, 31.6013502 ] } },
{ "type": "Feature", "properties": { "osm_id": 103520669, "osm_type": "way", "name": null, "tags": { "amenity": "school" } }, "geometry": { "type": "Polygon", "coordinates": [ [ [ 76.8351953, 31.6315872 ], [ 76.835245, 31.6311224 ], [ 76.8347742, 31.6309146 ], [ 76.8345181, 31.6310814 ], [ 76.8341331, 31.6314261 ], [ 76.8346616, 31.6317984 ], [ 76.8351953, 31.6315872 ] ] ] } },
{ "type": "Feature", "properties": { "osm_id": 5578032574, "osm_type": "node", "name": "Bright Morning Coaching Institute", "tags": { "amenity": "school", "name": "Bright Morning Coaching Institute" } }, "geometry": { "type": "Point", "coordinates": [ 76.9397249, 31.7047243 ] } },
{ "type": "Feature", "properties": { "osm_id": 5581074105, "osm_type": "node", "name": "Oakwood Primary School", "tags": { "amenity": "school", "name": "Oakwood Primary School" } }, "geometry": { "type": "Point", "coordinates": [ 76.9294641, 31.7076066 ] } },
{ "type": "Feature", "properties": { "osm_id": 169828799, "osm_type": "way", "name": "Vijay Government Senior Secondary School", "tags": { "amenity": "school", "name": "Vijay Government Senior Secondary School" } }, "geometry": { "type": "Polygon", "coordinates": [ [ [ 76.9294559, 31.7080465 ], [ 76.9297084, 31.7081704 ], [ 76.9300012, 31.7083528 ], [ 76.9303028, 31.7085541 ], [ 76.9306665, 31.7081014 ], [ 76.9307546, 31.7080041 ], [ 76.9305498, 31.7078353 ], [ 76.9299995, 31.7076056 ], [ 76.9296983, 31.7076626 ], [ 76.9294559, 31.7080465 ] ] ] } },
{ "type": "Feature", "properties": { "osm_id": 5580075923, "osm_type": "node", "name": "Shoolini University Admissions Counseling", "tags": { "addr:city": "Mandi, HP", "addr:street": "Hospital Road", "amenity": "school", "name": "Shoolini University Admissions Counseling" } }, "geometry": { "type": "Point", "coordinates": [ 76.9286848, 31.7083097 ] } },
{ "type": "Feature", "properties": { "osm_id": 5768342432, "osm_type": "node", "name": null, "tags": { "amenity": "school" } }, "geometry": { "type": "Point", "coordinates": [ 76.9398514, 31.7095494 ] } },
{ "type": "Feature", "properties": { "osm_id": 5768342375, "osm_type": "node", "name": "Dayanand Anglo Vedic Senior Secondary School", "tags": { "amenity": "school", "branch": "Mandi", "name": "Dayanand Anglo Vedic Senior Secondary School", "short_name": "a" } }, "geometry": { "type": "Point", "coordinates": [ 76.9323481, 31.7121099 ] } },
{ "type": "Feature", "properties": { "osm_id": 2199934027, "osm_type": "node", "name": "School in Kamand", "tags": { "amenity": "school", "name": "School in Kamand" } }, "geometry": { "type": "Point", "coordinates": [ 76.9872592, 31.776691 ] } },
{ "type": "Feature", "properties": { "osm_id": 7113550514, "osm_type": "node", "name": "Mind Tree School", "tags": { "amenity": "school", "name": "Mind Tree School" } }, "geometry": { "type": "Point", "coordinates": [ 77.0022539, 31.7837586 ] } },
{ "type": "Feature", "properties": { "osm_id": 5059844026, "osm_type": "node", "name": null, "tags": { "amenity": "school" } }, "geometry": { "type": "Point", "coordinates": [ 76.9371802, 31.8740541 ] } },
{ "type": "Feature", "properties": { "osm_id": 550107678, "osm_type": "node", "name": "Government Middle School, Dyori", "tags": { "amenity": "school", "name": "Government Middle School, Dyori" } }, "geometry": { "type": "Point", "coordinates": [ 77.0849922, 31.7192978 ] } },
{ "type": "Feature", "properties": { "osm_id": 10955962701, "osm_type": "node", "name": null, "tags": { "amenity": "school" } }, "geometry": { "type": "Point", "coordinates": [ 77.225215, 31.7238049 ] } },
{ "type": "Feature", "properties": { "osm_id": 5059830726, "osm_type": "node", "name": null, "tags": { "amenity": "school" } }, "geometry": { "type": "Point", "coordinates": [ 76.8995226, 31.9225974 ] } },
{ "type": "Feature", "properties": { "osm_id": 493675119, "osm_type": "way", "name": "TCV Chauntra", "tags": { "amenity": "school", "barrier": "wall", "name": "TCV Chauntra" } }, "geometry": { "type": "Polygon", "coordinates": [ [ [ 76.7433214, 32.0047006 ], [ 76.7433912, 32.0046687 ], [ 76.7437391, 32.0044948 ], [ 76.7437767, 32.0044578 ], [ 76.7437787, 32.0044299 ], [ 76.743812, 32.0044318 ], [ 76.7443648, 32.0044436 ], [ 76.7447323, 32.0042366 ], [ 76.7449709, 32.0040001 ], [ 76.7444614, 32.0034769 ], [ 76.744177, 32.0030561 ], [ 76.7439598, 32.0027149 ], [ 76.7433187, 32.0026308 ], [ 76.7419267, 32.0031266 ], [ 76.7417335, 32.0043731 ], [ 76.7422459, 32.0044413 ], [ 76.7428976, 32.0046028 ], [ 76.7433214, 32.0047006 ] ] ] } },
{ "type": "Feature", "properties": { "osm_id": 1525740433, "osm_type": "way", "name": "Anant Vidya Niketan", "tags": { "amenity": "school", "education": "school", "name": "Anant Vidya Niketan" } }, "geometry": { "type": "Polygon", "coordinates": [ [ [ 76.729073992157311, 32.032032818684222 ], [ 76.729203705070276, 32.03203031457393 ], [ 76.7291704, 32.0319649 ], [ 76.729073992157311, 32.032032818684222 ] ] ] } },
{ "type": "Feature", "properties": { "osm_id": 493568462, "osm_type": "way", "name": "TCV Suja", "tags": { "amenity": "school", "name": "TCV Suja", "website": "https://tcvsuja.org/" } }, "geometry": { "type": "Polygon", "coordinates": [ [ [ 76.7038152, 32.0412109 ], [ 76.703976, 32.0411961 ], [ 76.7040444, 32.040996 ], [ 76.7039466, 32.0408721 ], [ 76.7038257, 32.0407556 ], [ 76.70374, 32.0404628 ], [ 76.7039868, 32.0402264 ], [ 76.7040807, 32.0403151 ], [ 76.704306, 32.0402423 ], [ 76.704302, 32.0401695 ], [ 76.7044455, 32.0400433 ], [ 76.7045957, 32.0401298 ], [ 76.704711, 32.0399547 ], [ 76.7051549, 32.0395807 ], [ 76.7049041, 32.0394397 ], [ 76.7046922, 32.0393101 ], [ 76.7045769, 32.0393942 ], [ 76.7037615, 32.039517 ], [ 76.7036515, 32.039617 ], [ 76.7030024, 32.0393669 ], [ 76.7025344, 32.0393476 ], [ 76.7024338, 32.039467 ], [ 76.7021924, 32.0393715 ], [ 76.7020315, 32.0394033 ], [ 76.7021763, 32.0397444 ], [ 76.7027074, 32.0401536 ], [ 76.7029756, 32.0403855 ], [ 76.7030561, 32.0406902 ], [ 76.7028737, 32.0407448 ], [ 76.7026001, 32.0405538 ], [ 76.7023479, 32.040231 ], [ 76.7020905, 32.0399172 ], [ 76.7019403, 32.0397626 ], [ 76.7016721, 32.0398535 ], [ 76.7015701, 32.0400672 ], [ 76.7011034, 32.0400036 ], [ 76.7011517, 32.0398717 ], [ 76.7000681, 32.0397944 ], [ 76.699537, 32.0399581 ], [ 76.6993976, 32.0401354 ], [ 76.6998911, 32.0404628 ], [ 76.700213, 32.0407993 ], [ 76.7008271, 32.0410176 ], [ 76.700854, 32.0417452 ], [ 76.7013341, 32.0417588 ], [ 76.7015084, 32.0412109 ], [ 76.7024177, 32.0413268 ], [ 76.7027074, 32.040913 ], [ 76.702863, 32.040863 ], [ 76.7032881, 32.0410529 ], [ 76.703673, 32.0411881 ], [ 76.7037266, 32.0412563 ], [ 76.7037883, 32.0412541 ], [ 76.7038152, 32.0412109 ] ] ] } }
]
}
