{
"type": "FeatureCollection",
"name": "kullu_Villages",
"crs": { "type": "name", "properties": { "name": "urn:ogc:def:crs:OGC:1.3:CRS84" } },
"features": [
{ "type": "Feature", "properties": { "osm_id": 627276714, "osm_type": "node", "name": "Bithal", "tags": { "name": "Bithal", "place": "village" } }, "geometry": { "type": "Point", "coordinates": [ 77.4824669, 31.3531729 ] } },
{ "type": "Feature", "properties": { "osm_id": 8007009685, "osm_type": "node", "name": "Moin", "tags": { "name": "Moin", "place": "village" } }, "geometry": { "type": "Point", "coordinates": [ 77.5080514, 31.355167 ] } },
{ "type": "Feature", "properties": { "osm_id": 245771732, "osm_type": "node", "name": "Ani", "tags": { "AND_a_nosr_p": "10010170", "name": "Ani", "place": "village", "population": "1000", "postal_code": "172026", "source": "AND" } }, "geometry": { "type": "Point", "coordinates": [ 77.423, 31.3497 ] } },
{ "type": "Feature", "properties": { "osm_id": 8050316280, "osm_type": "node", "name": "Ropri", "tags": { "name": "Ropri", "place": "village" } }, "geometry": { "type": "Point", "coordinates": [ 77.4140453, 31.353527 ] } },
{ "type": "Feature", "properties": { "osm_id": 8007632887, "osm_type": "node", "name": "Gharoli", "tags": { "name": "Gharoli", "place": "village" } }, "geometry": { "type": "Point", "coordinates": [ 77.5136197, 31.3692479 ] } },
{ "type": "Feature", "properties": { "osm_id": 8007632384, "osm_type": "node", "name": "Charmala", "tags": { "name": "Charmala", "place": "village" } }, "geometry": { "type": "Point", "coordinates": [ 77.5184691, 31.371538 ] } },
{ "type": "Feature", "properties": { "osm_id": 8006983277, "osm_type": "node", "name": "Jahli", "tags": { "name": "Jahli", "place": "village" } }, "geometry": { "type": "Point", "coordinates": [ 77.5165057, 31.3753121 ] } },
{ "type": "Feature", "properties": { "osm_id": 627276724, "osm_type": "node", "name": "Bhadrash", "tags": { "name": "Bhadrash", "place": "village" } }, "geometry": { "type": "Point", "coordinates": [ 77.5590073, 31.3879935 ] } },
{ "type": "Feature", "properties": { "osm_id": 8007648670, "osm_type": "node", "name": "Vaera", "tags": { "name": "Vaera", "place": "village" } }, "geometry": { "type": "Point", "coordinates": [ 77.6210046, 31.3923481 ] } },
{ "type": "Feature", "properties": { "osm_id": 627278609, "osm_type": "node", "name": "Duttnagar", "tags": { "name": "Duttnagar", "place": "village" } }, "geometry": { "type": "Point", "coordinates": [ 77.5792307, 31.392907 ] } },
{ "type": "Feature", "properties": { "osm_id": 8006984408, "osm_type": "node", "name": "Koel", "tags": { "name": "Koel", "place": "village" } }, "geometry": { "type": "Point", "coordinates": [ 77.5669527, 31.397092 ] } },
{ "type": "Feature", "properties": { "osm_id": 8016496818, "osm_type": "node", "name": null, "tags": { "place": "village" } }, "geometry": { "type": "Point", "coordinates": [ 77.6305961, 31.3988137 ] } },
{ "type": "Feature", "properties": { "osm_id": 8016496819, "osm_type": "node", "name": null, "tags": { "place": "village" } }, "geometry": { "type": "Point", "coordinates": [ 77.6132584, 31.3992166 ] } },
{ "type": "Feature", "properties": { "osm_id": 8007648669, "osm_type": "node", "name": "Bael", "tags": { "name": "Bael", "place": "village" } }, "geometry": { "type": "Point", "coordinates": [ 77.5908136, 31.399876 ] } },
{ "type": "Feature", "properties": { "osm_id": 8016496817, "osm_type": "node", "name": null, "tags": { "place": "village" } }, "geometry": { "type": "Point", "coordinates": [ 77.623322, 31.4005903 ] } },
{ "type": "Feature", "properties": { "osm_id": 8006984401, "osm_type": "node", "name": "Daroha", "tags": { "name": "Daroha", "place": "village" } }, "geometry": { "type": "Point", "coordinates": [ 77.5241232, 31.4019822 ] } },
{ "type": "Feature", "properties": { "osm_id": 8016496820, "osm_type": "node", "name": "Shatahl", "tags": { "name": "Shatahl", "place": "village" } }, "geometry": { "type": "Point", "coordinates": [ 77.6222491, 31.4047294 ] } },
{ "type": "Feature", "properties": { "osm_id": 245771815, "osm_type": "node", "name": "Nirmand", "tags": { "alt_name": "Nirmand", "name": "Nirmand", "place": "village" } }, "geometry": { "type": "Point", "coordinates": [ 77.5742018, 31.4249901 ] } },
{ "type": "Feature", "properties": { "osm_id": 8025850577, "osm_type": "node", "name": "Kolar", "tags": { "name": "Kolar", "place": "village" } }, "geometry": { "type": "Point", "coordinates": [ 77.6237297, 31.4284434 ] } },
{ "type": "Feature", "properties": { "osm_id": 8021753109, "osm_type": "node", "name": "Kathanda", "tags": { "name": "Kathanda", "place": "village" } }, "geometry": { "type": "Point", "coordinates": [ 77.5931203, 31.4297892 ] } },
{ "type": "Feature", "properties": { "osm_id": 8006984470, "osm_type": "node", "name": "Shahrwi", "tags": { "name": "Shahrwi", "place": "village" } }, "geometry": { "type": "Point", "coordinates": [ 77.5316226, 31.4374422 ] } },
{ "type": "Feature", "properties": { "osm_id": 8018722462, "osm_type": "node", "name": "Thachwa", "tags": { "name": "Thachwa", "place": "village" } }, "geometry": { "type": "Point", "coordinates": [ 77.6342654, 31.4549978 ] } },
{ "type": "Feature", "properties": { "osm_id": 8018754688, "osm_type": "node", "name": "Purani Chati", "tags": { "name": "Purani Chati", "place": "village" } }, "geometry": { "type": "Point", "coordinates": [ 77.6481807, 31.4576062 ] } },
{ "type": "Feature", "properties": { "osm_id": 8003373386, "osm_type": "node", "name": "Ortu", "tags": { "name": "Ortu", "place": "village" } }, "geometry": { "type": "Point", "coordinates": [ 77.5232327, 31.4669041 ] } },
{ "type": "Feature", "properties": { "osm_id": 6505321279, "osm_type": "node", "name": "Kamand", "tags": { "name": "Kamand", "place": "village" } }, "geometry": { "type": "Point", "coordinates": [ 77.4328821, 31.4700927 ] } },
{ "type": "Feature", "properties": { "osm_id": 8018754708, "osm_type": "node", "name": "Razairi", "tags": { "name": "Razairi", "place": "village" } }, "geometry": { "type": "Point", "coordinates": [ 77.5814366, 31.4804467 ] } },
{ "type": "Feature", "properties": { "osm_id": 8018754713, "osm_type": "node", "name": "Damohli", "tags": { "name": "Damohli", "place": "village" } }, "geometry": { "type": "Point", "coordinates": [ 77.5907922, 31.4813434 ] } },
{ "type": "Feature", "properties": { "osm_id": 8018754716, "osm_type": "node", "name": "Arsu", "tags": { "name": "Arsu", "place": "village" } }, "geometry": { "type": "Point", "coordinates": [ 77.5778103, 31.4844817 ] } },
{ "type": "Feature", "properties": { "osm_id": 8018754715, "osm_type": "node", "name": "Tagor", "tags": { "name": "Tagor", "place": "village" } }, "geometry": { "type": "Point", "coordinates": [ 77.5829494, 31.4855521 ] } },
{ "type": "Feature", "properties": { "osm_id": 8018754728, "osm_type": "node", "name": "Nor", "tags": { "name": "Nor", "place": "village" } }, "geometry": { "type": "Point", "coordinates": [ 77.5530696, 31.4879675 ] } },
{ "type": "Feature", "properties": { "osm_id": 7921134805, "osm_type": "node", "name": "Koti", "tags": { "name": "Koti", "place": "village" } }, "geometry": { "type": "Point", "coordinates": [ 77.5719631, 31.5022572 ] } },
{ "type": "Feature", "properties": { "osm_id": 7921134833, "osm_type": "node", "name": null, "tags": { "place": "village" } }, "geometry": { "type": "Point", "coordinates": [ 77.6681685, 31.4868513 ] } },
{ "type": "Feature", "properties": { "osm_id": 8018722480, "osm_type": "node", "name": "Kargar", "tags": { "name": "Kargar", "place": "village" } }, "geometry": { "type": "Point", "coordinates": [ 77.66348, 31.4894588 ] } },
{ "type": "Feature", "properties": { "osm_id": 10669142789, "osm_type": "node", "name": "Pirdi", "tags": { "name": "Pirdi", "place": "village" } }, "geometry": { "type": "Point", "coordinates": [ 77.1186287, 31.9240154 ] } },
{ "type": "Feature", "properties": { "osm_id": 10669142788, "osm_type": "node", "name": "Kramag", "tags": { "name": "Kramag", "place": "village" } }, "geometry": { "type": "Point", "coordinates": [ 77.113419, 31.9276166 ] } },
{ "type": "Feature", "properties": { "osm_id": 5819654506, "osm_type": "node", "name": "Badah", "tags": { "name": "Badah", "place": "village" } }, "geometry": { "type": "Point", "coordinates": [ 77.1151614, 31.9338081 ] } },
{ "type": "Feature", "properties": { "osm_id": 10666246549, "osm_type": "node", "name": "Shakohar", "tags": { "name": "Shakohar", "place": "village" } }, "geometry": { "type": "Point", "coordinates": [ 77.0957422, 31.9436594 ] } },
{ "type": "Feature", "properties": { "osm_id": 10668602149, "osm_type": "node", "name": "Marghan", "tags": { "name": "Marghan", "place": "village" } }, "geometry": { "type": "Point", "coordinates": [ 77.03727, 31.9440964 ] } },
{ "type": "Feature", "properties": { "osm_id": 10669033198, "osm_type": "node", "name": "Rujag", "tags": { "name": "Rujag", "place": "village" } }, "geometry": { "type": "Point", "coordinates": [ 77.0356177, 31.9783531 ] } },
{ "type": "Feature", "properties": { "osm_id": 699828645, "osm_type": "node", "name": "Shalang", "tags": { "name": "Shalang", "place": "village" } }, "geometry": { "type": "Point", "coordinates": [ 77.0286123, 31.9988252 ] } },
{ "type": "Feature", "properties": { "osm_id": 6505321079, "osm_type": "node", "name": "Barad", "tags": { "name": "Barad", "place": "village" } }, "geometry": { "type": "Point", "coordinates": [ 77.4115144, 31.4290029 ] } },
{ "type": "Feature", "properties": { "osm_id": 7092821028, "osm_type": "node", "name": "Anni", "tags": { "name": "Anni", "place": "village" } }, "geometry": { "type": "Point", "coordinates": [ 77.4188089, 31.4339728 ] } },
{ "type": "Feature", "properties": { "osm_id": 342116246, "osm_type": "node", "name": "Bajaura", "tags": { "name": "Bajaura", "place": "village" } }, "geometry": { "type": "Point", "coordinates": [ 77.1610755, 31.8469249 ] } },
{ "type": "Feature", "properties": { "osm_id": 9669666137, "osm_type": "node", "name": "Bagicha", "tags": { "name": "Bagicha", "place": "village" } }, "geometry": { "type": "Point", "coordinates": [ 77.1703347, 31.8654998 ] } },
{ "type": "Feature", "properties": { "osm_id": 10669142728, "osm_type": "node", "name": "Sarabai", "tags": { "name": "Sarabai", "place": "village" } }, "geometry": { "type": "Point", "coordinates": [ 77.1490105, 31.868922 ] } },
{ "type": "Feature", "properties": { "osm_id": 10669142771, "osm_type": "node", "name": "Reri", "tags": { "name": "Reri", "place": "village" } }, "geometry": { "type": "Point", "coordinates": [ 77.148006, 31.8721724 ] } },
{ "type": "Feature", "properties": { "osm_id": 8626447545, "osm_type": "node", "name": "Khamirar", "tags": { "name": "Khamirar", "place": "village" } }, "geometry": { "type": "Point", "coordinates": [ 77.3043418, 31.6511818 ] } },
{ "type": "Feature", "properties": { "osm_id": 9530576907, "osm_type": "node", "name": "Palach", "tags": { "name": "Palach", "place": "village" } }, "geometry": { "type": "Point", "coordinates": [ 77.3421407, 31.657144 ] } },
{ "type": "Feature", "properties": { "osm_id": 8624723399, "osm_type": "node", "name": "Narauli", "tags": { "name": "Narauli", "place": "village" } }, "geometry": { "type": "Point", "coordinates": [ 77.3156157, 31.7029668 ] } },
{ "type": "Feature", "properties": { "osm_id": 9669666122, "osm_type": "node", "name": "Hurla", "tags": { "name": "Hurla", "place": "village" } }, "geometry": { "type": "Point", "coordinates": [ 77.1862703, 31.8356186 ] } },
{ "type": "Feature", "properties": { "osm_id": 9669666128, "osm_type": "node", "name": "Diyar", "tags": { "name": "Diyar", "place": "village" } }, "geometry": { "type": "Point", "coordinates": [ 77.2040363, 31.8500225 ] } },
{ "type": "Feature", "properties": { "osm_id": 540754172, "osm_type": "node", "name": null, "tags": { "place": "village" } }, "geometry": { "type": "Point", "coordinates": [ 77.1805199, 31.9154398 ] } },
{ "type": "Feature", "properties": { "osm_id": 540749946, "osm_type": "node", "name": "Cheelaage", "tags": { "name": "Cheelaage", "place": "village" } }, "geometry": { "type": "Point", "coordinates": [ 77.1810987, 31.92797 ] } },
{ "type": "Feature", "properties": { "osm_id": 9669594759, "osm_type": "node", "name": "Jalugran", "tags": { "name": "Jalugran", "place": "village" } }, "geometry": { "type": "Point", "coordinates": [ 77.1963927, 31.9534594 ] } },
{ "type": "Feature", "properties": { "osm_id": 540744122, "osm_type": "node", "name": "Chhanikkhod", "tags": { "name": "Chhanikkhod", "place": "village" } }, "geometry": { "type": "Point", "coordinates": [ 77.1862447, 31.9574092 ] } },
{ "type": "Feature", "properties": { "osm_id": 540740158, "osm_type": "node", "name": "Sharni", "tags": { "name": "Sharni", "place": "village" } }, "geometry": { "type": "Point", "coordinates": [ 77.202534, 31.969496 ] } },
{ "type": "Feature", "properties": { "osm_id": 10669142772, "osm_type": "node", "name": "Parganun", "tags": { "name": "Parganun", "place": "village" } }, "geometry": { "type": "Point", "coordinates": [ 77.1444504, 31.8760442 ] } },
{ "type": "Feature", "properties": { "osm_id": 10669142773, "osm_type": "node", "name": "Khokhan", "tags": { "name": "Khokhan", "place": "village" } }, "geometry": { "type": "Point", "coordinates": [ 77.1330482, 31.879995 ] } },
{ "type": "Feature", "properties": { "osm_id": 10669142774, "osm_type": "node", "name": "Shamsi", "tags": { "name": "Shamsi", "place": "village", "population": "8870", "population:date": "2011-03-01", "source:population": "Censusdata" } }, "geometry": { "type": "Point", "coordinates": [ 77.1405151, 31.8938329 ] } },
{ "type": "Feature", "properties": { "osm_id": 9669594730, "osm_type": "node", "name": "Nalogi", "tags": { "name": "Nalogi", "place": "village" } }, "geometry": { "type": "Point", "coordinates": [ 77.1681859, 31.8955583 ] } },
{ "type": "Feature", "properties": { "osm_id": 10669142776, "osm_type": "node", "name": "Jauli", "tags": { "name": "Jauli", "place": "village" } }, "geometry": { "type": "Point", "coordinates": [ 77.1234625, 31.8986664 ] } },
{ "type": "Feature", "properties": { "osm_id": 10669142775, "osm_type": "node", "name": "Chhoyal", "tags": { "name": "Chhoyal", "place": "village" } }, "geometry": { "type": "Point", "coordinates": [ 77.1353859, 31.8992364 ] } },
{ "type": "Feature", "properties": { "osm_id": 10669717230, "osm_type": "node", "name": "Jia", "tags": { "name": "Jia", "place": "village" } }, "geometry": { "type": "Point", "coordinates": [ 77.1467468, 31.9016619 ] } },
{ "type": "Feature", "properties": { "osm_id": 10669142777, "osm_type": "node", "name": "Gadeun", "tags": { "name": "Gadeun", "place": "village" } }, "geometry": { "type": "Point", "coordinates": [ 77.128914, 31.9040012 ] } },
{ "type": "Feature", "properties": { "osm_id": 10669142784, "osm_type": "node", "name": "Mahul", "tags": { "name": "Mahul", "place": "village" } }, "geometry": { "type": "Point", "coordinates": [ 77.1309281, 31.9079679 ] } },
{ "type": "Feature", "properties": { "osm_id": 10668602132, "osm_type": "node", "name": "Bashing", "tags": { "name": "Bashing", "place": "village" } }, "geometry": { "type": "Point", "coordinates": [ 77.1278042, 31.9895933 ] } },
{ "type": "Feature", "properties": { "osm_id": 9669592215, "osm_type": "node", "name": "Shiah", "tags": { "name": "Shiah", "place": "village" } }, "geometry": { "type": "Point", "coordinates": [ 77.2315325, 31.8645322 ] } },
{ "type": "Feature", "properties": { "osm_id": 10669764159, "osm_type": "node", "name": "Manihar", "tags": { "name": "Manihar", "place": "village" } }, "geometry": { "type": "Point", "coordinates": [ 77.3273893, 31.8886727 ] } },
{ "type": "Feature", "properties": { "osm_id": 540736196, "osm_type": "node", "name": "Shat", "tags": { "name": "Shat", "place": "village" } }, "geometry": { "type": "Point", "coordinates": [ 77.2149096, 31.9717186 ] } },
{ "type": "Feature", "properties": { "osm_id": 540716992, "osm_type": "node", "name": "Jari", "tags": { "name": "Jari", "place": "village", "postal_code": "175105" } }, "geometry": { "type": "Point", "coordinates": [ 77.2453841, 31.9964367 ] } },
{ "type": "Feature", "properties": { "osm_id": 5596554155, "osm_type": "node", "name": "Mateura", "tags": { "name": "Mateura", "place": "village" } }, "geometry": { "type": "Point", "coordinates": [ 77.2510709, 31.9977152 ] } },
{ "type": "Feature", "properties": { "osm_id": 8623787258, "osm_type": "node", "name": "Dunkhara", "tags": { "name": "Dunkhara", "place": "village" } }, "geometry": { "type": "Point", "coordinates": [ 77.2534602, 32.0033778 ] } },
{ "type": "Feature", "properties": { "osm_id": 8632664863, "osm_type": "node", "name": "Balthar", "tags": { "name": "Balthar", "place": "village" } }, "geometry": { "type": "Point", "coordinates": [ 77.2441889, 32.0047845 ] } },
{ "type": "Feature", "properties": { "osm_id": 8623787259, "osm_type": "node", "name": "Dunkharamul", "tags": { "name": "Dunkharamul", "place": "village" } }, "geometry": { "type": "Point", "coordinates": [ 77.2625173, 32.0055408 ] } },
{ "type": "Feature", "properties": { "osm_id": 8623814117, "osm_type": "node", "name": "Shila", "tags": { "name": "Shila", "place": "village" } }, "geometry": { "type": "Point", "coordinates": [ 77.3787245, 32.0067259 ] } },
{ "type": "Feature", "properties": { "osm_id": 9235540486, "osm_type": "node", "name": "Rasol", "tags": { "name": "Rasol", "place": "village" } }, "geometry": { "type": "Point", "coordinates": [ 77.2920881, 32.0315922 ] } },
{ "type": "Feature", "properties": { "osm_id": 756382662, "osm_type": "node", "name": "Malana", "tags": { "name": "Malana", "place": "village", "wikidata": "Q6741243" } }, "geometry": { "type": "Point", "coordinates": [ 77.260022, 32.0618005 ] } },
{ "type": "Feature", "properties": { "osm_id": 540680647, "osm_type": "node", "name": "Raison", "tags": { "name": "Raison", "name:hi": "राइसन", "place": "village" } }, "geometry": { "type": "Point", "coordinates": [ 77.1349306, 32.0578182 ] } },
{ "type": "Feature", "properties": { "osm_id": 8630756227, "osm_type": "node", "name": "Jana", "tags": { "name": "Jana", "name:hi": "जाणा", "place": "village" } }, "geometry": { "type": "Point", "coordinates": [ 77.1566974, 32.0584241 ] } },
{ "type": "Feature", "properties": { "osm_id": 8632200965, "osm_type": "node", "name": "Malogi", "tags": { "name": "Malogi", "place": "village" } }, "geometry": { "type": "Point", "coordinates": [ 77.1243099, 32.0615834 ] } },
{ "type": "Feature", "properties": { "osm_id": 540669826, "osm_type": "node", "name": "Shirar", "tags": { "name": "Shirar", "name:hi": "शिरड़", "place": "village" } }, "geometry": { "type": "Point", "coordinates": [ 77.1240279, 32.0677686 ] } },
{ "type": "Feature", "properties": { "osm_id": 806252567, "osm_type": "node", "name": "Archhandi", "tags": { "name": "Archhandi", "name:hi": "अरछन्डी", "place": "village" } }, "geometry": { "type": "Point", "coordinates": [ 77.1372315, 32.0693736 ] } },
{ "type": "Feature", "properties": { "osm_id": 8630756222, "osm_type": "node", "name": "Mahili", "tags": { "name": "Mahili", "place": "village" } }, "geometry": { "type": "Point", "coordinates": [ 77.1362866, 32.0752959 ] } },
{ "type": "Feature", "properties": { "osm_id": 8630756223, "osm_type": "node", "name": "Nathan", "tags": { "name": "Nathan", "name:hi": "नथाण", "place": "village" } }, "geometry": { "type": "Point", "coordinates": [ 77.1651012, 32.0762743 ] } },
{ "type": "Feature", "properties": { "osm_id": 8630754073, "osm_type": "node", "name": "Hirni Ser", "tags": { "name": "Hirni Ser", "name:hi": "हिरनी सेर", "place": "village" } }, "geometry": { "type": "Point", "coordinates": [ 77.1414868, 32.0813812 ] } },
{ "type": "Feature", "properties": { "osm_id": 8630754072, "osm_type": "node", "name": "Baranigran", "tags": { "name": "Baranigran", "name:hi": "ब्राणीग्रां", "place": "village" } }, "geometry": { "type": "Point", "coordinates": [ 77.1515382, 32.0815749 ] } },
{ "type": "Feature", "properties": { "osm_id": 13771378592, "osm_type": "node", "name": "Laran", "tags": { "name": "Laran", "name:hi": "ब्राणीग्रां", "place": "village" } }, "geometry": { "type": "Point", "coordinates": [ 77.1515429, 32.084629 ] } },
{ "type": "Feature", "properties": { "osm_id": 8630809422, "osm_type": "node", "name": "Chajogi", "tags": { "name": "Chajogi", "place": "village" } }, "geometry": { "type": "Point", "coordinates": [ 77.1767557, 32.1053823 ] } },
{ "type": "Feature", "properties": { "osm_id": 1185954338, "osm_type": "node", "name": "Rumsu", "tags": { "name": "Rumsu", "place": "village" } }, "geometry": { "type": "Point", "coordinates": [ 77.1794321, 32.1143922 ] } },
{ "type": "Feature", "properties": { "osm_id": 8630780516, "osm_type": "node", "name": "Barehigran", "tags": { "name": "Barehigran", "place": "village" } }, "geometry": { "type": "Point", "coordinates": [ 77.195907, 32.1145063 ] } },
{ "type": "Feature", "properties": { "osm_id": 8630780515, "osm_type": "node", "name": "Raman", "tags": { "name": "Raman", "name:hi": "रामन", "place": "village" } }, "geometry": { "type": "Point", "coordinates": [ 77.1964259, 32.1193895 ] } },
{ "type": "Feature", "properties": { "osm_id": 8630809419, "osm_type": "node", "name": "Sharn", "tags": { "name": "Sharn", "place": "village" } }, "geometry": { "type": "Point", "coordinates": [ 77.1800884, 32.1195349 ] } },
{ "type": "Feature", "properties": { "osm_id": 8630814619, "osm_type": "node", "name": "Damadi", "tags": { "name": "Damadi", "place": "village" } }, "geometry": { "type": "Point", "coordinates": [ 77.1877395, 32.1210606 ] } },
{ "type": "Feature", "properties": { "osm_id": 8630814617, "osm_type": "node", "name": "Baltha", "tags": { "name": "Baltha", "name:hi": "बालठा", "place": "village" } }, "geometry": { "type": "Point", "coordinates": [ 77.1937259, 32.1231117 ] } },
{ "type": "Feature", "properties": { "osm_id": 806252558, "osm_type": "node", "name": "Sarsai", "tags": { "name": "Sarsai", "place": "village" } }, "geometry": { "type": "Point", "coordinates": [ 77.1731121, 32.1386545 ] } },
{ "type": "Feature", "properties": { "osm_id": 8630829540, "osm_type": "node", "name": "Dashal", "tags": { "name": "Dashal", "place": "village" } }, "geometry": { "type": "Point", "coordinates": [ 77.1766655, 32.1417917 ] } },
{ "type": "Feature", "properties": { "osm_id": 806252555, "osm_type": "node", "name": "Haripur", "tags": { "name": "Haripur", "place": "village" } }, "geometry": { "type": "Point", "coordinates": [ 77.1756974, 32.1458108 ] } },
{ "type": "Feature", "properties": { "osm_id": 7921134876, "osm_type": "node", "name": "Neokundar", "tags": { "name": "Neokundar", "place": "village" } }, "geometry": { "type": "Point", "coordinates": [ 77.6982736, 31.5410716 ] } },
{ "type": "Feature", "properties": { "osm_id": 8626340801, "osm_type": "node", "name": "Bachut", "tags": { "name": "Bachut", "place": "village" } }, "geometry": { "type": "Point", "coordinates": [ 77.3236628, 31.5790203 ] } },
{ "type": "Feature", "properties": { "osm_id": 5118693019, "osm_type": "node", "name": "Jibhi", "tags": { "name": "Jibhi", "name:en": "Jibhi", "name:hi": "जीभि", "name:ru": "Джиби", "place": "village" } }, "geometry": { "type": "Point", "coordinates": [ 77.3526223, 31.5922834 ] } },
{ "type": "Feature", "properties": { "osm_id": 6518022439, "osm_type": "node", "name": "Sharchi", "tags": { "name": "Sharchi", "name:hi": "सरचि", "place": "village" } }, "geometry": { "type": "Point", "coordinates": [ 77.4225742, 31.6204536 ] } },
{ "type": "Feature", "properties": { "osm_id": 8626447579, "osm_type": "node", "name": "Tirlokpur", "tags": { "name": "Tirlokpur", "place": "village" } }, "geometry": { "type": "Point", "coordinates": [ 77.3317673, 31.6214816 ] } },
{ "type": "Feature", "properties": { "osm_id": 8626447550, "osm_type": "node", "name": "Fatehpur", "tags": { "name": "Fatehpur", "place": "village" } }, "geometry": { "type": "Point", "coordinates": [ 77.309232, 31.6322106 ] } },
{ "type": "Feature", "properties": { "osm_id": 9530576908, "osm_type": "node", "name": "Kothi Chahni", "tags": { "name": "Kothi Chahni", "place": "village" } }, "geometry": { "type": "Point", "coordinates": [ 77.3546719, 31.6359909 ] } },
{ "type": "Feature", "properties": { "osm_id": 5118693986, "osm_type": "node", "name": "Gushaini", "tags": { "alt_name": "Goshaini", "name": "Gushaini", "name:hi": "गोशैनी", "place": "village" } }, "geometry": { "type": "Point", "coordinates": [ 77.4275843, 31.6373271 ] } },
{ "type": "Feature", "properties": { "osm_id": 7921134800, "osm_type": "node", "name": "Pakora", "tags": { "name": "Pakora", "place": "village" } }, "geometry": { "type": "Point", "coordinates": [ 77.5867367, 31.5048185 ] } },
{ "type": "Feature", "properties": { "osm_id": 8626274828, "osm_type": "node", "name": "Bachher", "tags": { "name": "Bachher", "place": "village" } }, "geometry": { "type": "Point", "coordinates": [ 77.4778277, 31.5109233 ] } },
{ "type": "Feature", "properties": { "osm_id": 7921134819, "osm_type": "node", "name": "Dim", "tags": { "name": "Dim", "place": "village" } }, "geometry": { "type": "Point", "coordinates": [ 77.5688195, 31.5193434 ] } },
{ "type": "Feature", "properties": { "osm_id": 6549740900, "osm_type": "node", "name": "Baga Sarahan", "tags": { "name": "Baga Sarahan", "place": "village" } }, "geometry": { "type": "Point", "coordinates": [ 77.5356647, 31.5476681 ] } },
{ "type": "Feature", "properties": { "osm_id": 5123995342, "osm_type": "node", "name": "Bathad", "tags": { "alt_name": "Baathad", "name": "Bathad", "name:hi": "बाथड", "place": "village" } }, "geometry": { "type": "Point", "coordinates": [ 77.4815055, 31.6006794 ] } },
{ "type": "Feature", "properties": { "osm_id": 8626114560, "osm_type": "node", "name": "Parwari", "tags": { "name": "Parwari", "place": "village" } }, "geometry": { "type": "Point", "coordinates": [ 77.4451529, 31.6023308 ] } },
{ "type": "Feature", "properties": { "osm_id": 8626105953, "osm_type": "node", "name": "Chipni", "tags": { "name": "Chipni", "place": "village" } }, "geometry": { "type": "Point", "coordinates": [ 77.474807, 31.6083445 ] } },
{ "type": "Feature", "properties": { "osm_id": 7705869505, "osm_type": "node", "name": "Pekhri", "tags": { "name": "Pekhri", "place": "village" } }, "geometry": { "type": "Point", "coordinates": [ 77.4302351, 31.6497191 ] } },
{ "type": "Feature", "properties": { "osm_id": 245772916, "osm_type": "node", "name": "Pulga", "tags": { "AND_a_nosr_p": "10010093", "name": "Pulga", "place": "village", "population": "5000", "source": "AND" } }, "geometry": { "type": "Point", "coordinates": [ 77.4402685, 31.9952397 ] } },
{ "type": "Feature", "properties": { "osm_id": 773592738, "osm_type": "node", "name": "Barsheni", "tags": { "name": "Barsheni", "name:hi": "बरशैणी", "place": "village" } }, "geometry": { "type": "Point", "coordinates": [ 77.4400343, 32.0009451 ] } },
{ "type": "Feature", "properties": { "osm_id": 13434364984, "osm_type": "node", "name": "Seohli", "tags": { "name": "Seohli", "place": "village" } }, "geometry": { "type": "Point", "coordinates": [ 77.3046211, 31.71618 ] } },
{ "type": "Feature", "properties": { "osm_id": 582670454, "osm_type": "node", "name": "Larji", "tags": { "name": "Larji", "place": "village" } }, "geometry": { "type": "Point", "coordinates": [ 77.223241, 31.725967 ] } },
{ "type": "Feature", "properties": { "osm_id": 6689576979, "osm_type": "node", "name": "Sainj", "tags": { "capital": "6", "name": "Sainj", "place": "village" } }, "geometry": { "type": "Point", "coordinates": [ 77.3084876, 31.7708764 ] } },
{ "type": "Feature", "properties": { "osm_id": 7693156191, "osm_type": "node", "name": "Lapah", "tags": { "name": "Lapah", "place": "village" } }, "geometry": { "type": "Point", "coordinates": [ 77.4278855, 31.7710103 ] } },
{ "type": "Feature", "properties": { "osm_id": 6549711650, "osm_type": "node", "name": "Neuli", "tags": { "name": "Neuli", "place": "village" } }, "geometry": { "type": "Point", "coordinates": [ 77.3815438, 31.7726816 ] } },
{ "type": "Feature", "properties": { "osm_id": 9734073914, "osm_type": "node", "name": "Raila", "tags": { "name": "Raila", "place": "village" } }, "geometry": { "type": "Point", "coordinates": [ 77.3166919, 31.7855393 ] } },
{ "type": "Feature", "properties": { "osm_id": 10670211329, "osm_type": "node", "name": "Sharan", "tags": { "name": "Sharan", "place": "village" } }, "geometry": { "type": "Point", "coordinates": [ 77.3285336, 31.794143 ] } },
{ "type": "Feature", "properties": { "osm_id": 9669614008, "osm_type": "node", "name": "Chashani", "tags": { "name": "Chashani", "place": "village" } }, "geometry": { "type": "Point", "coordinates": [ 77.2139087, 31.7971489 ] } },
{ "type": "Feature", "properties": { "osm_id": 9669666118, "osm_type": "node", "name": "Dhara", "tags": { "name": "Dhara", "place": "village" } }, "geometry": { "type": "Point", "coordinates": [ 77.2478386, 31.8384507 ] } },
{ "type": "Feature", "properties": { "osm_id": 9669666119, "osm_type": "node", "name": "Garsa", "tags": { "name": "Garsa", "place": "village" } }, "geometry": { "type": "Point", "coordinates": [ 77.2362379, 31.8435148 ] } },
{ "type": "Feature", "properties": { "osm_id": 3154313635, "osm_type": "node", "name": "Tosh", "tags": { "name": "Tosh", "place": "village" } }, "geometry": { "type": "Point", "coordinates": [ 77.4518636, 32.014398 ] } },
{ "type": "Feature", "properties": { "osm_id": 10668602147, "osm_type": "node", "name": "Bhalyani", "tags": { "name": "Bhalyani", "place": "village" } }, "geometry": { "type": "Point", "coordinates": [ 77.0458317, 31.9470461 ] } },
{ "type": "Feature", "properties": { "osm_id": 10668602148, "osm_type": "node", "name": "Shanghan", "tags": { "name": "Shanghan", "place": "village" } }, "geometry": { "type": "Point", "coordinates": [ 77.0379996, 31.9475194 ] } },
{ "type": "Feature", "properties": { "osm_id": 10666246551, "osm_type": "node", "name": "Bagan", "tags": { "name": "Bagan", "place": "village" } }, "geometry": { "type": "Point", "coordinates": [ 77.0847618, 31.950328 ] } },
{ "type": "Feature", "properties": { "osm_id": 13808341354, "osm_type": "node", "name": "Bhumteer", "tags": { "name": "Bhumteer", "place": "village" } }, "geometry": { "type": "Point", "coordinates": [ 77.0752407, 31.9526514 ] } },
{ "type": "Feature", "properties": { "osm_id": 10666477718, "osm_type": "node", "name": "Baragran", "tags": { "name": "Baragran", "place": "village" } }, "geometry": { "type": "Point", "coordinates": [ 77.0388579, 31.9527449 ] } },
{ "type": "Feature", "properties": { "osm_id": 561104473, "osm_type": "node", "name": "Badhai", "tags": { "name": "Badhai", "place": "village" } }, "geometry": { "type": "Point", "coordinates": [ 77.0875549, 31.9611252 ] } },
{ "type": "Feature", "properties": { "osm_id": 10668602138, "osm_type": "node", "name": "Dughilag", "tags": { "name": "Dughilag", "place": "village" } }, "geometry": { "type": "Point", "coordinates": [ 77.0679223, 31.9646511 ] } },
{ "type": "Feature", "properties": { "osm_id": 561106214, "osm_type": "node", "name": "Bhutti", "tags": { "name": "Bhutti", "place": "village" } }, "geometry": { "type": "Point", "coordinates": [ 77.0513775, 31.9648887 ] } },
{ "type": "Feature", "properties": { "osm_id": 3546955594, "osm_type": "node", "name": "Bhaikhli", "tags": { "name": "Bhaikhli", "place": "village" } }, "geometry": { "type": "Point", "coordinates": [ 77.1098873, 31.9744508 ] } },
{ "type": "Feature", "properties": { "osm_id": 10668602133, "osm_type": "node", "name": "Banogi", "tags": { "name": "Banogi", "place": "village" } }, "geometry": { "type": "Point", "coordinates": [ 77.1116209, 31.9933364 ] } },
{ "type": "Feature", "properties": { "osm_id": 10020924566, "osm_type": "node", "name": "Dunkhari", "tags": { "name": "Dunkhari", "place": "village" } }, "geometry": { "type": "Point", "coordinates": [ 77.0267361, 32.0000703 ] } },
{ "type": "Feature", "properties": { "osm_id": 8630749346, "osm_type": "node", "name": "Seobag", "tags": { "name": "Seobag", "place": "village" } }, "geometry": { "type": "Point", "coordinates": [ 77.1381113, 31.9989766 ] } },
{ "type": "Feature", "properties": { "osm_id": 8630749337, "osm_type": "node", "name": "Kota", "tags": { "name": "Kota", "place": "village" } }, "geometry": { "type": "Point", "coordinates": [ 77.1363945, 32.0179078 ] } },
{ "type": "Feature", "properties": { "osm_id": 8630749338, "osm_type": "node", "name": "Bisber", "tags": { "name": "Bisber", "place": "village" } }, "geometry": { "type": "Point", "coordinates": [ 77.1393924, 32.0243228 ] } },
{ "type": "Feature", "properties": { "osm_id": 8630756235, "osm_type": "node", "name": "Soyal", "tags": { "name": "Soyal", "place": "village" } }, "geometry": { "type": "Point", "coordinates": [ 77.1486026, 32.0337618 ] } },
{ "type": "Feature", "properties": { "osm_id": 806252556, "osm_type": "node", "name": "Karasu", "tags": { "name": "Karasu", "name:hi": "कराड़सू", "place": "village" } }, "geometry": { "type": "Point", "coordinates": [ 77.136159, 32.0363202 ] } },
{ "type": "Feature", "properties": { "osm_id": 8630756233, "osm_type": "node", "name": "Sar", "tags": { "name": "Sar", "place": "village" } }, "geometry": { "type": "Point", "coordinates": [ 77.150332, 32.0417549 ] } },
{ "type": "Feature", "properties": { "osm_id": 8632201664, "osm_type": "node", "name": "Chattan Seri", "tags": { "name": "Chattan Seri", "place": "village" } }, "geometry": { "type": "Point", "coordinates": [ 77.1277739, 32.045614 ] } },
{ "type": "Feature", "properties": { "osm_id": 8632201669, "osm_type": "node", "name": "Bainchi", "tags": { "name": "Bainchi", "name:hi": "बैंची", "place": "village" } }, "geometry": { "type": "Point", "coordinates": [ 77.1285271, 32.0494121 ] } },
{ "type": "Feature", "properties": { "osm_id": 8630756231, "osm_type": "node", "name": "Raogi", "tags": { "name": "Raogi", "place": "village" } }, "geometry": { "type": "Point", "coordinates": [ 77.1445189, 32.0518261 ] } },
{ "type": "Feature", "properties": { "osm_id": 8632201671, "osm_type": "node", "name": "Aramgarh", "tags": { "name": "Aramgarh", "place": "village" } }, "geometry": { "type": "Point", "coordinates": [ 77.1237043, 32.0537925 ] } },
{ "type": "Feature", "properties": { "osm_id": 8632613413, "osm_type": "node", "name": "Jadaur", "tags": { "name": "Jadaur", "place": "village" } }, "geometry": { "type": "Point", "coordinates": [ 77.1148445, 32.0195001 ] } },
{ "type": "Feature", "properties": { "osm_id": 8632201659, "osm_type": "node", "name": "Biyasar", "tags": { "name": "Biyasar", "name:hi": "बियासर", "place": "village" } }, "geometry": { "type": "Point", "coordinates": [ 77.0938835, 32.0306562 ] } },
{ "type": "Feature", "properties": { "osm_id": 540569543, "osm_type": "node", "name": "Himri", "tags": { "name": "Himri", "name:hi": "हिम्ब्री", "place": "village" } }, "geometry": { "type": "Point", "coordinates": [ 77.0698154, 32.0601785 ] } },
{ "type": "Feature", "properties": { "osm_id": 10831070098, "osm_type": "node", "name": "Kharotl", "tags": { "name": "Kharotl", "name:hi": "खरोटड़", "place": "village" } }, "geometry": { "type": "Point", "coordinates": [ 77.1223453, 32.0661959 ] } },
{ "type": "Feature", "properties": { "osm_id": 540669092, "osm_type": "node", "name": "Karal", "tags": { "name": "Karal", "name:hi": "कराल", "place": "village" } }, "geometry": { "type": "Point", "coordinates": [ 77.0953968, 32.0683765 ] } },
{ "type": "Feature", "properties": { "osm_id": 8632200973, "osm_type": "node", "name": "Phalain", "tags": { "name": "Phalain", "name:hi": "फलाइन", "place": "village" } }, "geometry": { "type": "Point", "coordinates": [ 77.1118456, 32.0838202 ] } },
{ "type": "Feature", "properties": { "osm_id": 8632200974, "osm_type": "node", "name": "Silingcha", "tags": { "name": "Silingcha", "name:hi": "स्लिंग्चा", "place": "village" } }, "geometry": { "type": "Point", "coordinates": [ 77.1063995, 32.0878007 ] } },
{ "type": "Feature", "properties": { "osm_id": 8632200971, "osm_type": "node", "name": "Shim", "tags": { "name": "Shim", "name:hi": "शिम", "place": "village" } }, "geometry": { "type": "Point", "coordinates": [ 77.1215199, 32.0925512 ] } },
{ "type": "Feature", "properties": { "osm_id": 8632200980, "osm_type": "node", "name": "Fojal", "tags": { "name": "Fojal", "name:hi": "फोजल", "place": "village" } }, "geometry": { "type": "Point", "coordinates": [ 77.0885321, 32.0956974 ] } },
{ "type": "Feature", "properties": { "osm_id": 8632200977, "osm_type": "node", "name": "Bhulang", "tags": { "name": "Bhulang", "name:hi": "भुलंग", "place": "village" } }, "geometry": { "type": "Point", "coordinates": [ 77.0993575, 32.0962901 ] } },
{ "type": "Feature", "properties": { "osm_id": 806252566, "osm_type": "node", "name": "Larankelo", "tags": { "name": "Larankelo", "name:hi": "लरांकेलो", "place": "village" } }, "geometry": { "type": "Point", "coordinates": [ 77.1447411, 32.0904057 ] } },
{ "type": "Feature", "properties": { "osm_id": 3543413033, "osm_type": "node", "name": "Nashala", "tags": { "addr:postcode": "175104", "name": "Nashala", "name:hi": "नशाला", "place": "village" } }, "geometry": { "type": "Point", "coordinates": [ 77.158984, 32.091266 ] } },
{ "type": "Feature", "properties": { "osm_id": 8632200970, "osm_type": "node", "name": "Dobhi", "tags": { "name": "Dobhi", "name:hi": "डोभी", "place": "village" } }, "geometry": { "type": "Point", "coordinates": [ 77.1258739, 32.0915142 ] } },
{ "type": "Feature", "properties": { "osm_id": 8632181530, "osm_type": "node", "name": "Duwara", "tags": { "name": "Duwara", "name:hi": "दुआड़ा", "place": "village" } }, "geometry": { "type": "Point", "coordinates": [ 77.124302, 32.096972 ] } },
{ "type": "Feature", "properties": { "osm_id": 8630809426, "osm_type": "node", "name": "Patar", "tags": { "name": "Patar", "place": "village" } }, "geometry": { "type": "Point", "coordinates": [ 77.1539507, 32.1003513 ] } },
{ "type": "Feature", "properties": { "osm_id": 2624689702, "osm_type": "node", "name": "Katrain", "tags": { "name": "Katrain", "name:hi": "कटराईं", "place": "village" } }, "geometry": { "type": "Point", "coordinates": [ 77.1386911, 32.1037845 ] } },
{ "type": "Feature", "properties": { "osm_id": 8632181531, "osm_type": "node", "name": "Jather", "tags": { "name": "Jather", "name:hi": "जटेह्ड़", "place": "village" } }, "geometry": { "type": "Point", "coordinates": [ 77.1419783, 32.1080194 ] } },
{ "type": "Feature", "properties": { "osm_id": 8632181532, "osm_type": "node", "name": "Bashkola", "tags": { "name": "Bashkola", "name:hi": "बश्कोला", "place": "village" } }, "geometry": { "type": "Point", "coordinates": [ 77.1376713, 32.1123497 ] } },
{ "type": "Feature", "properties": { "osm_id": 8632181533, "osm_type": "node", "name": "Bari", "tags": { "name": "Bari", "name:hi": "बाड़ी", "place": "village" } }, "geometry": { "type": "Point", "coordinates": [ 77.140869, 32.1160087 ] } },
{ "type": "Feature", "properties": { "osm_id": 806252564, "osm_type": "node", "name": "Marhi", "tags": { "name": "Marhi", "name:hi": "मढ़ी", "place": "village" } }, "geometry": { "type": "Point", "coordinates": [ 77.1632182, 32.1175953 ] } },
{ "type": "Feature", "properties": { "osm_id": 8632200982, "osm_type": "node", "name": "Neri", "tags": { "name": "Neri", "name:hi": "नेरी", "place": "village" } }, "geometry": { "type": "Point", "coordinates": [ 77.0688207, 32.1082508 ] } },
{ "type": "Feature", "properties": { "osm_id": 806252565, "osm_type": "node", "name": "Mansari", "tags": { "name": "Mansari", "place": "village" } }, "geometry": { "type": "Point", "coordinates": [ 77.1798237, 32.1538129 ] } },
{ "type": "Feature", "properties": { "osm_id": 806252561, "osm_type": "node", "name": "Karjan", "tags": { "name": "Karjan", "name:hi": "कर्जां", "place": "village" } }, "geometry": { "type": "Point", "coordinates": [ 77.1894024, 32.1612848 ] } },
{ "type": "Feature", "properties": { "osm_id": 806252559, "osm_type": "node", "name": "Sajla", "tags": { "name": "Sajla", "place": "village" } }, "geometry": { "type": "Point", "coordinates": [ 77.1916589, 32.1734203 ] } },
{ "type": "Feature", "properties": { "osm_id": 8631063717, "osm_type": "node", "name": "Baran", "tags": { "name": "Baran", "name:hi": "ब्राण", "place": "village" } }, "geometry": { "type": "Point", "coordinates": [ 77.176377, 32.1739237 ] } },
{ "type": "Feature", "properties": { "osm_id": 2086701743, "osm_type": "node", "name": "Khakhnal", "tags": { "name": "Khakhnal", "place": "village" } }, "geometry": { "type": "Point", "coordinates": [ 77.1953453, 32.1799221 ] } },
{ "type": "Feature", "properties": { "osm_id": 806252557, "osm_type": "node", "name": "Gojra", "tags": { "name": "Gojra", "place": "village" } }, "geometry": { "type": "Point", "coordinates": [ 77.1987044, 32.184759 ] } },
{ "type": "Feature", "properties": { "osm_id": 8630838125, "osm_type": "node", "name": "Kalath", "tags": { "name": "Kalath", "place": "village" } }, "geometry": { "type": "Point", "coordinates": [ 77.1889227, 32.1889465 ] } },
{ "type": "Feature", "properties": { "osm_id": 8630838123, "osm_type": "node", "name": "Salin", "tags": { "name": "Salin", "place": "village" } }, "geometry": { "type": "Point", "coordinates": [ 77.1787437, 32.1956794 ] } },
{ "type": "Feature", "properties": { "osm_id": 786582302, "osm_type": "node", "name": "Jagatsukh", "tags": { "name": "Jagatsukh", "name:hi": "जगतसुख", "place": "village" } }, "geometry": { "type": "Point", "coordinates": [ 77.2018682, 32.1997506 ] } },
{ "type": "Feature", "properties": { "osm_id": 8631063718, "osm_type": "node", "name": "Parsha", "tags": { "name": "Parsha", "place": "village" } }, "geometry": { "type": "Point", "coordinates": [ 77.1858456, 32.2059029 ] } },
{ "type": "Feature", "properties": { "osm_id": 848576378, "osm_type": "node", "name": "Patlikuhal", "tags": { "name": "Patlikuhal", "place": "village" } }, "geometry": { "type": "Point", "coordinates": [ 77.1472783, 32.1176771 ] } },
{ "type": "Feature", "properties": { "osm_id": 806252563, "osm_type": "node", "name": "Chhaki", "tags": { "name": "Chhaki", "place": "village" } }, "geometry": { "type": "Point", "coordinates": [ 77.1660719, 32.1252582 ] } },
{ "type": "Feature", "properties": { "osm_id": 848576147, "osm_type": "node", "name": "Baragran", "tags": { "name": "Baragran", "name:hi": "बड़ाग्रां", "place": "village" } }, "geometry": { "type": "Point", "coordinates": [ 77.1459166, 32.1348183 ] } },
{ "type": "Feature", "properties": { "osm_id": 8630829539, "osm_type": "node", "name": "Batahar", "tags": { "name": "Batahar", "place": "village" } }, "geometry": { "type": "Point", "coordinates": [ 77.1637049, 32.14274 ] } },
{ "type": "Feature", "properties": { "osm_id": 848576347, "osm_type": "node", "name": "Pangan", "tags": { "name": "Pangan", "name:hi": "पनगां", "place": "village" } }, "geometry": { "type": "Point", "coordinates": [ 77.1605458, 32.1574073 ] } },
{ "type": "Feature", "properties": { "osm_id": 8631057013, "osm_type": "node", "name": "Malah", "tags": { "name": "Malah", "name:hi": "मलाह", "place": "village" } }, "geometry": { "type": "Point", "coordinates": [ 77.1525803, 32.1616816 ] } },
{ "type": "Feature", "properties": { "osm_id": 8631057014, "osm_type": "node", "name": "Ligan", "tags": { "name": "Ligan", "name:hi": "लिगन", "place": "village" } }, "geometry": { "type": "Point", "coordinates": [ 77.1588072, 32.1639978 ] } },
{ "type": "Feature", "properties": { "osm_id": 848564028, "osm_type": "node", "name": "Sangchar", "tags": { "name": "Sangchar", "name:hi": "शांगचर", "place": "village" } }, "geometry": { "type": "Point", "coordinates": [ 77.1521786, 32.1664947 ] } },
{ "type": "Feature", "properties": { "osm_id": 8631057015, "osm_type": "node", "name": "Pujan", "tags": { "name": "Pujan", "name:hi": "पुजन", "place": "village" } }, "geometry": { "type": "Point", "coordinates": [ 77.1620828, 32.1671222 ] } },
{ "type": "Feature", "properties": { "osm_id": 5554534751, "osm_type": "node", "name": "Majhach", "tags": { "name": "Majhach", "place": "village" } }, "geometry": { "type": "Point", "coordinates": [ 77.1643645, 32.2905279 ] } },
{ "type": "Feature", "properties": { "osm_id": 8631063719, "osm_type": "node", "name": "Baror", "tags": { "name": "Baror", "place": "village" } }, "geometry": { "type": "Point", "coordinates": [ 77.1855134, 32.2077342 ] } },
{ "type": "Feature", "properties": { "osm_id": 8630852920, "osm_type": "node", "name": "Mujuri", "tags": { "name": "Mujuri", "place": "village" } }, "geometry": { "type": "Point", "coordinates": [ 77.1996484, 32.2093243 ] } },
{ "type": "Feature", "properties": { "osm_id": 8630852917, "osm_type": "node", "name": "Arjun Gupha", "tags": { "name": "Arjun Gupha", "place": "village" } }, "geometry": { "type": "Point", "coordinates": [ 77.2029407, 32.2135176 ] } },
{ "type": "Feature", "properties": { "osm_id": 8631063721, "osm_type": "node", "name": "Gadherni", "tags": { "name": "Gadherni", "place": "village" } }, "geometry": { "type": "Point", "coordinates": [ 77.1848749, 32.2161483 ] } },
{ "type": "Feature", "properties": { "osm_id": 8630843716, "osm_type": "node", "name": "Shuru", "tags": { "name": "Shuru", "place": "village" } }, "geometry": { "type": "Point", "coordinates": [ 77.2023943, 32.2170429 ] } },
{ "type": "Feature", "properties": { "osm_id": 8631063723, "osm_type": "node", "name": "Siumsa", "tags": { "name": "Siumsa", "place": "village" } }, "geometry": { "type": "Point", "coordinates": [ 77.1845859, 32.2214752 ] } },
{ "type": "Feature", "properties": { "osm_id": 8630843714, "osm_type": "node", "name": "Prini", "tags": { "name": "Prini", "place": "village" } }, "geometry": { "type": "Point", "coordinates": [ 77.2022869, 32.2221873 ] } },
{ "type": "Feature", "properties": { "osm_id": 8630843713, "osm_type": "node", "name": "Aleo", "tags": { "name": "Aleo", "place": "village" } }, "geometry": { "type": "Point", "coordinates": [ 77.1977527, 32.2284073 ] } },
{ "type": "Feature", "properties": { "osm_id": 8631063724, "osm_type": "node", "name": "Chhyal", "tags": { "name": "Chhyal", "place": "village" } }, "geometry": { "type": "Point", "coordinates": [ 77.1854649, 32.2305686 ] } },
{ "type": "Feature", "properties": { "osm_id": 8631063727, "osm_type": "node", "name": "Chichoga", "tags": { "name": "Chichoga", "place": "village" } }, "geometry": { "type": "Point", "coordinates": [ 77.1952222, 32.2400917 ] } },
{ "type": "Feature", "properties": { "osm_id": 6115443410, "osm_type": "node", "name": "Siyal", "tags": { "name": "Siyal", "place": "village" } }, "geometry": { "type": "Point", "coordinates": [ 77.1854448, 32.2423608 ] } },
{ "type": "Feature", "properties": { "osm_id": 877072831, "osm_type": "node", "name": "Old Manali", "tags": { "name": "Old Manali", "name:hi": "पुरानि मनाली", "place": "village" } }, "geometry": { "type": "Point", "coordinates": [ 77.1765284, 32.2559253 ] } },
{ "type": "Feature", "properties": { "osm_id": 2298138328, "osm_type": "node", "name": "Vashisht", "tags": { "name": "Vashisht", "name:hi": "वशिष्ट", "name:ja": "ヴァシシュト", "place": "village", "wikidata": "Q24937462" } }, "geometry": { "type": "Point", "coordinates": [ 77.1875916, 32.2668589 ] } },
{ "type": "Feature", "properties": { "osm_id": 795847251, "osm_type": "node", "name": "Goshal", "tags": { "name": "Goshal", "place": "village" } }, "geometry": { "type": "Point", "coordinates": [ 77.1749407, 32.2739806 ] } },
{ "type": "Feature", "properties": { "osm_id": 864470967, "osm_type": "node", "name": "Bahang", "tags": { "name": "Bahang", "place": "village" } }, "geometry": { "type": "Point", "coordinates": [ 77.1811438, 32.2756255 ] } },
{ "type": "Feature", "properties": { "osm_id": 795826238, "osm_type": "node", "name": "Shanag", "tags": { "name": "Shanag", "place": "village" } }, "geometry": { "type": "Point", "coordinates": [ 77.1708259, 32.2816178 ] } },
{ "type": "Feature", "properties": { "osm_id": 10673915127, "osm_type": "node", "name": "Barheta", "tags": { "name": "Barheta", "place": "village" } }, "geometry": { "type": "Point", "coordinates": [ 77.1742022, 32.2856814 ] } },
{ "type": "Feature", "properties": { "osm_id": 9775442965, "osm_type": "node", "name": "Burwa", "tags": { "name": "Burwa", "place": "village" } }, "geometry": { "type": "Point", "coordinates": [ 77.1706724, 32.293953 ] } },
{ "type": "Feature", "properties": { "osm_id": 5596208529, "osm_type": "node", "name": "Kulang", "tags": { "name": "Kulang", "place": "village" } }, "geometry": { "type": "Point", "coordinates": [ 77.1836296, 32.3018343 ] } },
{ "type": "Feature", "properties": { "osm_id": 342116314, "osm_type": "node", "name": "Palchan", "tags": { "name": "Palchan", "place": "village" } }, "geometry": { "type": "Point", "coordinates": [ 77.1758334, 32.3095152 ] } },
{ "type": "Feature", "properties": { "osm_id": 7628627073, "osm_type": "node", "name": "Kothi", "tags": { "name": "Kothi", "place": "village" } }, "geometry": { "type": "Point", "coordinates": [ 77.1857426, 32.3144127 ] } },
{ "type": "Feature", "properties": { "osm_id": 402282690, "osm_type": "node", "name": "Solang Valley", "tags": { "name": "Solang Valley", "name:en": "Solang", "name:hi": "सोलांग", "place": "village" } }, "geometry": { "type": "Point", "coordinates": [ 77.1565572, 32.3160963 ] } }
]
}
