{
"type": "FeatureCollection",
"name": "mandi_Towns",
"crs": { "type": "name", "properties": { "name": "urn:ogc:def:crs:OGC:1.3:CRS84" } },
"features": [
{ "type": "Feature", "properties": { "osm_id": 2972388752, "osm_type": "node", "name": "Tattapani", "tags": { "name": "Tattapani", "place": "town", "wikidata": "Q7688385" } }, "geometry": { "type": "Point", "coordinates": [ 77.0878766, 31.2487174 ] } },
{ "type": "Feature", "properties": { "osm_id": 342116421, "osm_type": "node", "name": "Nerchowk", "tags": { "alt_name": "Ner Chowk", "name": "Nerchowk", "place": "town" } }, "geometry": { "type": "Point", "coordinates": [ 76.9142821, 31.6075891 ] } },
{ "type": "Feature", "properties": { "osm_id": 5122373892, "osm_type": "node", "name": "Balichowki", "tags": { "name": "Balichowki", "place": "town" } }, "geometry": { "type": "Point", "coordinates": [ 77.2797043, 31.6892002 ] } },
{ "type": "Feature", "properties": { "osm_id": 5118693983, "osm_type": "node", "name": "Padhar", "tags": { "name": "Padhar", "name:hi": "पधर", "place": "town" } }, "geometry": { "type": "Point", "coordinates": [ 76.9148453, 31.880768 ] } },
{ "type": "Feature", "properties": { "osm_id": 3066595122, "osm_type": "node", "name": "Sundarnagar", "tags": { "name": "Sundarnagar", "name:hi": "सुन्दरनगर", "place": "town" } }, "geometry": { "type": "Point", "coordinates": [ 76.8848915, 31.5181989 ] } },
{ "type": "Feature", "properties": { "osm_id": 1187799389, "osm_type": "node", "name": "Rewalsar", "tags": { "addr:postcode": "175023", "alt_name": "Tso Pema", "historic": "yes", "name": "Rewalsar", "place": "town", "population": "1369", "tourism": "yes", "wikidata": "Q2317112", "wikipedia": "en:Rewalsar, India" } }, "geometry": { "type": "Point", "coordinates": [ 76.8332983, 31.6324806 ] } },
{ "type": "Feature", "properties": { "osm_id": 4144993856, "osm_type": "node", "name": "Durgapur", "tags": { "addr:postcode": "175049", "name": "Durgapur", "name:hi": "दुर्गापुर", "name:pa": "ਦੁਰਗਾਪੁਰ", "place": "town" } }, "geometry": { "type": "Point", "coordinates": [ 76.8256984, 31.6583488 ] } },
{ "type": "Feature", "properties": { "osm_id": 2380803047, "osm_type": "node", "name": "Sarkaghat", "tags": { "name": "Sarkaghat", "place": "town", "wikidata": "Q2558713", "wikipedia": "en:Sarkaghat" } }, "geometry": { "type": "Point", "coordinates": [ 76.7377982, 31.6997882 ] } },
{ "type": "Feature", "properties": { "osm_id": 342118390, "osm_type": "node", "name": "Joginder Nagar", "tags": { "alt_name": "Jogindernagar", "name": "Joginder Nagar", "name:hi": "जोगिंदर नगर", "place": "town", "wikidata": "Q2087722", "wikipedia": "en:Jogindernagar" } }, "geometry": { "type": "Point", "coordinates": [ 76.7929928, 31.9901487 ] } },
{ "type": "Feature", "properties": { "osm_id": 342118380, "osm_type": "node", "name": "Chauntra", "tags": { "name": "Chauntra", "name:hi": "चौंतड़ा", "place": "town", "wikidata": "Q5088335" } }, "geometry": { "type": "Point", "coordinates": [ 76.735512, 32.0145466 ] } }
]
}
