{
"type": "FeatureCollection",
"name": "kullu_Hydropower_Stations",
"crs": { "type": "name", "properties": { "name": "urn:ogc:def:crs:OGC:1.3:CRS84" } },
"features": [
{ "type": "Feature", "properties": { "osm_id": 823477066, "osm_type": "way", "name": "Rampur Hydro Power Station", "tags": { "building": "industrial", "name": "Rampur Hydro Power Station", "plant:method": "run-of-the-river", "plant:output:electricity": "412 MW", "plant:source": "hydro", "power": "plant", "wikidata": "Q25378366" } }, "geometry": { "type": "Polygon", "coordinates": [ [ [ 77.5916754, 31.4002592 ], [ 77.5933407, 31.400235 ], [ 77.5933341, 31.3999049 ], [ 77.5916689, 31.3999291 ], [ 77.5916754, 31.4002592 ] ] ] } },
{ "type": "Feature", "properties": { "osm_id": 1102449049, "osm_type": "way", "name": null, "tags": { "building": "yes", "plant:source": "hydro", "power": "plant" } }, "geometry": { "type": "Polygon", "coordinates": [ [ [ 77.7004478, 31.5271136 ], [ 77.7002761, 31.5269627 ], [ 77.7000305, 31.5267833 ], [ 77.699832, 31.5267764 ], [ 77.6998454, 31.5270371 ], [ 77.7001834, 31.5272931 ], [ 77.7003551, 31.5271903 ], [ 77.7004478, 31.5271136 ] ] ] } },
{ "type": "Feature", "properties": { "osm_id": 1463419309, "osm_type": "way", "name": null, "tags": { "plant:source": "hydro", "power": "plant" } }, "geometry": { "type": "Polygon", "coordinates": [ [ [ 77.3829558, 31.773188 ], [ 77.3829666, 31.7729873 ], [ 77.3825642, 31.7730101 ], [ 77.3825642, 31.7731948 ], [ 77.3829558, 31.773188 ] ] ] } },
{ "type": "Feature", "properties": { "osm_id": 820186104, "osm_type": "way", "name": "Sainj Hydro Power Project", "tags": { "landuse": "industrial", "name": "Sainj Hydro Power Project", "operator": "Himachal Pradesh Power Corporation Limited", "plant:method": "run-of-the-river", "plant:output:electricity": "100 MW", "plant:source": "hydro", "power": "plant" } }, "geometry": { "type": "Polygon", "coordinates": [ [ [ 77.4079728, 31.7800216 ], [ 77.4081767, 31.779748 ], [ 77.4082625, 31.7794972 ], [ 77.4079192, 31.7793102 ], [ 77.4071628, 31.7790458 ], [ 77.4068677, 31.7794653 ], [ 77.4067497, 31.7797207 ], [ 77.4066263, 31.7799943 ], [ 77.4073076, 31.7802132 ], [ 77.4074256, 31.7803408 ], [ 77.4077529, 31.7803728 ], [ 77.4079728, 31.7800216 ] ] ] } },
{ "type": "Feature", "properties": { "osm_id": 823477064, "osm_type": "way", "name": "Parbati-II", "tags": { "name": "Parbati-II", "operator": "NHPC", "plant:method": "run-of-the-river", "plant:output:electricity": "800 MW", "plant:source": "hydro", "power": "plant", "source": "https://www.nsenergybusiness.com/projects/parbati-ii-hydroelectric-power-project/", "wikidata": "Q65199809" } }, "geometry": { "type": "Polygon", "coordinates": [ [ [ 77.3276842, 31.7831915 ], [ 77.327425, 31.7832978 ], [ 77.3271686, 31.7833596 ], [ 77.3278981, 31.7843354 ], [ 77.3284024, 31.7841576 ], [ 77.3279926, 31.7835874 ], [ 77.3276842, 31.7831915 ] ] ] } },
{ "type": "Feature", "properties": { "osm_id": 823477063, "osm_type": "way", "name": "Parbati-III", "tags": { "landuse": "industrial", "name": "Parbati-III", "operator": "NHPC", "plant:method": "water-storage", "plant:output:electricity": "520 MW", "plant:source": "hydro", "power": "plant", "source": "http://www.nhpcindia.com/Default.aspx?id=186&lg=eng&CatId=1&ProjectId=38", "wikidata": "Q65199767" } }, "geometry": { "type": "Polygon", "coordinates": [ [ [ 77.3317283, 31.7856168 ], [ 77.3319805, 31.7857353 ], [ 77.3321892, 31.7854647 ], [ 77.3319489, 31.7852871 ], [ 77.3317283, 31.7856168 ] ] ] } },
{ "type": "Feature", "properties": { "osm_id": 1468709559, "osm_type": "way", "name": null, "tags": { "plant:source": "hydro", "power": "plant" } }, "geometry": { "type": "Polygon", "coordinates": [ [ [ 77.3299634, 31.7861617 ], [ 77.3299178, 31.7860728 ], [ 77.3297703, 31.7861503 ], [ 77.3298159, 31.7862324 ], [ 77.3299634, 31.7861617 ] ] ] } },
{ "type": "Feature", "properties": { "osm_id": 1468709557, "osm_type": "way", "name": null, "tags": { "plant:source": "hydro", "power": "plant" } }, "geometry": { "type": "Polygon", "coordinates": [ [ [ 77.0655513, 31.9601068 ], [ 77.0656478, 31.9598451 ], [ 77.0652562, 31.9597495 ], [ 77.0651624, 31.9600226 ], [ 77.0655513, 31.9601068 ] ] ] } },
{ "type": "Feature", "properties": { "osm_id": 1468709558, "osm_type": "way", "name": null, "tags": { "plant:source": "hydro", "power": "plant" } }, "geometry": { "type": "Polygon", "coordinates": [ [ [ 77.090418, 31.9668652 ], [ 77.0905977, 31.9668379 ], [ 77.0905817, 31.9666081 ], [ 77.0903751, 31.9664943 ], [ 77.0901686, 31.9662667 ], [ 77.0899835, 31.96636 ], [ 77.0900908, 31.9665421 ], [ 77.0901793, 31.9667764 ], [ 77.0902812, 31.9668538 ], [ 77.090418, 31.9668652 ] ] ] } },
{ "type": "Feature", "properties": { "osm_id": 1177290846, "osm_type": "way", "name": null, "tags": { "plant:method": "run-of-the-river", "plant:output:electricity": "2 MW", "plant:source": "hydro", "power": "plant" } }, "geometry": { "type": "Polygon", "coordinates": [ [ [ 77.0575865, 31.9675012 ], [ 77.0575677, 31.9673112 ], [ 77.0571747, 31.9673521 ], [ 77.0572069, 31.9675228 ], [ 77.0575865, 31.9675012 ] ] ] } },
{ "type": "Feature", "properties": { "osm_id": 1468709556, "osm_type": "way", "name": null, "tags": { "plant:source": "hydro", "power": "plant" } }, "geometry": { "type": "Polygon", "coordinates": [ [ [ 77.0299396, 31.9914437 ], [ 77.0301059, 31.99138 ], [ 77.0303097, 31.9910206 ], [ 77.030181, 31.9908181 ], [ 77.0299557, 31.99085 ], [ 77.0297089, 31.9910638 ], [ 77.0293468, 31.9913095 ], [ 77.0290893, 31.9915802 ], [ 77.0290518, 31.9917304 ], [ 77.0293736, 31.9915484 ], [ 77.029489, 31.9914938 ], [ 77.0296311, 31.9915052 ], [ 77.0299396, 31.9914437 ] ] ] } },
{ "type": "Feature", "properties": { "osm_id": 191046676, "osm_type": "way", "name": "Malana Hydroelectric Power Plant", "tags": { "name": "Malana Hydroelectric Power Plant", "operator": "Malana Power Company Limited", "plant:source": "hydro", "power": "plant", "source": "http://www.malanapower.com", "wikidata": "Q65199797" } }, "geometry": { "type": "Polygon", "coordinates": [ [ [ 77.2497816, 32.0043091 ], [ 77.2498349, 32.0039013 ], [ 77.2484299, 32.003808 ], [ 77.2483657, 32.004231 ], [ 77.2497816, 32.0043091 ] ] ] } },
{ "type": "Feature", "properties": { "osm_id": 199104528, "osm_type": "way", "name": "MALANA", "tags": { "name": "MALANA", "plant:source": "hydro", "power": "plant", "waterway": "weir" } }, "geometry": { "type": "Polygon", "coordinates": [ [ [ 77.2757158, 32.0806883 ], [ 77.2747716, 32.081211 ], [ 77.2747822, 32.081652 ], [ 77.2753617, 32.081161 ], [ 77.2761769, 32.0808702 ], [ 77.2757158, 32.0806883 ] ] ] } },
{ "type": "Feature", "properties": { "osm_id": 1283657507, "osm_type": "way", "name": "K.K.K. Hydro Power Limited", "tags": { "name": "K.K.K. Hydro Power Limited", "plant:output:electricity": "yes", "plant:source": "hydro", "power": "plant" } }, "geometry": { "type": "Polygon", "coordinates": [ [ [ 77.1474902, 32.1310224 ], [ 77.1476554, 32.1309827 ], [ 77.1476603, 32.1309159 ], [ 77.147579, 32.1306362 ], [ 77.1476061, 32.1305298 ], [ 77.1475617, 32.1303753 ], [ 77.147229, 32.1303607 ], [ 77.1470737, 32.1303983 ], [ 77.147192, 32.1304818 ], [ 77.1472783, 32.1306216 ], [ 77.1474335, 32.1309765 ], [ 77.1474902, 32.1310224 ] ] ] } },
{ "type": "Feature", "properties": { "osm_id": 1283656693, "osm_type": "way", "name": "Kanchanjunga Hydro Electric Project", "tags": { "name": "Kanchanjunga Hydro Electric Project", "plant:output:electricity": "24 MW", "plant:source": "hydro", "power": "plant" } }, "geometry": { "type": "Polygon", "coordinates": [ [ [ 77.1312347, 32.1435542 ], [ 77.1314591, 32.1434991 ], [ 77.1314819, 32.1432926 ], [ 77.1316185, 32.1430557 ], [ 77.1315632, 32.1429291 ], [ 77.1309823, 32.1430536 ], [ 77.1309582, 32.1431769 ], [ 77.1310753, 32.1435156 ], [ 77.1312347, 32.1435542 ] ] ] } },
{ "type": "Feature", "properties": { "osm_id": 9567062291, "osm_type": "node", "name": "Allian Duhangan Hydroelectric Power Plant", "tags": { "fixme": "position", "location": "underground", "name": "Allian Duhangan Hydroelectric Power Plant", "operator": "ADHPL", "plant:output:electricity": "192 MW", "plant:source": "hydro", "power": "plant", "wikidata": "Q65199756" } }, "geometry": { "type": "Point", "coordinates": [ 77.2065604, 32.2251954 ] } },
{ "type": "Feature", "properties": { "osm_id": 1463999933, "osm_type": "way", "name": "ALLAIN DUHANGAN", "tags": { "name": "ALLAIN DUHANGAN", "plant:source": "hydro", "power": "plant" } }, "geometry": { "type": "Polygon", "coordinates": [ [ [ 77.206952, 32.2258988 ], [ 77.2072068, 32.2256901 ], [ 77.2070056, 32.2255653 ], [ 77.2067884, 32.2257808 ], [ 77.206952, 32.2258988 ] ] ] } },
{ "type": "Feature", "properties": { "osm_id": 1468709562, "osm_type": "way", "name": null, "tags": { "plant:source": "hydro", "power": "plant" } }, "geometry": { "type": "Polygon", "coordinates": [ [ [ 77.1941847, 32.2260871 ], [ 77.1943107, 32.2257513 ], [ 77.194131, 32.2257105 ], [ 77.1940076, 32.2260554 ], [ 77.1941847, 32.2260871 ] ] ] } },
{ "type": "Feature", "properties": { "osm_id": 1463217353, "osm_type": "way", "name": null, "tags": { "plant:source": "hydro", "power": "plant" } }, "geometry": { "type": "Polygon", "coordinates": [ [ [ 77.1979719, 32.2267497 ], [ 77.1980739, 32.2268291 ], [ 77.1982777, 32.2267179 ], [ 77.1982428, 32.2265954 ], [ 77.1980739, 32.2266181 ], [ 77.1980202, 32.2265228 ], [ 77.1978137, 32.2266884 ], [ 77.1977976, 32.2267701 ], [ 77.1979719, 32.2267497 ] ] ] } },
{ "type": "Feature", "properties": { "osm_id": 489244100, "osm_type": "way", "name": "Allain Duhangan Hydro Project", "tags": { "area": "yes", "name": "Allain Duhangan Hydro Project", "plant:source": "hydro", "power": "plant", "waterway": "dam" } }, "geometry": { "type": "Polygon", "coordinates": [ [ [ 77.2401374, 32.2599269 ], [ 77.240316, 32.2598234 ], [ 77.2405609, 32.2599729 ], [ 77.2406065, 32.2600097 ], [ 77.2405581, 32.2601832 ], [ 77.2405525, 32.2602488 ], [ 77.2406056, 32.2603029 ], [ 77.2406642, 32.2603122 ], [ 77.2409704, 32.2602725 ], [ 77.2408015, 32.2599527 ], [ 77.2407129, 32.2598665 ], [ 77.2403857, 32.2596556 ], [ 77.2399753, 32.2598914 ], [ 77.2398251, 32.2599822 ], [ 77.2398573, 32.2600956 ], [ 77.2398788, 32.2604789 ], [ 77.2399431, 32.2605288 ], [ 77.2399539, 32.260649 ], [ 77.2399823, 32.2606714 ], [ 77.2402176, 32.2602974 ], [ 77.2402035, 32.260225 ], [ 77.240017, 32.2599967 ], [ 77.2401374, 32.2599269 ] ] ] } },
{ "type": "Feature", "properties": { "osm_id": 582021627, "osm_type": "way", "name": null, "tags": { "building": "yes", "plant:source": "hydro", "power": "plant" } }, "geometry": { "type": "Polygon", "coordinates": [ [ [ 77.1749107, 32.3091745 ], [ 77.1752509, 32.3089629 ], [ 77.1751352, 32.30883 ], [ 77.174795, 32.3090415 ], [ 77.1749107, 32.3091745 ] ] ] } },
{ "type": "Feature", "properties": { "osm_id": 579968919, "osm_type": "way", "name": "Solang Hydro Power Station", "tags": { "building": "yes", "name": "Solang Hydro Power Station", "plant:source": "hydro", "power": "plant" } }, "geometry": { "type": "Polygon", "coordinates": [ [ [ 77.1540742, 32.3202109 ], [ 77.1541737, 32.3200881 ], [ 77.1539268, 32.3199453 ], [ 77.1538273, 32.3200681 ], [ 77.1540742, 32.3202109 ] ] ] } }
]
}
