{
"type": "FeatureCollection",
"name": "kullu_Transmission_Lines",
"crs": { "type": "name", "properties": { "name": "urn:ogc:def:crs:OGC:1.3:CRS84" } },
"features": [
{ "type": "Feature", "properties": { "osm_id": 176197628, "osm_type": "way", "name": null, "tags": { "cables": "6", "circuits": "2", "frequency": "50", "power": "line", "voltage": "400000" } }, "geometry": { "type": "LineString", "coordinates": [ [ 77.630410956675235, 31.406002080424251 ], [ 77.6279143, 31.4046085 ], [ 77.6261587, 31.4036286 ], [ 77.6243868, 31.4026246 ], [ 77.6221827, 31.4011322 ], [ 77.6203956, 31.3999131 ], [ 77.615655, 31.3946168 ], [ 77.613315270254205, 31.39204000046011 ] ] } },
{ "type": "Feature", "properties": { "osm_id": 330387970, "osm_type": "way", "name": null, "tags": { "cables": "6", "power": "line", "voltage": "220000" } }, "geometry": { "type": "MultiLineString", "coordinates": [ [ [ 77.447551802281481, 31.342677577524277 ], [ 77.447951117276673, 31.342880953748843 ] ], [ [ 77.456006067804154, 31.347441678231313 ], [ 77.4562354, 31.3475822 ], [ 77.4586023, 31.3491513 ], [ 77.4656407, 31.3530498 ], [ 77.4693418, 31.3534793 ], [ 77.4728181, 31.3538735 ], [ 77.4752412, 31.3542196 ], [ 77.4818536, 31.3573322 ], [ 77.4835071, 31.355883 ], [ 77.487719030964058, 31.353836847897615 ] ], [ [ 77.530891776669336, 31.352565714766126 ], [ 77.532507177487872, 31.353533750001031 ] ], [ [ 77.564383574546866, 31.388109836706615 ], [ 77.5707744, 31.3900364 ], [ 77.572304, 31.3904759 ], [ 77.5759342, 31.3924357 ], [ 77.5789992, 31.3947667 ], [ 77.5822329, 31.3948298 ], [ 77.5860554, 31.3948955 ], [ 77.5913453, 31.3949005 ], [ 77.59154211385497, 31.394918784542938 ] ], [ [ 77.601159211416004, 31.395620769143516 ], [ 77.6014606, 31.395643 ], [ 77.6082475, 31.3984285 ], [ 77.6095079, 31.3990118 ], [ 77.6127741, 31.4024739 ], [ 77.6151706, 31.4033527 ], [ 77.619787, 31.4062193 ], [ 77.6219246, 31.4097366 ], [ 77.622642, 31.4112256 ], [ 77.6248333, 31.4157742 ], [ 77.6255288, 31.4173422 ], [ 77.625565642292358, 31.417428997797572 ] ] ] } },
{ "type": "Feature", "properties": { "osm_id": 1026769333, "osm_type": "way", "name": null, "tags": { "cables": "6", "power": "line", "voltage": "400000" } }, "geometry": { "type": "LineString", "coordinates": [ [ 77.602948202216226, 31.39519961839175 ], [ 77.6093784, 31.3979338 ] ] } },
{ "type": "Feature", "properties": { "osm_id": 1463419119, "osm_type": "way", "name": null, "tags": { "power": "line" } }, "geometry": { "type": "LineString", "coordinates": [ [ 77.63388416615031, 31.39588621029182 ], [ 77.6307678, 31.395178 ], [ 77.6229036, 31.398484 ], [ 77.6187515, 31.3991159 ], [ 77.6157689, 31.3995921 ] ] } },
{ "type": "Feature", "properties": { "osm_id": 1026769336, "osm_type": "way", "name": null, "tags": { "cables": "6", "power": "line", "voltage": "400000" } }, "geometry": { "type": "LineString", "coordinates": [ [ 77.5917605, 31.4012465 ], [ 77.5916325, 31.402656 ], [ 77.5924553, 31.4048048 ], [ 77.5929873, 31.4054797 ], [ 77.5963596, 31.4057725 ], [ 77.6001739, 31.403723 ], [ 77.6012496, 31.4026113 ], [ 77.6049708, 31.3999215 ], [ 77.6073779, 31.3993507 ], [ 77.6095467, 31.3986063 ], [ 77.6124913, 31.4005087 ], [ 77.6153783, 31.402805 ], [ 77.6197919, 31.405042 ], [ 77.6219002, 31.4063495 ], [ 77.6228913, 31.4087534 ], [ 77.6256753, 31.4154824 ], [ 77.625860406940944, 31.416515576910275 ] ] } },
{ "type": "Feature", "properties": { "osm_id": 330268007, "osm_type": "way", "name": null, "tags": { "cables": "6", "power": "line", "voltage": "400000" } }, "geometry": { "type": "MultiLineString", "coordinates": [ [ [ 77.388070192840303, 31.362447720017379 ], [ 77.3890247, 31.3618992 ], [ 77.39043576224185, 31.360090845744256 ] ], [ [ 77.428622634694705, 31.343007064831614 ], [ 77.4299361, 31.3427796 ], [ 77.433292995486056, 31.342320274341908 ] ], [ [ 77.581721327998679, 31.390467421383164 ], [ 77.5825252, 31.3913408 ], [ 77.5835671, 31.3924337 ], [ 77.586283925307654, 31.392538099583451 ] ], [ [ 77.595487554247114, 31.39532465759331 ], [ 77.5955224, 31.3957699 ], [ 77.5940223, 31.4001994 ], [ 77.59389, 31.4011771 ] ] ] } },
{ "type": "Feature", "properties": { "osm_id": 1370096778, "osm_type": "way", "name": null, "tags": { "cables": "6", "power": "line", "voltage": "400000" } }, "geometry": { "type": "LineString", "coordinates": [ [ 77.2402872, 31.7433295 ], [ 77.2402105, 31.7431898 ], [ 77.2400995, 31.7429874 ] ] } },
{ "type": "Feature", "properties": { "osm_id": 330412390, "osm_type": "way", "name": null, "tags": { "cables": "6", "power": "line", "voltage": "400000" } }, "geometry": { "type": "LineString", "coordinates": [ [ 77.2455567, 31.7598252 ], [ 77.2449692, 31.7594971 ], [ 77.2449592, 31.7588345 ], [ 77.2463267, 31.7568509 ], [ 77.2447211, 31.7510458 ], [ 77.2396158, 31.7476027 ], [ 77.2390276, 31.7455244 ], [ 77.2400235, 31.7432717 ], [ 77.2402105, 31.7431898 ] ] } },
{ "type": "Feature", "properties": { "osm_id": 330268012, "osm_type": "way", "name": null, "tags": { "cables": "6", "power": "line", "voltage": "132000" } }, "geometry": { "type": "LineString", "coordinates": [ [ 77.173503320026811, 31.839800491544114 ], [ 77.173339, 31.8424122 ], [ 77.1722822, 31.8441918 ], [ 77.1703564, 31.8471948 ], [ 77.169646, 31.8491309 ], [ 77.1684427, 31.8499786 ], [ 77.1675642, 31.8505975 ] ] } },
{ "type": "Feature", "properties": { "osm_id": 210540840, "osm_type": "way", "name": null, "tags": { "cables": "6", "power": "line", "voltage": "220000" } }, "geometry": { "type": "MultiLineString", "coordinates": [ [ [ 77.198132730547471, 31.786807522382446 ], [ 77.1981267, 31.7870042 ], [ 77.1973515, 31.7915617 ], [ 77.1963403, 31.7934197 ], [ 77.196312085020537, 31.79348183276343 ] ], [ [ 77.192442479567859, 31.803844276157761 ], [ 77.1921427, 31.805211 ], [ 77.1925128, 31.808083 ], [ 77.191861, 31.8102689 ], [ 77.1924377, 31.8119306 ], [ 77.1914024, 31.8139454 ], [ 77.1917859, 31.8154839 ], [ 77.1918718, 31.8180776 ], [ 77.1919898, 31.8209197 ], [ 77.1925101, 31.8231828 ], [ 77.193001, 31.8251495 ], [ 77.1917001, 31.8278227 ], [ 77.1911878, 31.8298099 ], [ 77.1903643, 31.8320545 ], [ 77.1900103, 31.8333535 ], [ 77.1904663, 31.8355821 ], [ 77.1918342, 31.8368308 ], [ 77.1917001, 31.8381752 ], [ 77.1890393, 31.8391778 ], [ 77.1880711, 31.840586 ], [ 77.1891225, 31.8424863 ], [ 77.1907104, 31.8436552 ], [ 77.1922151, 31.8442567 ], [ 77.196166, 31.8463073 ], [ 77.2012809, 31.8488637 ], [ 77.2026462, 31.8511535 ], [ 77.2024182, 31.8552339 ], [ 77.2026783, 31.8592594 ], [ 77.202217, 31.8629248 ], [ 77.2023243, 31.8656538 ], [ 77.2005379, 31.8712939 ], [ 77.1986818, 31.8769337 ], [ 77.1967024, 31.879972 ], [ 77.1937868, 31.882318 ], [ 77.1924457, 31.8845909 ], [ 77.192317, 31.8872123 ], [ 77.1917135, 31.8899816 ], [ 77.1895301, 31.8920882 ], [ 77.1884787, 31.894058 ], [ 77.1875775, 31.8961963 ], [ 77.1864107, 31.8976947 ], [ 77.1846324, 31.9006687 ], [ 77.1831948, 31.9024721 ], [ 77.181969, 31.9038497 ], [ 77.1818188, 31.9047901 ], [ 77.1814701, 31.9064114 ], [ 77.1801559, 31.909146 ], [ 77.1801022, 31.9114342 ], [ 77.1800553, 31.912101 ], [ 77.1773958, 31.9170146 ], [ 77.1761486, 31.9193903 ], [ 77.1749684, 31.9218171 ], [ 77.1738017, 31.9224386 ], [ 77.1695531, 31.9213709 ], [ 77.1670157, 31.9210704 ], [ 77.162472, 31.9206515 ], [ 77.1592614, 31.9209725 ], [ 77.1566758, 31.921462 ], [ 77.1550611, 31.922532 ], [ 77.151762, 31.9240686 ], [ 77.1505979, 31.9266274 ], [ 77.1499327, 31.9299988 ], [ 77.1496162, 31.9327486 ], [ 77.1485701, 31.9354164 ], [ 77.1479157, 31.936773 ], [ 77.1467516, 31.9401099 ], [ 77.143254, 31.941512 ], [ 77.1407354, 31.9439519 ], [ 77.1388284, 31.9448874 ], [ 77.137093, 31.9458911 ], [ 77.1334183, 31.9485221 ], [ 77.1307308, 31.9499195 ], [ 77.1299932, 31.9521658 ], [ 77.1306101, 31.9541753 ], [ 77.1305323, 31.956467 ], [ 77.1313825, 31.9580873 ], [ 77.1330696, 31.9610502 ], [ 77.1329704, 31.9622494 ], [ 77.1333996, 31.9651006 ], [ 77.1339548, 31.9670166 ], [ 77.1361005, 31.9715993 ], [ 77.1370661, 31.973217 ], [ 77.138764, 31.9761225 ], [ 77.1398851, 31.9784023 ], [ 77.1407434, 31.9791258 ], [ 77.1404082, 31.9818833 ], [ 77.1390134, 31.9828297 ], [ 77.1383992, 31.9857941 ], [ 77.1380532, 31.9877278 ], [ 77.1380425, 31.9896501 ], [ 77.1389625, 31.9909377 ], [ 77.139633, 31.9926711 ], [ 77.1400434, 31.9950119 ], [ 77.1402419, 31.9960241 ], [ 77.1407139, 31.9989881 ], [ 77.1406979, 32.0022772 ], [ 77.1405557, 32.0047655 ], [ 77.1411525, 32.0078793 ], [ 77.1413966, 32.0100537 ], [ 77.1416862, 32.0108827 ], [ 77.1409969, 32.0134504 ], [ 77.1400367, 32.0154336 ], [ 77.1402298, 32.0178283 ], [ 77.1400206, 32.0201162 ], [ 77.1416862, 32.0252147 ], [ 77.1419116, 32.026388 ], [ 77.1418284, 32.0284505 ], [ 77.139739, 32.0313202 ], [ 77.1393179, 32.0328732 ], [ 77.1392696, 32.0344876 ], [ 77.1393474, 32.035911 ], [ 77.1392803, 32.0385803 ], [ 77.1386795, 32.0404038 ], [ 77.1387412, 32.0433436 ], [ 77.1387224, 32.0455171 ], [ 77.1388082, 32.0483885 ], [ 77.1387814, 32.050646 ], [ 77.1380331, 32.0531171 ], [ 77.137966, 32.0550062 ], [ 77.1383388, 32.0597732 ], [ 77.1380814, 32.0632056 ], [ 77.137223, 32.0654854 ], [ 77.1360965, 32.0686176 ], [ 77.1364023, 32.069595 ], [ 77.1367885, 32.0716019 ], [ 77.1376039, 32.0722451 ], [ 77.1386956, 32.0736657 ], [ 77.1389611, 32.0766953 ], [ 77.1392374, 32.078018 ], [ 77.1406885, 32.0787612 ], [ 77.1419893, 32.0797475 ], [ 77.1421798, 32.0809861 ], [ 77.1423327, 32.0821951 ], [ 77.1434646, 32.0845632 ], [ 77.1436523, 32.0861107 ], [ 77.1429818, 32.0894444 ], [ 77.1436872, 32.0920009 ], [ 77.1454708, 32.093746 ], [ 77.1472921, 32.095657 ], [ 77.1488585, 32.0975453 ], [ 77.1499019, 32.0992244 ], [ 77.1511491, 32.1009899 ], [ 77.1523775, 32.1019737 ], [ 77.1543838, 32.1035551 ], [ 77.1564491, 32.106327 ], [ 77.1564572, 32.1085478 ], [ 77.1576508, 32.1113491 ], [ 77.1574335, 32.1124668 ], [ 77.1578331, 32.1144706 ], [ 77.1577768, 32.1158314 ], [ 77.1586673, 32.1184916 ], [ 77.1594586, 32.1215424 ], [ 77.1605583, 32.1242751 ], [ 77.1620388, 32.1259584 ], [ 77.1635811, 32.1278755 ], [ 77.1651234, 32.1295654 ], [ 77.166199, 32.1314393 ], [ 77.1680443, 32.1335699 ], [ 77.1693505, 32.135078 ], [ 77.1707426, 32.1365952 ], [ 77.1708338, 32.1390095 ], [ 77.1710859, 32.1403859 ], [ 77.1731727, 32.1411058 ], [ 77.1747498, 32.1431385 ], [ 77.1773274, 32.1441309 ], [ 77.1787892, 32.1466381 ], [ 77.1788295, 32.1486593 ], [ 77.1788912, 32.1502308 ], [ 77.1805112, 32.1525675 ], [ 77.1813856, 32.1549008 ], [ 77.1827347, 32.1572692 ], [ 77.1836091, 32.1595694 ], [ 77.1846793, 32.1622057 ], [ 77.1854733, 32.1638632 ], [ 77.1862377, 32.1654934 ], [ 77.1868358, 32.1684042 ], [ 77.1872972, 32.1703522 ], [ 77.1874581, 32.1720414 ], [ 77.1878846, 32.1740824 ], [ 77.1884854, 32.175767 ], [ 77.1888153, 32.1774265 ], [ 77.1919508, 32.1796513 ], [ 77.1929861, 32.1817126 ], [ 77.1942763, 32.1843845 ], [ 77.1957193, 32.1867181 ], [ 77.1968646, 32.1892196 ], [ 77.1966474, 32.1913125 ], [ 77.1966259, 32.193167 ], [ 77.1969692, 32.1946015 ], [ 77.1981601, 32.1974796 ], [ 77.1978436, 32.1990025 ], [ 77.1979885, 32.2019553 ], [ 77.1979804, 32.2039276 ], [ 77.1980233, 32.2055004 ], [ 77.1982808, 32.2075657 ], [ 77.1993403, 32.209379 ], [ 77.2000833, 32.2101143 ], [ 77.2013949, 32.210491 ], [ 77.2027333, 32.2104683 ], [ 77.2035567, 32.2118186 ], [ 77.2046967, 32.2143239 ], [ 77.2053538, 32.2162256 ], [ 77.205048, 32.2176961 ], [ 77.2059171, 32.218783 ], [ 77.2067486, 32.2198609 ], [ 77.2074003, 32.2218804 ], [ 77.2067083, 32.223521 ], [ 77.2064321, 32.2244195 ] ] ] } },
{ "type": "Feature", "properties": { "osm_id": 781944206, "osm_type": "way", "name": null, "tags": { "cables": "6", "power": "line", "voltage": "400000" } }, "geometry": { "type": "LineString", "coordinates": [ [ 77.3251516, 31.7745037 ], [ 77.3283166, 31.7756711 ], [ 77.3310739, 31.7802451 ], [ 77.3317712, 31.7807877 ], [ 77.3312831, 31.781873 ] ] } },
{ "type": "Feature", "properties": { "osm_id": 781944205, "osm_type": "way", "name": null, "tags": { "cables": "3", "power": "line", "voltage": "400000" } }, "geometry": { "type": "LineString", "coordinates": [ [ 77.3312831, 31.781873 ], [ 77.3303658, 31.7827759 ] ] } },
{ "type": "Feature", "properties": { "osm_id": 781944204, "osm_type": "way", "name": null, "tags": { "cables": "3", "power": "line", "voltage": "400000" } }, "geometry": { "type": "LineString", "coordinates": [ [ 77.3312831, 31.781873 ], [ 77.3312241, 31.7826209 ], [ 77.3303658, 31.7827759 ] ] } },
{ "type": "Feature", "properties": { "osm_id": 781944203, "osm_type": "way", "name": null, "tags": { "cables": "6", "power": "line", "voltage": "400000" } }, "geometry": { "type": "LineString", "coordinates": [ [ 77.3303658, 31.7827759 ], [ 77.3277318, 31.7834098 ], [ 77.3276593, 31.7834489 ] ] } },
{ "type": "Feature", "properties": { "osm_id": 1370096428, "osm_type": "way", "name": null, "tags": { "cables": "3", "power": "line", "voltage": "400000" } }, "geometry": { "type": "LineString", "coordinates": [ [ 77.3278017, 31.7835285 ], [ 77.3277362, 31.7835488 ] ] } },
{ "type": "Feature", "properties": { "osm_id": 781944202, "osm_type": "way", "name": null, "tags": { "cables": "6", "power": "line", "voltage": "400000" } }, "geometry": { "type": "LineString", "coordinates": [ [ 77.3312241, 31.7826209 ], [ 77.331892, 31.7848804 ], [ 77.3322581, 31.7851308 ] ] } },
{ "type": "Feature", "properties": { "osm_id": 1370096423, "osm_type": "way", "name": null, "tags": { "cables": "3", "power": "line", "voltage": "400000" } }, "geometry": { "type": "LineString", "coordinates": [ [ 77.3324526, 31.785145 ], [ 77.3323225, 31.7850687 ] ] } },
{ "type": "Feature", "properties": { "osm_id": 1370096424, "osm_type": "way", "name": null, "tags": { "cables": "3", "power": "line", "voltage": "11000" } }, "geometry": { "type": "LineString", "coordinates": [ [ 77.3324062, 31.7850871 ], [ 77.3324526, 31.785145 ] ] } },
{ "type": "Feature", "properties": { "osm_id": 330412387, "osm_type": "way", "name": null, "tags": { "cables": "3", "power": "line", "voltage": "400000" } }, "geometry": { "type": "LineString", "coordinates": [ [ 77.209244533049088, 31.762489210332511 ], [ 77.2093584, 31.7625102 ], [ 77.2129392, 31.7630598 ], [ 77.2151854, 31.7623132 ], [ 77.217724, 31.7613822 ], [ 77.220678, 31.7597297 ], [ 77.2236117, 31.7581366 ], [ 77.2278079, 31.7598345 ], [ 77.2372897, 31.7607685 ], [ 77.2409092, 31.7609841 ], [ 77.2421534, 31.7614679 ], [ 77.2438065, 31.7603693 ], [ 77.2455567, 31.7598252 ], [ 77.2501391, 31.758196 ], [ 77.2572895, 31.7596825 ], [ 77.261676, 31.7629137 ], [ 77.269308, 31.7652546 ], [ 77.2733206, 31.7655602 ], [ 77.2797471, 31.7660163 ], [ 77.2820967, 31.7659433 ], [ 77.2893307, 31.772472 ], [ 77.2935981, 31.7743441 ], [ 77.2950791, 31.7744707 ], [ 77.3029005, 31.7751548 ], [ 77.3099654, 31.7740808 ], [ 77.3123955, 31.7743955 ], [ 77.3146593, 31.7747557 ], [ 77.3227054, 31.7733932 ], [ 77.3251516, 31.7745037 ] ] } },
{ "type": "Feature", "properties": { "osm_id": 418309779, "osm_type": "way", "name": null, "tags": { "cables": "3", "power": "line", "voltage": "400000" } }, "geometry": { "type": "LineString", "coordinates": [ [ 77.20768611367366, 31.766452768974897 ], [ 77.208475, 31.7661498 ], [ 77.2122337, 31.7647063 ], [ 77.2139423, 31.7652103 ], [ 77.2173004, 31.7658465 ], [ 77.2204869, 31.7644828 ], [ 77.2244453, 31.7650904 ], [ 77.2279215, 31.7668327 ], [ 77.2304803, 31.7679911 ], [ 77.2332269, 31.7682602 ], [ 77.2348148, 31.7685521 ], [ 77.2404742, 31.7696239 ], [ 77.2439933, 31.7698565 ], [ 77.247802, 31.7694186 ], [ 77.2513318, 31.7689534 ], [ 77.2569752, 31.7726065 ], [ 77.2619802, 31.7749415 ], [ 77.266261, 31.7764829 ], [ 77.2686535, 31.7768203 ], [ 77.2719687, 31.7740431 ], [ 77.2821879, 31.7733544 ], [ 77.2866391, 31.7754738 ], [ 77.2946983, 31.7762721 ], [ 77.3014682, 31.7767327 ], [ 77.3090856, 31.7758434 ], [ 77.3147236, 31.775889 ], [ 77.3165716, 31.7765275 ], [ 77.319991, 31.77672 ], [ 77.3231023, 31.7748959 ], [ 77.3251516, 31.7745037 ] ] } },
{ "type": "Feature", "properties": { "osm_id": 1370096419, "osm_type": "way", "name": null, "tags": { "cables": "6", "power": "line", "voltage": "400000" } }, "geometry": { "type": "LineString", "coordinates": [ [ 77.327775, 31.7835992 ], [ 77.3277362, 31.7835488 ], [ 77.3276873, 31.7834853 ], [ 77.3276593, 31.7834489 ], [ 77.3275819, 31.7833484 ] ] } },
{ "type": "Feature", "properties": { "osm_id": 1370096430, "osm_type": "way", "name": null, "tags": { "cables": "3", "power": "line", "voltage": "400000" } }, "geometry": { "type": "LineString", "coordinates": [ [ 77.3277561, 31.7834624 ], [ 77.3276873, 31.7834853 ] ] } },
{ "type": "Feature", "properties": { "osm_id": 1370096429, "osm_type": "way", "name": null, "tags": { "cables": "3", "power": "line", "voltage": "11000" } }, "geometry": { "type": "LineString", "coordinates": [ [ 77.3276705, 31.7835284 ], [ 77.3277561, 31.7834624 ] ] } },
{ "type": "Feature", "properties": { "osm_id": 1370096420, "osm_type": "way", "name": null, "tags": { "cables": "6", "power": "line", "voltage": "400000" } }, "geometry": { "type": "LineString", "coordinates": [ [ 77.3320825, 31.7853 ], [ 77.33217, 31.7852157 ], [ 77.3322581, 31.7851308 ], [ 77.3323225, 31.7850687 ], [ 77.3324231, 31.7849717 ] ] } },
{ "type": "Feature", "properties": { "osm_id": 1370096421, "osm_type": "way", "name": null, "tags": { "cables": "6", "power": "line", "voltage": "11000" } }, "geometry": { "type": "LineString", "coordinates": [ [ 77.3321469, 31.7853411 ], [ 77.3322569, 31.7852334 ], [ 77.3324062, 31.7850871 ], [ 77.3324821, 31.7850128 ] ] } },
{ "type": "Feature", "properties": { "osm_id": 1370096422, "osm_type": "way", "name": null, "tags": { "cables": "3", "power": "line", "voltage": "400000" } }, "geometry": { "type": "LineString", "coordinates": [ [ 77.33217, 31.7852157 ], [ 77.3323024, 31.7852955 ] ] } },
{ "type": "Feature", "properties": { "osm_id": 1370096425, "osm_type": "way", "name": null, "tags": { "cables": "3", "power": "line", "voltage": "11000" } }, "geometry": { "type": "LineString", "coordinates": [ [ 77.3323024, 31.7852955 ], [ 77.3322569, 31.7852334 ] ] } },
{ "type": "Feature", "properties": { "osm_id": 1099459972, "osm_type": "way", "name": null, "tags": { "cables": "6", "power": "line", "voltage": "220000" } }, "geometry": { "type": "LineString", "coordinates": [ [ 77.1820138, 31.9090984 ], [ 77.1820397, 31.909024 ], [ 77.1821576, 31.9084992 ], [ 77.1823159, 31.9076727 ], [ 77.1841907, 31.9071581 ], [ 77.184974, 31.9071558 ], [ 77.1864599, 31.9069372 ], [ 77.1878198, 31.9059263 ], [ 77.1889248, 31.9040796 ], [ 77.1920335, 31.9015908 ], [ 77.1926934, 31.9001198 ], [ 77.1937045, 31.8965424 ], [ 77.1939111, 31.8950394 ], [ 77.1937019, 31.8927303 ], [ 77.1929938, 31.8897515 ], [ 77.192983, 31.8872281 ], [ 77.1933746, 31.8861942 ], [ 77.1970251, 31.8804571 ], [ 77.201153, 31.877544 ], [ 77.2012657, 31.873722 ], [ 77.2017109, 31.8717129 ], [ 77.2031593, 31.8659226 ], [ 77.2031701, 31.8649795 ], [ 77.2040981, 31.8624008 ], [ 77.2036985, 31.8596898 ], [ 77.2047365, 31.8582637 ], [ 77.2052541, 31.8552839 ], [ 77.2050852, 31.8490322 ], [ 77.2029528, 31.8443147 ], [ 77.2008231, 31.8427277 ], [ 77.1975672, 31.8345693 ], [ 77.1957189, 31.8316192 ], [ 77.1956277, 31.8300377 ], [ 77.1946031, 31.8272848 ], [ 77.1945387, 31.8207851 ], [ 77.1941712, 31.8179886 ], [ 77.1955124, 31.8162154 ], [ 77.1961695, 31.8134416 ], [ 77.1968991, 31.8107657 ], [ 77.1957886, 31.8071689 ], [ 77.1953058, 31.8045749 ], [ 77.1957511, 31.8025415 ], [ 77.1968186, 31.799104 ], [ 77.1989804, 31.795151 ], [ 77.1999299, 31.7927436 ], [ 77.2007668, 31.7901127 ], [ 77.2017646, 31.7857171 ], [ 77.2019041, 31.783843 ], [ 77.2024941, 31.7828671 ], [ 77.2033739, 31.7810796 ], [ 77.203905, 31.7785396 ], [ 77.2036314, 31.7763461 ], [ 77.203964, 31.775434 ], [ 77.204567341762527, 31.772435579813045 ] ] } },
{ "type": "Feature", "properties": { "osm_id": 418309774, "osm_type": "way", "name": null, "tags": { "cables": "6", "power": "line", "voltage": "220000" } }, "geometry": { "type": "LineString", "coordinates": [ [ 77.1814701, 31.9064114 ], [ 77.1817719, 31.906581 ], [ 77.1821045, 31.9068975 ], [ 77.1819167, 31.9072163 ], [ 77.1815613, 31.908505 ] ] } },
{ "type": "Feature", "properties": { "osm_id": 1369962403, "osm_type": "way", "name": null, "tags": { "cables": "3", "power": "line", "voltage": "220000" } }, "geometry": { "type": "LineString", "coordinates": [ [ 77.181454, 31.9092824 ], [ 77.1815405, 31.9089235 ], [ 77.1815613, 31.908505 ], [ 77.18137, 31.9088994 ], [ 77.1812877, 31.9092597 ] ] } },
{ "type": "Feature", "properties": { "osm_id": 1369962401, "osm_type": "way", "name": null, "tags": { "cables": "6", "power": "line", "voltage": "220000" } }, "geometry": { "type": "LineString", "coordinates": [ [ 77.1813091, 31.9088908 ], [ 77.18137, 31.9088994 ], [ 77.1815405, 31.9089235 ], [ 77.181631, 31.9089363 ] ] } },
{ "type": "Feature", "properties": { "osm_id": 1369962406, "osm_type": "way", "name": null, "tags": { "cables": "6", "power": "line", "voltage": "220000" } }, "geometry": { "type": "LineString", "coordinates": [ [ 77.1818793, 31.9090699 ], [ 77.1819079, 31.9089957 ], [ 77.1819126, 31.9089728 ], [ 77.1817979, 31.9089418 ], [ 77.181631, 31.9089363 ] ] } },
{ "type": "Feature", "properties": { "osm_id": 1369962400, "osm_type": "way", "name": null, "tags": { "cables": "6", "power": "line", "voltage": "220000" } }, "geometry": { "type": "LineString", "coordinates": [ [ 77.1817887, 31.9090506 ], [ 77.1818793, 31.9090699 ], [ 77.181981, 31.9090914 ], [ 77.1820138, 31.9090984 ], [ 77.1822278, 31.9091438 ] ] } },
{ "type": "Feature", "properties": { "osm_id": 1369962411, "osm_type": "way", "name": null, "tags": { "cables": "3", "power": "line", "voltage": "220000" } }, "geometry": { "type": "LineString", "coordinates": [ [ 77.181981, 31.9090914 ], [ 77.1819593, 31.9091559 ], [ 77.18191, 31.9093006 ] ] } },
{ "type": "Feature", "properties": { "osm_id": 1369962409, "osm_type": "way", "name": null, "tags": { "cables": "3", "power": "line", "voltage": "220000" } }, "geometry": { "type": "LineString", "coordinates": [ [ 77.1820138, 31.9090984 ], [ 77.1820003, 31.9091647 ], [ 77.181977, 31.9092255 ], [ 77.1823311, 31.9093052 ], [ 77.1822962, 31.9093917 ] ] } },
{ "type": "Feature", "properties": { "osm_id": 1369962404, "osm_type": "way", "name": null, "tags": { "cables": "3", "power": "line", "voltage": "132000" } }, "geometry": { "type": "LineString", "coordinates": [ [ 77.1812877, 31.9092597 ], [ 77.1812729, 31.9094837 ] ] } },
{ "type": "Feature", "properties": { "osm_id": 1369962408, "osm_type": "way", "name": null, "tags": { "cables": "3", "power": "line", "voltage": "132000" } }, "geometry": { "type": "LineString", "coordinates": [ [ 77.18191, 31.9093006 ], [ 77.1818701, 31.9094247 ], [ 77.1818533, 31.9094746 ] ] } },
{ "type": "Feature", "properties": { "osm_id": 1369962405, "osm_type": "way", "name": null, "tags": { "cables": "3", "power": "line", "voltage": "132000" } }, "geometry": { "type": "LineString", "coordinates": [ [ 77.1814119, 31.9095009 ], [ 77.181454, 31.9092824 ] ] } },
{ "type": "Feature", "properties": { "osm_id": 1369962410, "osm_type": "way", "name": null, "tags": { "cables": "3", "power": "line", "voltage": "132000" } }, "geometry": { "type": "LineString", "coordinates": [ [ 77.1822962, 31.9093917 ], [ 77.1822572, 31.9095103 ], [ 77.1822398, 31.9095581 ] ] } },
{ "type": "Feature", "properties": { "osm_id": 1369962402, "osm_type": "way", "name": null, "tags": { "cables": "6", "power": "line", "voltage": "132000" } }, "geometry": { "type": "LineString", "coordinates": [ [ 77.1812287, 31.9094782 ], [ 77.1812729, 31.9094837 ], [ 77.1814119, 31.9095009 ], [ 77.1814862, 31.9095101 ] ] } },
{ "type": "Feature", "properties": { "osm_id": 1369962399, "osm_type": "way", "name": null, "tags": { "cables": "6", "power": "line", "voltage": "132000" } }, "geometry": { "type": "LineString", "coordinates": [ [ 77.18175, 31.9094523 ], [ 77.1818357, 31.9094708 ], [ 77.1818533, 31.9094746 ], [ 77.1819413, 31.9094936 ], [ 77.1822398, 31.9095581 ], [ 77.1823565, 31.9095832 ] ] } },
{ "type": "Feature", "properties": { "osm_id": 1369962407, "osm_type": "way", "name": null, "tags": { "cables": "6", "power": "line", "voltage": "132000" } }, "geometry": { "type": "LineString", "coordinates": [ [ 77.1818357, 31.9094708 ], [ 77.1818206, 31.9095359 ], [ 77.1817946, 31.9095898 ], [ 77.1814862, 31.9095101 ] ] } },
{ "type": "Feature", "properties": { "osm_id": 1370096426, "osm_type": "way", "name": null, "tags": { "cables": "6", "power": "line", "voltage": "11000" } }, "geometry": { "type": "LineString", "coordinates": [ [ 77.32774, 31.783622 ], [ 77.3277165, 31.7835903 ], [ 77.3276705, 31.7835284 ], [ 77.3275522, 31.7833689 ] ] } },
{ "type": "Feature", "properties": { "osm_id": 1370096427, "osm_type": "way", "name": null, "tags": { "cables": "3", "power": "line", "voltage": "11000" } }, "geometry": { "type": "LineString", "coordinates": [ [ 77.3277165, 31.7835903 ], [ 77.3278017, 31.7835285 ] ] } },
{ "type": "Feature", "properties": { "osm_id": 418309748, "osm_type": "way", "name": null, "tags": { "cables": "6", "power": "line", "voltage": "132000" } }, "geometry": { "type": "LineString", "coordinates": [ [ 77.1672785, 31.8512355 ], [ 77.169663, 31.853074 ], [ 77.1703684, 31.853958 ], [ 77.1720717, 31.8558433 ], [ 77.1727999, 31.8560939 ], [ 77.1759568, 31.8556018 ], [ 77.1779524, 31.8552076 ], [ 77.1817826, 31.8549206 ], [ 77.1821098, 31.8552669 ], [ 77.1831961, 31.8567955 ], [ 77.1851756, 31.8592241 ], [ 77.1852614, 31.8597617 ], [ 77.186809, 31.8619646 ], [ 77.188139, 31.8670046 ], [ 77.18591, 31.870164 ], [ 77.1861193, 31.8709613 ], [ 77.1854836, 31.8767787 ], [ 77.1853495, 31.8776191 ], [ 77.1850651, 31.8783571 ], [ 77.1832627, 31.8820901 ], [ 77.1800467, 31.8836161 ], [ 77.1791321, 31.8842834 ], [ 77.17704, 31.88639 ], [ 77.1738428, 31.8879751 ], [ 77.1703479, 31.8921382 ], [ 77.1704122, 31.8938347 ], [ 77.1703264, 31.8947775 ], [ 77.1705249, 31.8971618 ], [ 77.1685454, 31.8996735 ], [ 77.1682021, 31.9014086 ], [ 77.1709031, 31.9044758 ], [ 77.1740413, 31.9066868 ], [ 77.1763694, 31.9089455 ], [ 77.1794432, 31.9125406 ], [ 77.1823212, 31.9168927 ], [ 77.1816828, 31.9230431 ], [ 77.1795639, 31.9254379 ], [ 77.1781826, 31.9271293 ], [ 77.1764901, 31.9309513 ], [ 77.1750525, 31.9331116 ], [ 77.1752, 31.9360047 ], [ 77.1756483, 31.9380223 ], [ 77.1758759, 31.9386337 ], [ 77.1769515, 31.9424394 ], [ 77.1775201, 31.943887 ], [ 77.178711, 31.9464475 ], [ 77.1799341, 31.949306 ], [ 77.1825117, 31.9516115 ], [ 77.1844402, 31.952845 ], [ 77.1898851, 31.9564999 ], [ 77.1907487, 31.9582157 ], [ 77.1928006, 31.959745 ], [ 77.1957055, 31.961545 ], [ 77.1990073, 31.9643849 ], [ 77.1999407, 31.9655932 ], [ 77.2019711, 31.9667787 ], [ 77.2046265, 31.9687356 ], [ 77.2069573, 31.970135 ], [ 77.2104979, 31.9708312 ], [ 77.2160527, 31.9753227 ], [ 77.2173643, 31.9768767 ], [ 77.2176084, 31.9803554 ], [ 77.2220314, 31.9834609 ], [ 77.2226429, 31.9842253 ], [ 77.2258937, 31.9876492 ], [ 77.2288254, 31.9914073 ], [ 77.2291271, 31.9918623 ], [ 77.2278061, 31.9968486 ], [ 77.227892, 32.0017664 ], [ 77.2299331, 32.0038613 ], [ 77.2341013, 32.0041297 ], [ 77.2362551, 32.0043913 ], [ 77.2397473, 32.0074482 ], [ 77.2429767, 32.0091063 ], [ 77.2448489, 32.0138506 ], [ 77.2449535, 32.0162204 ], [ 77.2445753, 32.0210325 ], [ 77.2469544, 32.0240502 ], [ 77.2535339, 32.0346535 ], [ 77.2557065, 32.0390577 ] ] } },
{ "type": "Feature", "properties": { "osm_id": 781944200, "osm_type": "way", "name": null, "tags": { "cables": "6", "power": "line", "voltage": "132000" } }, "geometry": { "type": "LineString", "coordinates": [ [ 77.2479205, 32.0039729 ], [ 77.2476673, 32.0040033 ], [ 77.2464448, 32.0041502 ], [ 77.2429445, 32.0032563 ], [ 77.2415605, 32.0030789 ], [ 77.2360888, 32.0036998 ], [ 77.2346735, 32.0032 ], [ 77.2340621, 32.0029841 ], [ 77.2339502, 32.0029446 ], [ 77.2338203, 32.0028988 ], [ 77.2319341, 32.0022327 ], [ 77.2306636, 31.996979 ], [ 77.2306359, 31.9968646 ], [ 77.2304995, 31.9955391 ], [ 77.230027, 31.9909455 ], [ 77.2298071, 31.988657 ], [ 77.2290158, 31.9852741 ], [ 77.2238392, 31.9814953 ], [ 77.2234181, 31.981377 ], [ 77.2188932, 31.9773704 ], [ 77.2162941, 31.9750565 ], [ 77.2135763, 31.9725451 ], [ 77.2133433, 31.9723298 ], [ 77.213272, 31.972264 ], [ 77.211037, 31.9701987 ], [ 77.2076976, 31.9685968 ], [ 77.2055519, 31.9669949 ], [ 77.2020274, 31.964592 ], [ 77.1996832, 31.9623028 ], [ 77.1990314, 31.9607531 ], [ 77.1961641, 31.9570711 ], [ 77.1931842, 31.9562541 ], [ 77.1902123, 31.9552482 ], [ 77.1863741, 31.952408 ], [ 77.1813315, 31.9486915 ], [ 77.1790704, 31.9432406 ], [ 77.1764928, 31.9382764 ], [ 77.1763319, 31.9316684 ], [ 77.1810874, 31.9272112 ], [ 77.1829194, 31.9211853 ], [ 77.1827933, 31.9166115 ], [ 77.1815944, 31.9107465 ], [ 77.1818479, 31.9098151 ], [ 77.181918, 31.9095575 ], [ 77.1819413, 31.9094936 ] ] } },
{ "type": "Feature", "properties": { "osm_id": 781944209, "osm_type": "way", "name": null, "tags": { "power": "line" } }, "geometry": { "type": "LineString", "coordinates": [ [ 77.1976796, 32.3337017 ], [ 77.1993881, 32.3349278 ], [ 77.2020301, 32.3359522 ], [ 77.2059086, 32.3379419 ], [ 77.2076896, 32.3395827 ], [ 77.2088805, 32.3403056 ], [ 77.2101277, 32.3411962 ], [ 77.2113562, 32.3423609 ], [ 77.2122627, 32.3436821 ], [ 77.213856, 32.346041 ], [ 77.214658, 32.3470313 ], [ 77.2158971, 32.3485449 ], [ 77.2191346, 32.3519257 ], [ 77.2199044, 32.3530994 ], [ 77.2225302, 32.3548056 ] ] } }
]
}
